{"type":"FeatureCollection","features":[{"type":"Feature","id":"datav:230100","properties":{"boundaryId":"datav:230100","nodeId":"geo:cn-hl-hrb","parentNodeId":"geo:cn-hl","bounds":[125.68796,44.06225,130.24008,46.67065]},"geometry":{"type":"Polygon","coordinates":[[[125.76129,45.53135],[125.74362,45.51907],[125.68796,45.51401],[125.7098,45.48438],[125.69714,45.45399],[125.71593,45.42174],[125.69575,45.35071],[125.72622,45.33645],[125.75322,45.29798],[125.81486,45.26781],[125.81346,45.24682],[125.88846,45.22149],[125.91977,45.19604],[125.95747,45.20135],[125.99699,45.16268],[126.04486,45.17102],[126.08535,45.16268],[126.11401,45.14284],[126.19207,45.15509],[126.23562,45.14024],[126.2647,45.1682],[126.34192,45.19269],[126.43208,45.2347],[126.54006,45.23881],[126.56955,45.25266],[126.6465,45.22431],[126.68574,45.1877],[126.73221,45.18727],[126.78703,45.15899],[126.7926,45.13536],[126.83893,45.13276],[126.92214,45.14262],[126.9643,45.13222],[126.97097,45.07103],[127.01842,45.02433],[127.05028,45.00391],[127.08897,44.92996],[127.07255,44.90689],[127.0219,44.89894],[126.99908,44.8727],[126.98419,44.82453],[126.99755,44.76487],[127.0411,44.71225],[127.03053,44.6739],[127.04319,44.65488],[127.04152,44.5911],[127.08924,44.59362],[127.09467,44.61584],[127.13892,44.60763],[127.18191,44.64427],[127.2622,44.61288],[127.27569,44.64023],[127.39271,44.63224],[127.55703,44.57556],[127.57025,44.5507],[127.537,44.52266],[127.48552,44.52868],[127.46562,44.51652],[127.46465,44.4867],[127.5082,44.43723],[127.48552,44.40869],[127.52058,44.38057],[127.52253,44.36102],[127.55676,44.34025],[127.57971,44.31012],[127.62354,44.27789],[127.62327,44.25829],[127.59057,44.22791],[127.62661,44.18791],[127.6817,44.16697],[127.72053,44.16278],[127.73486,44.12991],[127.72887,44.09946],[127.78383,44.07186],[127.80832,44.08643],[127.84589,44.08191],[127.86495,44.06225],[127.90809,44.06446],[127.94955,44.08809],[128.05251,44.10696],[128.10149,44.13576],[128.08786,44.15848],[128.09203,44.21579],[128.10441,44.22934],[128.06392,44.2616],[128.10135,44.28988],[128.06504,44.30737],[128.05029,44.35047],[128.06698,44.37102],[128.12626,44.34926],[128.18873,44.36431],[128.21197,44.43229],[128.25302,44.44667],[128.23521,44.48045],[128.27166,44.53065],[128.37184,44.60807],[128.40844,44.67587],[128.43807,44.68002],[128.47286,44.66614],[128.53547,44.68286],[128.60017,44.6704],[128.63009,44.65521],[128.69159,44.66319],[128.7478,44.69969],[128.7485,44.73988],[128.78885,44.78342],[128.83643,44.78986],[128.90461,44.88337],[128.96722,44.88479],[128.99394,44.90787],[129.04333,44.92996],[129.0233,44.97347],[129.05182,44.99923],[129.03568,45.0415],[128.99742,45.06452],[129.01718,45.08025],[129.05614,45.07711],[129.10483,45.10076],[129.13336,45.10141],[129.10581,45.16333],[129.18734,45.20492],[129.20989,45.22344],[129.21086,45.25915],[129.17454,45.29203],[129.12765,45.27549],[129.0624,45.33883],[129.08758,45.35838],[129.15659,45.36983],[129.19416,45.38959],[129.1982,45.42692],[129.14672,45.44461],[129.11777,45.47404],[129.14031,45.53598],[129.10205,45.56719],[129.09259,45.60494],[129.10929,45.62537],[129.15047,45.62376],[129.22074,45.59397],[129.25497,45.6172],[129.29894,45.61978],[129.30826,45.67307],[129.34179,45.67866],[129.34429,45.73576],[129.40538,45.73844],[129.40204,45.76857],[129.43168,45.77994],[129.50862,45.78926],[129.55662,45.81712],[129.54925,45.84764],[129.62606,45.89334],[129.66696,45.87312],[129.72304,45.89665],[129.77132,45.88596],[129.794,45.89708],[129.79748,45.93344],[129.78509,45.97095],[129.80819,45.98707],[129.84631,45.9875],[129.92062,45.92114],[130.02761,45.92371],[130.08856,45.91569],[130.11625,45.92649],[130.10512,45.98141],[130.12543,46.04983],[130.13976,46.06956],[130.18234,46.08342],[130.24008,46.12232],[130.18818,46.17269],[130.15896,46.18812],[130.13962,46.23013],[130.09635,46.24331],[130.00953,46.33041],[129.9689,46.34526],[129.92381,46.37602],[129.97321,46.3897],[130.03095,46.38716],[130.06602,46.36414],[130.08313,46.39044],[130.11541,46.38673],[130.16175,46.43315],[130.17093,46.46333],[130.14658,46.49106],[130.15312,46.53866],[130.19778,46.61715],[130.12654,46.59814],[130.11458,46.57417],[130.13893,46.50418],[130.09204,46.52385],[130.04181,46.52628],[130.06657,46.55863],[130.05447,46.58632],[129.98879,46.56508],[129.95846,46.60184],[129.92117,46.6294],[129.86287,46.59434],[129.82197,46.55958],[129.76116,46.53178],[129.68338,46.53665],[129.64261,46.5581],[129.64039,46.58072],[129.5928,46.60892],[129.50236,46.61937],[129.50139,46.61937],[129.43933,46.60438],[129.40663,46.64301],[129.35571,46.65282],[129.28154,46.64195],[129.2423,46.62032],[129.19736,46.53601],[129.15659,46.54521],[129.12877,46.53051],[129.08215,46.55789],[129.02065,46.48778],[128.95679,46.51296],[128.87984,46.52428],[128.83922,46.48746],[128.78676,46.50111],[128.76491,46.48661],[128.70425,46.48376],[128.70898,46.53781],[128.67948,46.57575],[128.5658,46.57892],[128.54577,46.59941],[128.46729,46.62549],[128.42847,46.62074],[128.36892,46.571],[128.23896,46.57723],[128.1943,46.56508],[128.19138,46.53897],[128.15283,46.53929],[128.12111,46.50852],[128.08549,46.50841],[128.04806,46.53062],[128.01495,46.53115],[127.96555,46.5487],[127.92826,46.57512],[127.84422,46.57628],[127.81472,46.60585],[127.77688,46.58304],[127.69645,46.55419],[127.68157,46.56402],[127.58945,46.51465],[127.50973,46.53992],[127.50583,46.5992],[127.48176,46.62845],[127.40843,46.66685],[127.32147,46.67065],[127.27569,46.6447],[127.24119,46.65198],[127.18734,46.64259],[127.16883,46.62042],[127.05098,46.57808],[127.03178,46.54775],[126.91824,46.50661],[126.87385,46.49519],[126.85187,46.47709],[126.83754,46.43844],[126.80331,46.42224],[126.74278,46.41715],[126.68212,46.37592],[126.63523,46.32478],[126.64191,46.29314],[126.61561,46.23576],[126.5875,46.20822],[126.52684,46.18886],[126.45755,46.13979],[126.45476,46.11614],[126.42318,46.08481],[126.35055,46.09579],[126.32884,46.06551],[126.2775,46.0654],[126.25844,46.07809],[126.17078,46.06146],[126.23548,45.99006],[126.26205,45.9733],[126.31075,45.97041],[126.31173,45.93451],[126.32815,45.90189],[126.35709,45.88938],[126.34276,45.83126],[126.36432,45.80716],[126.35556,45.74788],[126.29865,45.74155],[126.30672,45.7026],[126.22337,45.7041],[126.18441,45.68617],[126.12403,45.67383],[126.02663,45.71151],[125.98182,45.66964],[125.99602,45.63397],[125.9277,45.63031],[125.9341,45.5858],[125.84825,45.5097],[125.8335,45.52015],[125.77701,45.51121],[125.76129,45.53135]]]}},{"type":"Feature","id":"datav:230200","properties":{"boundaryId":"datav:230200","nodeId":"geo:cn-hl-ndg","parentNodeId":"geo:cn-hl","bounds":[122.41816,46.22301,126.66654,48.93261]},"geometry":{"type":"Polygon","coordinates":[[[124.75015,48.92403],[124.70924,48.92039],[124.70897,48.86653],[124.65415,48.83437],[124.65359,48.77708],[124.61393,48.75114],[124.62493,48.70024],[124.60183,48.63244],[124.57915,48.59647],[124.51862,48.55426],[124.54895,48.53127],[124.53351,48.51539],[124.55536,48.46925],[124.50805,48.44692],[124.52461,48.42673],[124.51876,48.37796],[124.54701,48.35764],[124.54116,48.33537],[124.57957,48.29745],[124.55647,48.27669],[124.5637,48.24384],[124.54715,48.20104],[124.52168,48.1869],[124.52961,48.14692],[124.46408,48.09767],[124.47577,48.17296],[124.42081,48.18106],[124.42818,48.22316],[124.36515,48.28467],[124.35625,48.31279],[124.31882,48.34712],[124.33231,48.37929],[124.31409,48.41919],[124.32995,48.43571],[124.30282,48.45671],[124.31422,48.50388],[124.25913,48.53656],[124.1371,48.46333],[124.08186,48.43785],[123.97987,48.36377],[123.86605,48.27475],[123.74653,48.19776],[123.70521,48.15205],[123.61894,48.07786],[123.53754,48.02186],[123.42122,47.98885],[123.28904,47.94316],[123.25523,47.87578],[123.21418,47.82452],[123.16492,47.78313],[123.03065,47.74149],[122.98098,47.7172],[122.8488,47.67457],[122.76322,47.61348],[122.5932,47.54713],[122.54408,47.49637],[122.50651,47.40106],[122.41816,47.35048],[122.41983,47.33027],[122.45698,47.30307],[122.46282,47.27847],[122.49844,47.2548],[122.55744,47.17169],[122.60029,47.15163],[122.62144,47.12173],[122.67988,47.09421],[122.80538,47.07527],[122.84601,47.0469],[122.77825,47.00289],[122.77477,46.97406],[122.80246,46.93734],[122.84866,46.93965],[122.89527,46.96032],[122.89944,46.91813],[122.87982,46.89262],[122.9,46.86257],[122.89903,46.82683],[122.91864,46.8039],[122.99656,46.76159],[123.00449,46.72936],[123.07629,46.74463],[123.10495,46.73473],[123.17814,46.7539],[123.18635,46.78685],[123.22322,46.82146],[123.21752,46.85269],[123.23728,46.86215],[123.3088,46.86204],[123.34177,46.82693],[123.37461,46.83766],[123.40675,46.90638],[123.40466,46.93545],[123.36028,46.97091],[123.30406,46.96483],[123.3017,46.99985],[123.344,46.98497],[123.42748,46.93451],[123.48787,46.95906],[123.51625,46.9513],[123.52085,46.92002],[123.48342,46.84596],[123.51417,46.82609],[123.56273,46.82599],[123.5772,46.89115],[123.61727,46.83829],[123.63132,46.73189],[123.60433,46.68973],[123.47409,46.68699],[123.3664,46.67782],[123.31798,46.66221],[123.27735,46.66158],[123.27916,46.61694],[123.20569,46.5916],[123.18065,46.61398],[123.09855,46.60311],[123.07768,46.62222],[123.04582,46.61778],[123.05292,46.58008],[123.00255,46.57448],[123.01034,46.5248],[123.01062,46.4358],[123.0948,46.34229],[123.14043,46.30026],[123.17856,46.2481],[123.24813,46.27328],[123.28737,46.25011],[123.34734,46.24586],[123.37363,46.22301],[123.39604,46.24427],[123.45336,46.23247],[123.49997,46.25957],[123.56648,46.22577],[123.60503,46.25182],[123.6682,46.25851],[123.72496,46.25564],[123.78716,46.26754],[123.84991,46.30238],[123.85951,46.34516],[123.84407,46.37549],[123.87009,46.39065],[123.86633,46.41863],[123.82431,46.45094],[123.81012,46.48482],[123.82306,46.51211],[123.79774,46.52544],[123.82417,46.57385],[123.78466,46.62391],[123.75446,46.64238],[123.76712,46.66443],[123.75822,46.69501],[123.78521,46.71313],[123.76643,46.74179],[123.85548,46.74432],[123.85924,46.69616],[123.88734,46.68478],[123.91433,46.70449],[123.95816,46.70776],[124.00366,46.73705],[123.98585,46.80074],[123.92936,46.84607],[123.94397,46.89356],[123.97041,46.92517],[124.0077,46.94951],[124.0006,47.00247],[124.07296,47.00499],[124.08923,47.03915],[124.1538,47.10781],[124.19596,47.13135],[124.30546,47.1418],[124.34706,47.13867],[124.41886,47.18392],[124.42303,47.22422],[124.39757,47.25907],[124.40063,47.28556],[124.43472,47.3235],[124.44641,47.35277],[124.4798,47.34006],[124.58791,47.33975],[124.63369,47.30776],[124.81096,47.38618],[124.82459,47.41115],[124.96471,47.4569],[125.04736,47.47882],[125.07978,47.39326],[125.16952,47.39263],[125.16952,47.38129],[125.31492,47.38129],[125.33287,47.2865],[125.40745,47.28546],[125.52155,47.29453],[125.6817,47.31245],[125.82891,47.32048],[125.97181,47.33652],[126.18998,47.35527],[126.44628,47.37994],[126.53338,47.48256],[126.51891,47.49502],[126.54061,47.53084],[126.55703,47.5857],[126.52628,47.60312],[126.51863,47.72557],[126.56635,47.72671],[126.56455,47.79593],[126.59084,47.82112],[126.56663,47.88042],[126.58041,47.91206],[126.62312,47.9586],[126.63008,47.98906],[126.61686,48.05372],[126.6003,48.0869],[126.61575,48.11317],[126.66654,48.13123],[126.61547,48.15246],[126.59488,48.19623],[126.57303,48.21559],[126.52044,48.21927],[126.43,48.19336],[126.39229,48.19725],[126.34735,48.17481],[126.32258,48.24067],[126.28974,48.27147],[126.24466,48.28385],[126.19902,48.27454],[126.15533,48.29121],[126.05112,48.28283],[126.00144,48.30726],[125.94718,48.31861],[125.91225,48.33976],[125.84338,48.35795],[125.82028,48.39347],[125.80136,48.47709],[125.79969,48.5563],[125.70702,48.5624],[125.7265,48.5983],[125.76713,48.58884],[125.81611,48.60023],[125.8925,48.63691],[125.87371,48.66848],[125.95581,48.71049],[125.98989,48.7115],[126.00784,48.73817],[125.9597,48.78072],[125.85715,48.83791],[125.81653,48.86856],[125.78967,48.82638],[125.69784,48.8032],[125.64037,48.85308],[125.62256,48.89099],[125.51389,48.85915],[125.46812,48.82648],[125.45226,48.78356],[125.41371,48.79267],[125.30908,48.72681],[125.21224,48.73452],[125.12875,48.7258],[125.09606,48.74982],[125.04597,48.74648],[125.04096,48.78923],[125.01549,48.82506],[125.02259,48.86168],[124.99142,48.88534],[124.86828,48.90322],[124.79885,48.93261],[124.75015,48.92403]]]}},{"type":"Feature","id":"datav:230300","properties":{"boundaryId":"datav:230300","nodeId":"geo:cn-hl-jxi","parentNodeId":"geo:cn-hl","bounds":[130.40343,44.85461,133.94999,46.61029]},"geometry":{"type":"Polygon","coordinates":[[[131.78886,45.90403],[131.71817,45.89665],[131.71845,45.91676],[131.64359,45.91066],[131.57402,45.91548],[131.55691,45.87964],[131.52254,45.88136],[131.50028,45.84122],[131.45214,45.81273],[131.47885,45.7246],[131.3969,45.72299],[131.33818,45.68424],[131.37269,45.67211],[131.33915,45.64579],[131.30479,45.59806],[131.28294,45.62816],[131.21824,45.61989],[131.19487,45.63837],[131.15354,45.64676],[131.04014,45.65159],[131.01287,45.68048],[130.94664,45.66738],[130.93843,45.62429],[130.8907,45.61],[130.86524,45.63322],[130.77703,45.61892],[130.7453,45.55966],[130.75769,45.53253],[130.74405,45.50916],[130.7133,45.5111],[130.65222,45.43986],[130.61034,45.41095],[130.55718,45.39131],[130.54077,45.35946],[130.49304,45.33721],[130.47467,45.30057],[130.49332,45.27678],[130.43377,45.20525],[130.46772,45.16939],[130.40343,45.13428],[130.42041,45.08937],[130.48539,45.05485],[130.50055,45.07537],[130.55663,45.10098],[130.62982,45.05496],[130.65876,44.99945],[130.69187,44.99521],[130.72053,44.96542],[130.76784,44.97467],[130.79776,45.00315],[130.83644,44.98815],[130.92368,44.93377],[130.92758,44.88827],[130.96807,44.85461],[130.98713,44.86769],[131.06143,44.8739],[131.10206,44.89807],[131.09093,44.92485],[131.15952,44.94824],[131.20335,44.93279],[131.20641,44.91592],[131.27515,44.91984],[131.3116,44.9465],[131.31397,44.96608],[131.35529,44.98989],[131.41025,44.98587],[131.43405,44.96945],[131.49346,44.96814],[131.48567,44.9963],[131.52964,45.01217],[131.5679,45.04595],[131.63288,45.07526],[131.68534,45.11584],[131.68742,45.15097],[131.65055,45.15986],[131.68172,45.2151],[131.72165,45.23437],[131.75922,45.2138],[131.79359,45.21175],[131.78844,45.24595],[131.83004,45.3116],[131.88765,45.34229],[131.92174,45.33192],[131.93203,45.28727],[131.9785,45.27614],[131.99534,45.25872],[132.3944,45.16376],[132.86205,45.06082],[132.9152,45.03172],[132.97851,45.0327],[133.04543,45.06506],[133.06881,45.09653],[133.1388,45.12701],[133.13782,45.17936],[133.12419,45.22171],[133.1068,45.23524],[133.09775,45.2849],[133.11904,45.35266],[133.14478,45.36735],[133.14408,45.43069],[133.17191,45.44331],[133.17052,45.46563],[133.21004,45.51207],[133.24677,45.51756],[133.33485,45.56127],[133.38911,45.57956],[133.41318,45.6158],[133.44616,45.6301],[133.45534,45.65578],[133.48818,45.65997],[133.47927,45.69423],[133.44769,45.70571],[133.46814,45.75496],[133.47107,45.83801],[133.49444,45.8424],[133.51225,45.88681],[133.53243,45.89708],[133.5764,45.87076],[133.61688,45.90104],[133.61619,45.94327],[133.68506,45.95994],[133.69912,46.01291],[133.73195,46.03714],[133.74531,46.07543],[133.70552,46.11028],[133.69411,46.15651],[133.76437,46.17311],[133.79679,46.19737],[133.81474,46.23077],[133.84953,46.20386],[133.86748,46.25065],[133.91005,46.25447],[133.9184,46.28114],[133.87346,46.35958],[133.91882,46.37093],[133.94999,46.39479],[133.90254,46.44607],[133.85231,46.45009],[133.84953,46.47518],[133.87068,46.5083],[133.79958,46.53559],[133.71011,46.53358],[133.66308,46.54711],[133.62718,46.53443],[133.5757,46.54204],[133.53743,46.53718],[133.50766,46.51698],[133.48275,46.56318],[133.42793,46.54056],[133.34946,46.56677],[133.35989,46.58251],[133.32093,46.61029],[133.27836,46.58431],[133.2323,46.57681],[133.22353,46.49201],[133.20739,46.47116],[133.14965,46.4628],[133.11932,46.48312],[133.09052,46.46799],[133.09845,46.44395],[133.06658,46.41683],[133.0837,46.40094],[132.9952,46.34494],[133.02999,46.33837],[133.02846,46.30854],[132.98393,46.26807],[132.97322,46.20312],[132.95318,46.1696],[132.89781,46.15629],[132.87888,46.13681],[132.78942,46.15001],[132.74614,46.18354],[132.67908,46.16502],[132.64791,46.12072],[132.6262,46.1204],[132.60798,46.07212],[132.57138,46.07457],[132.50974,46.00736],[132.45103,45.98814],[132.39036,46.02732],[132.3091,46.02935],[132.30715,46.00576],[132.26792,45.98889],[132.28294,45.96069],[132.26555,45.9469],[132.28768,45.92232],[132.25748,45.86819],[132.22242,45.87387],[132.21254,45.84636],[132.16815,45.85792],[132.13462,45.84272],[132.02706,45.81637],[131.97113,45.82012],[131.94024,45.84903],[131.92744,45.88435],[131.89419,45.87033],[131.87276,45.83394],[131.86761,45.79912],[131.80124,45.80437],[131.7851,45.83758],[131.7972,45.85653],[131.78886,45.90403]]]}},{"type":"Feature","id":"datav:230400","properties":{"boundaryId":"datav:230400","nodeId":"geo:cn-hl-heg","parentNodeId":"geo:cn-hl","bounds":[129.67503,47.06512,132.52394,48.35733]},"geometry":{"type":"Polygon","coordinates":[[[130.7851,48.35733],[130.76367,48.33486],[130.68478,48.32025],[130.67504,48.30614],[130.58668,48.30665],[130.52184,48.28958],[130.45533,48.32965],[130.43557,48.31493],[130.37811,48.30808],[130.3731,48.29377],[130.29017,48.29367],[130.26123,48.24497],[130.23952,48.16989],[130.18095,48.1746],[130.12988,48.1459],[130.04904,48.195],[129.98643,48.22593],[129.98198,48.25039],[129.87971,48.31677],[129.84158,48.26012],[129.78342,48.24098],[129.81,48.21917],[129.79929,48.15123],[129.73347,48.10404],[129.74544,48.03512],[129.78092,47.99914],[129.74196,47.9763],[129.67503,47.97898],[129.68672,47.92864],[129.71552,47.9101],[129.6998,47.88723],[129.75128,47.85166],[129.77299,47.81668],[129.77313,47.78251],[129.81334,47.7604],[129.87526,47.74449],[129.90893,47.72588],[129.89849,47.67882],[129.92966,47.65429],[129.89557,47.60944],[129.90128,47.57191],[129.86927,47.5382],[129.88639,47.44328],[129.83797,47.42633],[129.83908,47.40418],[129.89654,47.36422],[129.89988,47.30485],[129.93189,47.29432],[129.93731,47.25918],[129.99199,47.25229],[130.01801,47.22589],[130.05948,47.22506],[130.1264,47.20741],[130.14394,47.18527],[130.14505,47.13657],[130.18902,47.10321],[130.23967,47.08218],[130.3091,47.06648],[130.38368,47.06512],[130.37853,47.11242],[130.45658,47.13595],[130.53868,47.12246],[130.60727,47.15738],[130.62634,47.1532],[130.69285,47.20491],[130.64846,47.24635],[130.59392,47.2817],[130.56205,47.32767],[130.62495,47.3385],[130.68227,47.3309],[130.70899,47.31537],[130.79233,47.29067],[130.85202,47.2962],[130.98351,47.31829],[130.98852,47.25094],[130.96807,47.22067],[131.05016,47.21545],[131.09496,47.1929],[131.12836,47.21587],[131.19598,47.22443],[131.27251,47.19039],[131.33915,47.18183],[131.39036,47.21775],[131.46494,47.23758],[131.48177,47.25365],[131.59336,47.23654],[131.6781,47.24802],[131.73501,47.24238],[131.77717,47.27138],[131.81641,47.26857],[131.8882,47.27774],[131.9298,47.24509],[132.01941,47.25699],[132.03708,47.27816],[132.04794,47.36609],[132.1406,47.40408],[132.20906,47.40699],[132.29769,47.47165],[132.35905,47.50561],[132.37506,47.53187],[132.41179,47.54038],[132.47371,47.64134],[132.45631,47.68109],[132.50682,47.69092],[132.52394,47.71616],[132.46911,47.72619],[132.37213,47.76526],[132.32538,47.76216],[132.27209,47.71864],[132.15716,47.70561],[132.08606,47.70313],[132.00049,47.71223],[131.97057,47.67157],[131.90073,47.68565],[131.82573,47.67727],[131.74169,47.70654],[131.68993,47.70685],[131.64151,47.66391],[131.59044,47.66081],[131.56804,47.68254],[131.54383,47.73601],[131.45603,47.74717],[131.35989,47.73095],[131.27362,47.73891],[131.23716,47.73312],[131.18332,47.70272],[131.11555,47.68989],[131.03012,47.69475],[130.98379,47.71316],[130.96667,47.73322],[130.96167,47.82793],[130.8914,47.9272],[130.77049,47.99821],[130.73737,48.0341],[130.69396,48.04828],[130.66877,48.09921],[130.67378,48.12825],[130.76589,48.18926],[130.76562,48.22163],[130.78774,48.25684],[130.81765,48.26564],[130.8459,48.30072],[130.8196,48.3416],[130.7851,48.35733]]]}},{"type":"Feature","id":"datav:230500","properties":{"boundaryId":"datav:230500","nodeId":"geo:cn-hl-sys","parentNodeId":"geo:cn-hl","bounds":[130.66613,45.79912,134.55177,47.88712]},"geometry":{"type":"Polygon","coordinates":[[[134.4982,47.44931],[134.50474,47.55179],[134.50544,47.65273],[134.51184,47.73953],[134.55177,47.73849],[134.55177,47.78457],[134.51337,47.78457],[134.5174,47.88383],[134.46522,47.88712],[134.46676,47.86764],[134.43795,47.83804],[134.38438,47.82803],[134.35948,47.779],[134.37701,47.77249],[134.37478,47.73115],[134.34556,47.69206],[134.29492,47.64704],[134.21797,47.62943],[134.19181,47.5885],[134.10875,47.61731],[134.10179,47.57098],[134.05212,47.57223],[134.03403,47.5381],[133.97448,47.52066],[133.93593,47.54194],[133.88598,47.53571],[133.848,47.54775],[133.80806,47.53333],[133.69327,47.54401],[133.63442,47.52295],[133.59337,47.44162],[133.5622,47.43413],[133.45506,47.46552],[133.40094,47.40782],[133.35321,47.33183],[133.29283,47.30245],[133.2963,47.20136],[133.25846,47.1743],[133.25595,47.14442],[133.22813,47.11378],[133.23689,47.04009],[133.13949,46.93923],[133.14896,46.89913],[133.06213,46.87802],[132.97002,46.83924],[132.95652,46.80768],[132.90574,46.80264],[132.87791,46.76769],[132.77995,46.77685],[132.71971,46.81715],[132.62829,46.8101],[132.54954,46.78917],[132.51392,46.7918],[132.49305,46.82409],[132.43252,46.82819],[132.39022,46.81431],[132.40066,46.76285],[132.3642,46.76759],[132.30632,46.79727],[132.22242,46.82073],[132.19529,46.87791],[132.25331,46.90911],[132.2419,46.95445],[132.20558,46.95235],[132.06004,46.97658],[132.05907,46.98947],[131.9298,46.98727],[131.9152,46.97553],[131.83964,46.95822],[131.83756,46.90375],[131.86469,46.88663],[131.72889,46.88674],[131.52908,46.89104],[131.53395,47.01253],[131.55413,47.07381],[131.40831,47.06889],[131.40497,47.02626],[131.21267,46.96536],[131.08564,46.9556],[131.05976,46.99052],[131.01329,46.98906],[130.94288,46.94899],[130.83644,46.93965],[130.8498,46.89892],[130.8235,46.87623],[130.82851,46.85479],[130.76492,46.84964],[130.71358,46.82231],[130.66613,46.83093],[130.6685,46.74327],[130.70954,46.74274],[130.74516,46.67845],[130.71984,46.62496],[130.75727,46.60659],[130.79748,46.60786],[130.82155,46.58748],[130.91241,46.59529],[130.94511,46.57955],[130.9753,46.50756],[131.03082,46.48312],[131.01871,46.44723],[131.06421,46.42626],[131.06268,46.40083],[131.13239,46.38822],[131.20544,46.36414],[131.22937,46.37348],[131.2956,46.33179],[131.28308,46.31119],[131.34082,46.2976],[131.41039,46.24916],[131.50598,46.24926],[131.58682,46.2212],[131.63037,46.2179],[131.70565,46.20088],[131.72735,46.1762],[131.69841,46.1597],[131.70718,46.09206],[131.77216,46.07031],[131.83895,46.06402],[131.89321,46.08822],[131.91297,46.05996],[131.90573,46.00341],[131.87498,45.98707],[131.83686,45.9406],[131.80806,45.93493],[131.78886,45.90403],[131.7972,45.85653],[131.7851,45.83758],[131.80124,45.80437],[131.86761,45.79912],[131.87276,45.83394],[131.89419,45.87033],[131.92744,45.88435],[131.94024,45.84903],[131.97113,45.82012],[132.02706,45.81637],[132.13462,45.84272],[132.16815,45.85792],[132.21254,45.84636],[132.22242,45.87387],[132.25748,45.86819],[132.28768,45.92232],[132.26555,45.9469],[132.28294,45.96069],[132.26792,45.98889],[132.30715,46.00576],[132.3091,46.02935],[132.39036,46.02732],[132.45103,45.98814],[132.50974,46.00736],[132.57138,46.07457],[132.60798,46.07212],[132.6262,46.1204],[132.64791,46.12072],[132.67908,46.16502],[132.74614,46.18354],[132.78942,46.15001],[132.87888,46.13681],[132.89781,46.15629],[132.95318,46.1696],[132.97322,46.20312],[132.98393,46.26807],[133.02846,46.30854],[133.02999,46.33837],[132.9952,46.34494],[133.0837,46.40094],[133.06658,46.41683],[133.09845,46.44395],[133.09052,46.46799],[133.11932,46.48312],[133.14965,46.4628],[133.20739,46.47116],[133.22353,46.49201],[133.2323,46.57681],[133.27836,46.58431],[133.32093,46.61029],[133.35989,46.58251],[133.34946,46.56677],[133.42793,46.54056],[133.48275,46.56318],[133.50766,46.51698],[133.53743,46.53718],[133.5757,46.54204],[133.62718,46.53443],[133.66308,46.54711],[133.71011,46.53358],[133.79958,46.53559],[133.87068,46.5083],[133.89085,46.52523],[133.91117,46.58135],[133.93204,46.60427],[134.01121,46.63816],[134.02818,46.69353],[134.03319,46.75906],[134.05281,46.78012],[134.0215,46.82641],[134.0414,46.84849],[134.04266,46.88674],[134.07633,46.9385],[134.06408,46.98004],[134.10193,47.00583],[134.11821,47.06177],[134.14144,47.09149],[134.22229,47.1053],[134.23286,47.1348],[134.23022,47.18224],[134.21074,47.21034],[134.15731,47.24843],[134.17762,47.32642],[134.20308,47.34746],[134.26333,47.37119],[134.26653,47.39201],[134.31495,47.4333],[134.4982,47.44931]]]}},{"type":"Feature","id":"datav:230600","properties":{"boundaryId":"datav:230600","nodeId":"geo:cn-hl-dqg","parentNodeId":"geo:cn-hl","bounds":[123.75446,45.38462,125.80665,47.47882]},"geometry":{"type":"Polygon","coordinates":[[[125.33287,47.2865],[125.31492,47.38129],[125.16952,47.38129],[125.16952,47.39263],[125.07978,47.39326],[125.04736,47.47882],[124.96471,47.4569],[124.82459,47.41115],[124.81096,47.38618],[124.63369,47.30776],[124.58791,47.33975],[124.4798,47.34006],[124.44641,47.35277],[124.43472,47.3235],[124.40063,47.28556],[124.39757,47.25907],[124.42303,47.22422],[124.41886,47.18392],[124.34706,47.13867],[124.30546,47.1418],[124.19596,47.13135],[124.1538,47.10781],[124.08923,47.03915],[124.07296,47.00499],[124.0006,47.00247],[124.0077,46.94951],[123.97041,46.92517],[123.94397,46.89356],[123.92936,46.84607],[123.98585,46.80074],[124.00366,46.73705],[123.95816,46.70776],[123.91433,46.70449],[123.88734,46.68478],[123.85924,46.69616],[123.85548,46.74432],[123.76643,46.74179],[123.78521,46.71313],[123.75822,46.69501],[123.76712,46.66443],[123.75446,46.64238],[123.78466,46.62391],[123.82417,46.57385],[123.79774,46.52544],[123.82306,46.51211],[123.81012,46.48482],[123.82431,46.45094],[123.86633,46.41863],[123.87009,46.39065],[123.84407,46.37549],[123.85951,46.34516],[123.84991,46.30238],[123.89639,46.30366],[123.96651,46.27498],[123.95608,46.24469],[123.98307,46.22471],[123.95649,46.20578],[124.00213,46.16683],[123.99531,46.13776],[124.01591,46.12424],[124.00992,46.05751],[124.04095,46.02518],[124.00533,46.02134],[124.01201,45.98205],[123.97709,45.97586],[123.97152,45.93194],[124.00185,45.90446],[124.05821,45.88959],[124.07115,45.84518],[124.03316,45.83383],[124.06433,45.80223],[124.00199,45.77061],[124.01479,45.74992],[124.05417,45.75131],[124.09814,45.72245],[124.09953,45.70303],[124.13501,45.69047],[124.14726,45.623],[124.18747,45.61591],[124.22657,45.63343],[124.22754,45.59892],[124.27276,45.58397],[124.26469,45.55503],[124.29544,45.53921],[124.35875,45.5448],[124.36891,45.51293],[124.35249,45.49667],[124.37586,45.45571],[124.39882,45.44062],[124.48064,45.45625],[124.50721,45.42465],[124.54422,45.41192],[124.57971,45.42411],[124.58513,45.45377],[124.6252,45.43727],[124.69046,45.45248],[124.7297,45.44407],[124.76059,45.46843],[124.79301,45.43706],[124.82863,45.45517],[124.86633,45.44062],[124.89013,45.45658],[124.88456,45.49548],[124.90863,45.51939],[124.98307,45.49236],[125.02565,45.49333],[125.04986,45.42854],[125.08423,45.42314],[125.06976,45.38462],[125.11317,45.39002],[125.13766,45.40966],[125.18942,45.3993],[125.24897,45.41764],[125.3479,45.39541],[125.39855,45.41678],[125.43375,45.45873],[125.42512,45.48557],[125.48036,45.48654],[125.49734,45.4693],[125.5932,45.49699],[125.61672,45.51799],[125.66013,45.50701],[125.68796,45.51401],[125.74362,45.51907],[125.76129,45.53135],[125.72163,45.646],[125.73151,45.68736],[125.78397,45.67919],[125.80665,45.69959],[125.7489,45.74917],[125.77339,45.76278],[125.78118,45.79923],[125.72344,45.79709],[125.71106,45.81551],[125.69575,45.90746],[125.42011,45.88553],[125.35708,46.14788],[125.2903,46.1367],[125.25551,46.14863],[125.21933,46.14362],[125.21196,46.17152],[125.16396,46.19695],[125.11693,46.18663],[125.1147,46.25362],[125.09063,46.26616],[125.07908,46.17141],[125.13543,46.1646],[125.15283,46.12924],[125.22351,46.13755],[125.19568,46.09408],[125.16173,46.08236],[125.14726,46.04396],[125.10552,46.04492],[125.06266,46.08385],[124.95956,46.07095],[124.9046,46.05004],[124.87594,46.0686],[124.92227,46.08875],[124.93117,46.11135],[124.90738,46.17003],[124.91768,46.20876],[124.96888,46.21801],[124.9853,46.2516],[125.0525,46.25819],[125.05904,46.33762],[125.02718,46.37167],[125.03609,46.40645],[124.98711,46.43008],[125.03664,46.44437],[125.06224,46.48714],[125.09216,46.48037],[125.1723,46.48281],[125.16159,46.42838],[125.2185,46.42743],[125.23965,46.411],[125.27082,46.43611],[125.24048,46.45676],[125.27012,46.47878],[125.25022,46.49445],[125.20723,46.48831],[125.16131,46.52005],[125.20264,46.53707],[125.23979,46.52755],[125.25732,46.54362],[125.23547,46.57797],[125.24897,46.58832],[125.18107,46.65282],[125.27179,46.65525],[125.27652,46.67487],[125.18065,46.748],[125.14239,46.76001],[125.19095,46.81021],[125.15867,46.84554],[125.23575,46.96357],[125.31854,47.02909],[125.28529,47.08323],[125.30045,47.11723],[125.3312,47.14682],[125.33287,47.2865]]]}},{"type":"Feature","id":"datav:230700","properties":{"boundaryId":"datav:230700","nodeId":"geo:cn-hl-ych","parentNodeId":"geo:cn-hl","bounds":[127.63287,46.48376,130.7851,49.44131]},"geometry":{"type":"Polygon","coordinates":[[[128.23896,46.57723],[128.36892,46.571],[128.42847,46.62074],[128.46729,46.62549],[128.54577,46.59941],[128.5658,46.57892],[128.67948,46.57575],[128.70898,46.53781],[128.70425,46.48376],[128.76491,46.48661],[128.78676,46.50111],[128.83922,46.48746],[128.87984,46.52428],[128.95679,46.51296],[129.02065,46.48778],[129.08215,46.55789],[129.12877,46.53051],[129.15659,46.54521],[129.19736,46.53601],[129.2423,46.62032],[129.28154,46.64195],[129.35571,46.65282],[129.40663,46.64301],[129.43933,46.60438],[129.50139,46.61937],[129.50236,46.61937],[129.52587,46.66379],[129.57402,46.68741],[129.58932,46.71387],[129.67281,46.71724],[129.70759,46.73842],[129.70119,46.79664],[129.63051,46.81536],[129.59308,46.88169],[129.55843,46.89986],[129.53492,46.98109],[129.58292,46.97018],[129.59544,46.99293],[129.58125,47.01903],[129.60588,47.03946],[129.64303,47.03684],[129.70829,47.06271],[129.7183,47.07893],[129.69103,47.12037],[129.72679,47.12329],[129.78092,47.17984],[129.79581,47.26408],[129.86176,47.26126],[129.89988,47.30485],[129.89654,47.36422],[129.83908,47.40418],[129.83797,47.42633],[129.88639,47.44328],[129.86927,47.5382],[129.90128,47.57191],[129.89557,47.60944],[129.92966,47.65429],[129.89849,47.67882],[129.90893,47.72588],[129.87526,47.74449],[129.81334,47.7604],[129.77313,47.78251],[129.77299,47.81668],[129.75128,47.85166],[129.6998,47.88723],[129.71552,47.9101],[129.68672,47.92864],[129.67503,47.97898],[129.74196,47.9763],[129.78092,47.99914],[129.74544,48.03512],[129.73347,48.10404],[129.79929,48.15123],[129.81,48.21917],[129.78342,48.24098],[129.84158,48.26012],[129.87971,48.31677],[129.98198,48.25039],[129.98643,48.22593],[130.04904,48.195],[130.12988,48.1459],[130.18095,48.1746],[130.23952,48.16989],[130.26123,48.24497],[130.29017,48.29367],[130.3731,48.29377],[130.37811,48.30808],[130.43557,48.31493],[130.45533,48.32965],[130.52184,48.28958],[130.58668,48.30665],[130.67504,48.30614],[130.68478,48.32025],[130.76367,48.33486],[130.7851,48.35733],[130.74767,48.40439],[130.74628,48.44906],[130.77633,48.48025],[130.76743,48.50785],[130.71177,48.51162],[130.64735,48.48504],[130.61618,48.51009],[130.61576,48.57542],[130.60574,48.59403],[130.53854,48.61191],[130.53868,48.63559],[130.5768,48.68878],[130.62202,48.78396],[130.68978,48.84975],[130.68046,48.88099],[130.60922,48.88099],[130.55913,48.86087],[130.5018,48.86593],[130.48692,48.89332],[130.44462,48.90999],[130.41206,48.90504],[130.27974,48.86714],[130.24537,48.86653],[130.21142,48.9011],[130.11305,48.95664],[130.0592,48.97894],[130.02094,49.02108],[129.93731,49.04043],[129.93467,49.07881],[129.91282,49.10839],[129.86705,49.11403],[129.8644,49.15858],[129.84757,49.18129],[129.78468,49.184],[129.75393,49.20871],[129.76186,49.25738],[129.73041,49.28827],[129.6973,49.29839],[129.60463,49.27904],[129.56247,49.2996],[129.54591,49.39512],[129.5185,49.42372],[129.44865,49.44131],[129.39035,49.43272],[129.37505,49.41412],[129.38061,49.37171],[129.35807,49.35609],[129.30144,49.3706],[129.24189,49.37871],[129.18554,49.33326],[129.1712,49.28416],[129.20766,49.21644],[129.24119,49.17767],[129.2341,49.10125],[129.26665,49.06461],[129.34137,49.04547],[129.41011,49.05212],[129.44448,49.03711],[129.43766,48.99255],[129.4602,48.95028],[129.49777,48.94029],[129.52671,48.90938],[129.48413,48.84186],[129.46354,48.83953],[129.43557,48.80472],[129.39411,48.81585],[129.36127,48.80229],[129.29087,48.79652],[129.23883,48.74709],[129.18526,48.75347],[129.1655,48.73797],[129.23006,48.68219],[129.19249,48.65062],[129.19973,48.6234],[129.08689,48.60541],[129.06574,48.57847],[128.99895,48.52811],[129.00424,48.51172],[128.98851,48.45273],[128.95498,48.42133],[128.96639,48.40827],[128.92353,48.37581],[128.90447,48.32352],[128.91268,48.28006],[128.86329,48.27311],[128.85035,48.25101],[128.81528,48.25879],[128.78773,48.29346],[128.77298,48.36622],[128.74168,48.4097],[128.67586,48.41347],[128.61534,48.39276],[128.45686,48.36305],[128.39689,48.29663],[128.34165,48.20176],[128.35612,48.17173],[128.33441,48.14795],[128.27681,48.15759],[128.17412,48.11912],[128.17092,48.09552],[128.1321,48.07827],[128.15743,48.07036],[128.15562,48.03533],[128.18456,47.95335],[128.22755,47.94677],[128.25079,47.92545],[128.28724,47.92844],[128.339,47.89248],[128.35083,47.85475],[128.29225,47.8368],[128.26623,47.78395],[128.27319,47.7574],[128.31674,47.73839],[128.32217,47.71668],[128.29476,47.69899],[128.27347,47.65853],[128.29531,47.60353],[128.24968,47.58332],[128.25649,47.56331],[128.22825,47.54163],[128.29865,47.50084],[128.31187,47.47331],[128.34749,47.46365],[128.34012,47.42924],[128.3788,47.40366],[128.4499,47.40012],[128.45463,47.34704],[128.49415,47.36328],[128.52225,47.41687],[128.54674,47.37629],[128.49679,47.32673],[128.50403,47.28483],[128.48552,47.24436],[128.45839,47.22516],[128.40774,47.21117],[128.35222,47.18214],[128.34332,47.15706],[128.30811,47.16323],[128.24898,47.13082],[128.24258,47.10614],[128.10998,47.0781],[128.06337,47.08678],[128.01244,47.07475],[127.96333,47.09338],[127.92715,47.06857],[127.87163,47.08071],[127.82182,47.06229],[127.74891,47.01568],[127.68421,47.00048],[127.63287,47.00038],[127.70174,46.93377],[127.74794,46.92622],[127.77075,46.89692],[127.83072,46.86877],[127.90029,46.79453],[127.92687,46.77854],[128.00646,46.69701],[128.02844,46.69121],[128.05474,46.63805],[128.11638,46.5992],[128.23896,46.57723]]]}},{"type":"Feature","id":"datav:230800","properties":{"boundaryId":"datav:230800","nodeId":"geo:cn-hl-jmu","parentNodeId":"geo:cn-hl","bounds":[129.50139,45.94755,135.09456,48.45956]},"geometry":{"type":"MultiPolygon","coordinates":[[[[134.4982,47.44931],[134.52297,47.46791],[134.56805,47.47788],[134.5764,47.51911],[134.6276,47.5464],[134.68521,47.60332],[134.68409,47.63192],[134.77968,47.71595],[134.77286,47.7635],[134.67853,47.81926],[134.65919,47.90114],[134.60798,47.90928],[134.59963,47.9478],[134.55427,47.98196],[134.55149,48.03276],[134.63247,48.09942],[134.67254,48.1704],[134.67936,48.25643],[134.77105,48.28896],[134.864,48.33241],[135.00926,48.36571],[135.08287,48.39643],[135.09456,48.4407],[135.06854,48.45956],[135.02499,48.43866],[134.92773,48.45161],[134.88668,48.43765],[134.82073,48.37592],[134.76438,48.3701],[134.70455,48.40531],[134.64026,48.4098],[134.57807,48.40552],[134.50168,48.41898],[134.36977,48.38296],[134.2035,48.38245],[134.13143,48.33547],[134.06867,48.33844],[134.02958,48.3276],[133.99562,48.30358],[133.9408,48.30205],[133.87596,48.28272],[133.82406,48.2773],[133.79137,48.26093],[133.74072,48.25479],[133.69327,48.1869],[133.59713,48.19489],[133.57292,48.18198],[133.56039,48.13718],[133.52171,48.11502],[133.45186,48.11297],[133.40803,48.12456],[133.30201,48.10301],[133.23953,48.12672],[133.1541,48.13697],[133.06658,48.11697],[133.02707,48.08525],[132.992,48.03523],[132.88306,48.00243],[132.81891,47.93709],[132.76952,47.93863],[132.72291,47.96293],[132.66141,47.94481],[132.68729,47.88506],[132.66224,47.85423],[132.62161,47.82865],[132.59907,47.79232],[132.60032,47.74077],[132.5583,47.71844],[132.52394,47.71616],[132.50682,47.69092],[132.45631,47.68109],[132.47371,47.64134],[132.41179,47.54038],[132.37506,47.53187],[132.35905,47.50561],[132.29769,47.47165],[132.20906,47.40699],[132.1406,47.40408],[132.04794,47.36609],[132.03708,47.27816],[132.01941,47.25699],[131.9298,47.24509],[131.8882,47.27774],[131.81641,47.26857],[131.77717,47.27138],[131.73501,47.24238],[131.6781,47.24802],[131.59336,47.23654],[131.48177,47.25365],[131.46494,47.23758],[131.39036,47.21775],[131.33915,47.18183],[131.27251,47.19039],[131.19598,47.22443],[131.12836,47.21587],[131.09496,47.1929],[131.05016,47.21545],[130.96807,47.22067],[130.98852,47.25094],[130.98351,47.31829],[130.85202,47.2962],[130.79233,47.29067],[130.70899,47.31537],[130.68227,47.3309],[130.62495,47.3385],[130.56205,47.32767],[130.59392,47.2817],[130.64846,47.24635],[130.69285,47.20491],[130.62634,47.1532],[130.60727,47.15738],[130.53868,47.12246],[130.45658,47.13595],[130.37853,47.11242],[130.38368,47.06512],[130.3091,47.06648],[130.23967,47.08218],[130.18902,47.10321],[130.14505,47.13657],[130.14394,47.18527],[130.1264,47.20741],[130.05948,47.22506],[130.01801,47.22589],[129.99199,47.25229],[129.93731,47.25918],[129.93189,47.29432],[129.89988,47.30485],[129.86176,47.26126],[129.79581,47.26408],[129.78092,47.17984],[129.72679,47.12329],[129.69103,47.12037],[129.7183,47.07893],[129.70829,47.06271],[129.64303,47.03684],[129.60588,47.03946],[129.58125,47.01903],[129.59544,46.99293],[129.58292,46.97018],[129.53492,46.98109],[129.55843,46.89986],[129.59308,46.88169],[129.63051,46.81536],[129.70119,46.79664],[129.70759,46.73842],[129.67281,46.71724],[129.58932,46.71387],[129.57402,46.68741],[129.52587,46.66379],[129.50236,46.61937],[129.50139,46.61937],[129.50236,46.61937],[129.5928,46.60892],[129.64039,46.58072],[129.64261,46.5581],[129.68338,46.53665],[129.76116,46.53178],[129.82197,46.55958],[129.86287,46.59434],[129.92117,46.6294],[129.95846,46.60184],[129.98879,46.56508],[130.05447,46.58632],[130.06657,46.55863],[130.04181,46.52628],[130.09204,46.52385],[130.13893,46.50418],[130.11458,46.57417],[130.12654,46.59814],[130.19778,46.61715],[130.15312,46.53866],[130.14658,46.49106],[130.17093,46.46333],[130.16175,46.43315],[130.11541,46.38673],[130.08313,46.39044],[130.06602,46.36414],[130.03095,46.38716],[129.97321,46.3897],[129.92381,46.37602],[129.9689,46.34526],[130.00953,46.33041],[130.09635,46.24331],[130.13962,46.23013],[130.15896,46.18812],[130.18818,46.17269],[130.24008,46.12232],[130.2885,46.09994],[130.38576,46.08939],[130.43237,46.05794],[130.48734,46.04898],[130.58084,45.98942],[130.61423,45.97906],[130.65583,45.94765],[130.6941,45.94755],[130.69034,45.99455],[130.76937,46.01174],[130.82002,46.01238],[130.8363,46.02486],[130.88736,46.02732],[130.93147,46.0127],[130.95137,46.02518],[131.03304,46.02188],[131.06296,46.06786],[131.14338,46.00757],[131.15451,46.03031],[131.20961,46.02529],[131.22381,46.0494],[131.27418,46.04887],[131.28489,46.02305],[131.27988,45.98173],[131.35515,46.01985],[131.33846,46.06914],[131.36949,46.07457],[131.36545,46.11859],[131.39161,46.1335],[131.4065,46.19673],[131.42486,46.21865],[131.41039,46.24916],[131.34082,46.2976],[131.28308,46.31119],[131.2956,46.33179],[131.22937,46.37348],[131.20544,46.36414],[131.13239,46.38822],[131.06268,46.40083],[131.06421,46.42626],[131.01871,46.44723],[131.03082,46.48312],[130.9753,46.50756],[130.94511,46.57955],[130.91241,46.59529],[130.82155,46.58748],[130.79748,46.60786],[130.75727,46.60659],[130.71984,46.62496],[130.74516,46.67845],[130.70954,46.74274],[130.6685,46.74327],[130.66613,46.83093],[130.71358,46.82231],[130.76492,46.84964],[130.82851,46.85479],[130.8235,46.87623],[130.8498,46.89892],[130.83644,46.93965],[130.94288,46.94899],[131.01329,46.98906],[131.05976,46.99052],[131.08564,46.9556],[131.21267,46.96536],[131.40497,47.02626],[131.40831,47.06889],[131.55413,47.07381],[131.53395,47.01253],[131.52908,46.89104],[131.72889,46.88674],[131.86469,46.88663],[131.83756,46.90375],[131.83964,46.95822],[131.9152,46.97553],[131.9298,46.98727],[132.05907,46.98947],[132.06004,46.97658],[132.20558,46.95235],[132.2419,46.95445],[132.25331,46.90911],[132.19529,46.87791],[132.22242,46.82073],[132.30632,46.79727],[132.3642,46.76759],[132.40066,46.76285],[132.39022,46.81431],[132.43252,46.82819],[132.49305,46.82409],[132.51392,46.7918],[132.54954,46.78917],[132.62829,46.8101],[132.71971,46.81715],[132.77995,46.77685],[132.87791,46.76769],[132.90574,46.80264],[132.95652,46.80768],[132.97002,46.83924],[133.06213,46.87802],[133.14896,46.89913],[133.13949,46.93923],[133.23689,47.04009],[133.22813,47.11378],[133.25595,47.14442],[133.25846,47.1743],[133.2963,47.20136],[133.29283,47.30245],[133.35321,47.33183],[133.40094,47.40782],[133.45506,47.46552],[133.5622,47.43413],[133.59337,47.44162],[133.63442,47.52295],[133.69327,47.54401],[133.80806,47.53333],[133.848,47.54775],[133.88598,47.53571],[133.93593,47.54194],[133.97448,47.52066],[134.03403,47.5381],[134.05212,47.57223],[134.10179,47.57098],[134.10875,47.61731],[134.19181,47.5885],[134.21797,47.62943],[134.29492,47.64704],[134.34556,47.69206],[134.37478,47.73115],[134.37701,47.77249],[134.35948,47.779],[134.38438,47.82803],[134.43795,47.83804],[134.46676,47.86764],[134.46522,47.88712],[134.5174,47.88383],[134.51337,47.78457],[134.55177,47.78457],[134.55177,47.73849],[134.51184,47.73953],[134.50544,47.65273],[134.50474,47.55179],[134.4982,47.44931]]],[[[131.50598,46.24926],[131.54717,46.19844],[131.52045,46.16726],[131.52964,46.12839],[131.57903,46.15853],[131.575,46.19312],[131.63037,46.2179],[131.58682,46.2212],[131.50598,46.24926]]]]}},{"type":"Feature","id":"datav:230900","properties":{"boundaryId":"datav:230900","nodeId":"geo:cn-hl-qth","parentNodeId":"geo:cn-hl","bounds":[130.10512,45.59064,131.91297,46.24926]},"geometry":{"type":"Polygon","coordinates":[[[131.63037,46.2179],[131.575,46.19312],[131.57903,46.15853],[131.52964,46.12839],[131.52045,46.16726],[131.54717,46.19844],[131.50598,46.24926],[131.41039,46.24916],[131.42486,46.21865],[131.4065,46.19673],[131.39161,46.1335],[131.36545,46.11859],[131.36949,46.07457],[131.33846,46.06914],[131.35515,46.01985],[131.27988,45.98173],[131.28489,46.02305],[131.27418,46.04887],[131.22381,46.0494],[131.20961,46.02529],[131.15451,46.03031],[131.14338,46.00757],[131.06296,46.06786],[131.03304,46.02188],[130.95137,46.02518],[130.93147,46.0127],[130.88736,46.02732],[130.8363,46.02486],[130.82002,46.01238],[130.76937,46.01174],[130.69034,45.99455],[130.6941,45.94755],[130.65583,45.94765],[130.61423,45.97906],[130.58084,45.98942],[130.48734,46.04898],[130.43237,46.05794],[130.38576,46.08939],[130.2885,46.09994],[130.24008,46.12232],[130.18234,46.08342],[130.13976,46.06956],[130.12543,46.04983],[130.10512,45.98141],[130.11625,45.92649],[130.17316,45.90628],[130.19556,45.8729],[130.17691,45.85224],[130.19945,45.83212],[130.18818,45.77715],[130.19918,45.75732],[130.16898,45.70968],[130.18345,45.67801],[130.21295,45.65213],[130.25038,45.65331],[130.3404,45.61913],[130.38827,45.67415],[130.41039,45.67286],[130.48246,45.60677],[130.55384,45.62773],[130.57207,45.60193],[130.6543,45.59064],[130.71942,45.65696],[130.77703,45.61892],[130.86524,45.63322],[130.8907,45.61],[130.93843,45.62429],[130.94664,45.66738],[131.01287,45.68048],[131.04014,45.65159],[131.15354,45.64676],[131.19487,45.63837],[131.21824,45.61989],[131.28294,45.62816],[131.30479,45.59806],[131.33915,45.64579],[131.37269,45.67211],[131.33818,45.68424],[131.3969,45.72299],[131.47885,45.7246],[131.45214,45.81273],[131.50028,45.84122],[131.52254,45.88136],[131.55691,45.87964],[131.57402,45.91548],[131.64359,45.91066],[131.71845,45.91676],[131.71817,45.89665],[131.78886,45.90403],[131.80806,45.93493],[131.83686,45.9406],[131.87498,45.98707],[131.90573,46.00341],[131.91297,46.05996],[131.89321,46.08822],[131.83895,46.06402],[131.77216,46.07031],[131.70718,46.09206],[131.69841,46.1597],[131.72735,46.1762],[131.70565,46.20088],[131.63037,46.2179]]]}},{"type":"Feature","id":"datav:231000","properties":{"boundaryId":"datav:231000","nodeId":"geo:cn-hl-mdg","parentNodeId":"geo:cn-hl","bounds":[128.23521,43.4258,131.31063,45.9875]},"geometry":{"type":"Polygon","coordinates":[[[128.25302,44.44667],[128.29698,44.48243],[128.37268,44.51433],[128.3884,44.48988],[128.42722,44.47376],[128.46201,44.43438],[128.46145,44.3999],[128.48162,44.37563],[128.47008,44.28878],[128.4538,44.25885],[128.47174,44.24784],[128.45046,44.20477],[128.473,44.15672],[128.57499,44.04745],[128.58459,43.99097],[128.6241,43.95037],[128.63649,43.89126],[128.69604,43.90322],[128.7286,43.89081],[128.76088,43.85769],[128.71872,43.81789],[128.73945,43.80646],[128.75921,43.76097],[128.72762,43.74087],[128.78398,43.71588],[128.78732,43.68688],[128.82099,43.63729],[128.8349,43.58744],[128.87804,43.54011],[128.94983,43.55381],[128.96319,43.53899],[129.01439,43.52328],[129.04125,43.54155],[129.16912,43.56138],[129.22964,43.593],[129.23229,43.63551],[129.21726,43.64864],[129.2213,43.74209],[129.21128,43.7825],[129.25525,43.81966],[129.29045,43.79692],[129.36851,43.80092],[129.40705,43.81944],[129.4179,43.84361],[129.44976,43.85048],[129.46799,43.87464],[129.52893,43.87054],[129.60852,43.88217],[129.65736,43.87187],[129.73973,43.8958],[129.78036,43.89303],[129.80332,43.96498],[129.86913,44.01264],[129.93634,44.02756],[129.97989,44.01507],[129.98907,43.98334],[130.02553,43.94329],[130.00925,43.88948],[130.02706,43.85181],[130.06644,43.83441],[130.11082,43.85292],[130.14241,43.87841],[130.15368,43.91562],[130.18999,43.94108],[130.26234,43.94982],[130.27278,43.9819],[130.3077,44.0028],[130.31898,44.03949],[130.3532,44.05032],[130.36754,44.01452],[130.33859,43.94628],[130.38326,43.90576],[130.36614,43.8907],[130.38632,43.85392],[130.37964,43.82565],[130.39244,43.76674],[130.42347,43.74465],[130.39411,43.70244],[130.41303,43.65231],[130.44907,43.64652],[130.48831,43.65609],[130.50195,43.63662],[130.55955,43.63006],[130.58543,43.61415],[130.63009,43.62238],[130.62355,43.58978],[130.66738,43.58343],[130.75936,43.54267],[130.77536,43.5215],[130.82336,43.50288],[130.84047,43.45493],[130.86176,43.43808],[130.9081,43.4345],[130.94469,43.47657],[131.00146,43.50756],[131.02678,43.50879],[131.09148,43.45805],[131.14255,43.4258],[131.23577,43.47579],[131.29129,43.46909],[131.30604,43.47935],[131.20029,43.53275],[131.21671,43.61315],[131.23369,43.63651],[131.2213,43.68188],[131.21588,43.77318],[131.2181,43.83773],[131.25372,43.89347],[131.26318,43.94871],[131.24343,43.98699],[131.26611,44.03441],[131.31063,44.04656],[131.26875,44.18802],[131.11152,44.71007],[131.09343,44.74566],[131.0471,44.77993],[131.01649,44.78953],[131.01593,44.81461],[130.9728,44.81996],[130.96807,44.85461],[130.92758,44.88827],[130.92368,44.93377],[130.83644,44.98815],[130.79776,45.00315],[130.76784,44.97467],[130.72053,44.96542],[130.69187,44.99521],[130.65876,44.99945],[130.62982,45.05496],[130.55663,45.10098],[130.50055,45.07537],[130.48539,45.05485],[130.42041,45.08937],[130.40343,45.13428],[130.46772,45.16939],[130.43377,45.20525],[130.49332,45.27678],[130.47467,45.30057],[130.49304,45.33721],[130.54077,45.35946],[130.55718,45.39131],[130.61034,45.41095],[130.65222,45.43986],[130.7133,45.5111],[130.74405,45.50916],[130.75769,45.53253],[130.7453,45.55966],[130.77703,45.61892],[130.71942,45.65696],[130.6543,45.59064],[130.57207,45.60193],[130.55384,45.62773],[130.48246,45.60677],[130.41039,45.67286],[130.38827,45.67415],[130.3404,45.61913],[130.25038,45.65331],[130.21295,45.65213],[130.18345,45.67801],[130.16898,45.70968],[130.19918,45.75732],[130.18818,45.77715],[130.19945,45.83212],[130.17691,45.85224],[130.19556,45.8729],[130.17316,45.90628],[130.11625,45.92649],[130.08856,45.91569],[130.02761,45.92371],[129.92062,45.92114],[129.84631,45.9875],[129.80819,45.98707],[129.78509,45.97095],[129.79748,45.93344],[129.794,45.89708],[129.77132,45.88596],[129.72304,45.89665],[129.66696,45.87312],[129.62606,45.89334],[129.54925,45.84764],[129.55662,45.81712],[129.50862,45.78926],[129.43168,45.77994],[129.40204,45.76857],[129.40538,45.73844],[129.34429,45.73576],[129.34179,45.67866],[129.30826,45.67307],[129.29894,45.61978],[129.25497,45.6172],[129.22074,45.59397],[129.15047,45.62376],[129.10929,45.62537],[129.09259,45.60494],[129.10205,45.56719],[129.14031,45.53598],[129.11777,45.47404],[129.14672,45.44461],[129.1982,45.42692],[129.19416,45.38959],[129.15659,45.36983],[129.08758,45.35838],[129.0624,45.33883],[129.12765,45.27549],[129.17454,45.29203],[129.21086,45.25915],[129.20989,45.22344],[129.18734,45.20492],[129.10581,45.16333],[129.13336,45.10141],[129.10483,45.10076],[129.05614,45.07711],[129.01718,45.08025],[128.99742,45.06452],[129.03568,45.0415],[129.05182,44.99923],[129.0233,44.97347],[129.04333,44.92996],[128.99394,44.90787],[128.96722,44.88479],[128.90461,44.88337],[128.83643,44.78986],[128.78885,44.78342],[128.7485,44.73988],[128.7478,44.69969],[128.69159,44.66319],[128.63009,44.65521],[128.60017,44.6704],[128.53547,44.68286],[128.47286,44.66614],[128.43807,44.68002],[128.40844,44.67587],[128.37184,44.60807],[128.27166,44.53065],[128.23521,44.48045],[128.25302,44.44667]]]}},{"type":"Feature","id":"datav:231100","properties":{"boundaryId":"datav:231100","nodeId":"geo:cn-hl-hek","parentNodeId":"geo:cn-hl","bounds":[124.75015,47.5857,129.52671,51.00186]},"geometry":{"type":"Polygon","coordinates":[[[126.01995,50.92083],[125.95887,50.90019],[125.92046,50.83132],[125.88944,50.8049],[125.77798,50.7672],[125.7823,50.72402],[125.82515,50.70495],[125.78758,50.6772],[125.79287,50.64563],[125.82933,50.56164],[125.7521,50.50703],[125.72288,50.51612],[125.69923,50.48689],[125.65457,50.47124],[125.63216,50.44384],[125.5907,50.45226],[125.53657,50.42005],[125.52057,50.37145],[125.5196,50.31594],[125.46339,50.29581],[125.44224,50.26026],[125.44349,50.20667],[125.38352,50.19329],[125.27749,50.12466],[125.29656,50.00953],[125.24201,49.98779],[125.23158,49.95765],[125.18358,49.9527],[125.22615,49.92263],[125.21293,49.90729],[125.24424,49.8756],[125.2242,49.83577],[125.17787,49.82942],[125.22727,49.79223],[125.22086,49.67222],[125.18984,49.64994],[125.13209,49.67202],[125.13961,49.62625],[125.16813,49.62993],[125.20542,49.59408],[125.23464,49.59199],[125.23561,49.54095],[125.21126,49.53995],[125.22838,49.48696],[125.27012,49.4551],[125.25607,49.43572],[125.26177,49.32244],[125.22671,49.28556],[125.221,49.19103],[125.18538,49.18531],[125.1602,49.14641],[125.12054,49.12721],[125.03956,49.15184],[125.03984,49.17626],[124.98293,49.1625],[124.90655,49.1839],[124.86091,49.16652],[124.84755,49.12972],[124.80762,49.1087],[124.82904,49.07196],[124.80803,49.02058],[124.7656,48.98126],[124.75015,48.92403],[124.79885,48.93261],[124.86828,48.90322],[124.99142,48.88534],[125.02259,48.86168],[125.01549,48.82506],[125.04096,48.78923],[125.04597,48.74648],[125.09606,48.74982],[125.12875,48.7258],[125.21224,48.73452],[125.30908,48.72681],[125.41371,48.79267],[125.45226,48.78356],[125.46812,48.82648],[125.51389,48.85915],[125.62256,48.89099],[125.64037,48.85308],[125.69784,48.8032],[125.78967,48.82638],[125.81653,48.86856],[125.85715,48.83791],[125.9597,48.78072],[126.00784,48.73817],[125.98989,48.7115],[125.95581,48.71049],[125.87371,48.66848],[125.8925,48.63691],[125.81611,48.60023],[125.76713,48.58884],[125.7265,48.5983],[125.70702,48.5624],[125.79969,48.5563],[125.80136,48.47709],[125.82028,48.39347],[125.84338,48.35795],[125.91225,48.33976],[125.94718,48.31861],[126.00144,48.30726],[126.05112,48.28283],[126.15533,48.29121],[126.19902,48.27454],[126.24466,48.28385],[126.28974,48.27147],[126.32258,48.24067],[126.34735,48.17481],[126.39229,48.19725],[126.43,48.19336],[126.52044,48.21927],[126.57303,48.21559],[126.59488,48.19623],[126.61547,48.15246],[126.66654,48.13123],[126.61575,48.11317],[126.6003,48.0869],[126.61686,48.05372],[126.63008,47.98906],[126.62312,47.9586],[126.58041,47.91206],[126.56663,47.88042],[126.59084,47.82112],[126.56455,47.79593],[126.56635,47.72671],[126.51863,47.72557],[126.52628,47.60312],[126.55703,47.5857],[126.57484,47.59576],[126.58736,47.63855],[126.71579,47.69972],[126.75656,47.73374],[126.80345,47.74273],[126.88888,47.7294],[126.93146,47.71316],[126.98183,47.72371],[126.99713,47.74087],[127.05209,47.76205],[127.08535,47.7636],[127.14866,47.78839],[127.23075,47.78106],[127.2846,47.78953],[127.40579,47.78468],[127.51321,47.82886],[127.58194,47.82617],[127.66069,47.83938],[127.66376,47.81472],[127.69298,47.77714],[127.76547,47.82246],[127.80484,47.86434],[127.81598,47.91268],[127.84937,47.94049],[127.89195,47.955],[127.88944,48.01004],[127.86134,48.0307],[127.87998,48.06071],[127.98072,48.09767],[128.00507,48.07632],[128.088,48.06174],[128.1321,48.07827],[128.17092,48.09552],[128.17412,48.11912],[128.27681,48.15759],[128.33441,48.14795],[128.35612,48.17173],[128.34165,48.20176],[128.39689,48.29663],[128.45686,48.36305],[128.61534,48.39276],[128.67586,48.41347],[128.74168,48.4097],[128.77298,48.36622],[128.78773,48.29346],[128.81528,48.25879],[128.85035,48.25101],[128.86329,48.27311],[128.91268,48.28006],[128.90447,48.32352],[128.92353,48.37581],[128.96639,48.40827],[128.95498,48.42133],[128.98851,48.45273],[129.00424,48.51172],[128.99895,48.52811],[129.06574,48.57847],[129.08689,48.60541],[129.19973,48.6234],[129.19249,48.65062],[129.23006,48.68219],[129.1655,48.73797],[129.18526,48.75347],[129.23883,48.74709],[129.29087,48.79652],[129.36127,48.80229],[129.39411,48.81585],[129.43557,48.80472],[129.46354,48.83953],[129.48413,48.84186],[129.52671,48.90938],[129.49777,48.94029],[129.4602,48.95028],[129.43766,48.99255],[129.44448,49.03711],[129.41011,49.05212],[129.34137,49.04547],[129.26665,49.06461],[129.2341,49.10125],[129.24119,49.17767],[129.20766,49.21644],[129.1712,49.28416],[129.18554,49.33326],[129.24189,49.37871],[129.30144,49.3706],[129.26652,49.39602],[129.21517,49.39912],[129.14407,49.35739],[129.08494,49.3599],[129.05586,49.38231],[129.01356,49.4573],[128.94858,49.46189],[128.87136,49.49235],[128.79205,49.47328],[128.76144,49.48207],[128.76311,49.51571],[128.81278,49.5582],[128.80276,49.58212],[128.74432,49.59498],[128.71496,49.56488],[128.61965,49.59348],[128.5537,49.60454],[128.49999,49.59398],[128.37741,49.58671],[128.36002,49.55551],[128.32606,49.54653],[128.29184,49.56478],[128.24328,49.56308],[128.18581,49.53935],[128.14031,49.55092],[128.08549,49.55122],[128.00145,49.59229],[127.94969,49.59627],[127.89751,49.57893],[127.81514,49.59388],[127.77604,49.6359],[127.70522,49.66516],[127.67795,49.69778],[127.67489,49.76414],[127.65415,49.77992],[127.56399,49.79342],[127.53227,49.82595],[127.52935,49.86431],[127.54743,49.92876],[127.50054,49.98374],[127.5018,50.05672],[127.58709,50.13777],[127.60685,50.17883],[127.60323,50.23942],[127.44628,50.27077],[127.37184,50.2965],[127.33232,50.34056],[127.36989,50.40389],[127.3646,50.43836],[127.29378,50.46576],[127.323,50.5257],[127.36112,50.54758],[127.37073,50.58126],[127.29462,50.66356],[127.28849,50.6994],[127.30283,50.74824],[127.23618,50.78139],[127.1442,50.91027],[127.11401,50.93769],[127.05182,50.96296],[127.03094,50.98125],[127.00145,50.95066],[127.00604,50.93236],[126.86773,50.91521],[126.7432,50.91308],[126.68782,50.90416],[126.61018,50.90843],[126.47633,50.90213],[126.42053,50.92945],[126.31006,50.99528],[126.22504,51.00186],[126.18149,50.97031],[126.12987,50.97486],[126.13126,50.94582],[126.10371,50.92306],[126.01995,50.92083]]]}},{"type":"Feature","id":"datav:231200","properties":{"boundaryId":"datav:231200","nodeId":"geo:cn-hl-suh","parentNodeId":"geo:cn-hl","bounds":[124.87594,45.5097,128.54674,48.09767]},"geometry":{"type":"Polygon","coordinates":[[[125.76129,45.53135],[125.77701,45.51121],[125.8335,45.52015],[125.84825,45.5097],[125.9341,45.5858],[125.9277,45.63031],[125.99602,45.63397],[125.98182,45.66964],[126.02663,45.71151],[126.12403,45.67383],[126.18441,45.68617],[126.22337,45.7041],[126.30672,45.7026],[126.29865,45.74155],[126.35556,45.74788],[126.36432,45.80716],[126.34276,45.83126],[126.35709,45.88938],[126.32815,45.90189],[126.31173,45.93451],[126.31075,45.97041],[126.26205,45.9733],[126.23548,45.99006],[126.17078,46.06146],[126.25844,46.07809],[126.2775,46.0654],[126.32884,46.06551],[126.35055,46.09579],[126.42318,46.08481],[126.45476,46.11614],[126.45755,46.13979],[126.52684,46.18886],[126.5875,46.20822],[126.61561,46.23576],[126.64191,46.29314],[126.63523,46.32478],[126.68212,46.37592],[126.74278,46.41715],[126.80331,46.42224],[126.83754,46.43844],[126.85187,46.47709],[126.87385,46.49519],[126.91824,46.50661],[127.03178,46.54775],[127.05098,46.57808],[127.16883,46.62042],[127.18734,46.64259],[127.24119,46.65198],[127.27569,46.6447],[127.32147,46.67065],[127.40843,46.66685],[127.48176,46.62845],[127.50583,46.5992],[127.50973,46.53992],[127.58945,46.51465],[127.68157,46.56402],[127.69645,46.55419],[127.77688,46.58304],[127.81472,46.60585],[127.84422,46.57628],[127.92826,46.57512],[127.96555,46.5487],[128.01495,46.53115],[128.04806,46.53062],[128.08549,46.50841],[128.12111,46.50852],[128.15283,46.53929],[128.19138,46.53897],[128.1943,46.56508],[128.23896,46.57723],[128.11638,46.5992],[128.05474,46.63805],[128.02844,46.69121],[128.00646,46.69701],[127.92687,46.77854],[127.90029,46.79453],[127.83072,46.86877],[127.77075,46.89692],[127.74794,46.92622],[127.70174,46.93377],[127.63287,47.00038],[127.68421,47.00048],[127.74891,47.01568],[127.82182,47.06229],[127.87163,47.08071],[127.92715,47.06857],[127.96333,47.09338],[128.01244,47.07475],[128.06337,47.08678],[128.10998,47.0781],[128.24258,47.10614],[128.24898,47.13082],[128.30811,47.16323],[128.34332,47.15706],[128.35222,47.18214],[128.40774,47.21117],[128.45839,47.22516],[128.48552,47.24436],[128.50403,47.28483],[128.49679,47.32673],[128.54674,47.37629],[128.52225,47.41687],[128.49415,47.36328],[128.45463,47.34704],[128.4499,47.40012],[128.3788,47.40366],[128.34012,47.42924],[128.34749,47.46365],[128.31187,47.47331],[128.29865,47.50084],[128.22825,47.54163],[128.25649,47.56331],[128.24968,47.58332],[128.29531,47.60353],[128.27347,47.65853],[128.29476,47.69899],[128.32217,47.71668],[128.31674,47.73839],[128.27319,47.7574],[128.26623,47.78395],[128.29225,47.8368],[128.35083,47.85475],[128.339,47.89248],[128.28724,47.92844],[128.25079,47.92545],[128.22755,47.94677],[128.18456,47.95335],[128.15562,48.03533],[128.15743,48.07036],[128.1321,48.07827],[128.088,48.06174],[128.00507,48.07632],[127.98072,48.09767],[127.87998,48.06071],[127.86134,48.0307],[127.88944,48.01004],[127.89195,47.955],[127.84937,47.94049],[127.81598,47.91268],[127.80484,47.86434],[127.76547,47.82246],[127.69298,47.77714],[127.66376,47.81472],[127.66069,47.83938],[127.58194,47.82617],[127.51321,47.82886],[127.40579,47.78468],[127.2846,47.78953],[127.23075,47.78106],[127.14866,47.78839],[127.08535,47.7636],[127.05209,47.76205],[126.99713,47.74087],[126.98183,47.72371],[126.93146,47.71316],[126.88888,47.7294],[126.80345,47.74273],[126.75656,47.73374],[126.71579,47.69972],[126.58736,47.63855],[126.57484,47.59576],[126.55703,47.5857],[126.54061,47.53084],[126.51891,47.49502],[126.53338,47.48256],[126.44628,47.37994],[126.18998,47.35527],[125.97181,47.33652],[125.82891,47.32048],[125.6817,47.31245],[125.52155,47.29453],[125.40745,47.28546],[125.33287,47.2865],[125.3312,47.14682],[125.30045,47.11723],[125.28529,47.08323],[125.31854,47.02909],[125.23575,46.96357],[125.15867,46.84554],[125.19095,46.81021],[125.14239,46.76001],[125.18065,46.748],[125.27652,46.67487],[125.27179,46.65525],[125.18107,46.65282],[125.24897,46.58832],[125.23547,46.57797],[125.25732,46.54362],[125.23979,46.52755],[125.20264,46.53707],[125.16131,46.52005],[125.20723,46.48831],[125.25022,46.49445],[125.27012,46.47878],[125.24048,46.45676],[125.27082,46.43611],[125.23965,46.411],[125.2185,46.42743],[125.16159,46.42838],[125.1723,46.48281],[125.09216,46.48037],[125.06224,46.48714],[125.03664,46.44437],[124.98711,46.43008],[125.03609,46.40645],[125.02718,46.37167],[125.05904,46.33762],[125.0525,46.25819],[124.9853,46.2516],[124.96888,46.21801],[124.91768,46.20876],[124.90738,46.17003],[124.93117,46.11135],[124.92227,46.08875],[124.87594,46.0686],[124.9046,46.05004],[124.95956,46.07095],[125.06266,46.08385],[125.10552,46.04492],[125.14726,46.04396],[125.16173,46.08236],[125.19568,46.09408],[125.22351,46.13755],[125.15283,46.12924],[125.13543,46.1646],[125.07908,46.17141],[125.09063,46.26616],[125.1147,46.25362],[125.11693,46.18663],[125.16396,46.19695],[125.21196,46.17152],[125.21933,46.14362],[125.25551,46.14863],[125.2903,46.1367],[125.35708,46.14788],[125.42011,45.88553],[125.69575,45.90746],[125.71106,45.81551],[125.72344,45.79709],[125.78118,45.79923],[125.77339,45.76278],[125.7489,45.74917],[125.80665,45.69959],[125.78397,45.67919],[125.73151,45.68736],[125.72163,45.646],[125.76129,45.53135]]]}},{"type":"Feature","id":"datav:232700","properties":{"boundaryId":"datav:232700","nodeId":"geo:cn-hl-dhl","parentNodeId":"geo:cn-hl","bounds":[121.18245,50.17843,127.03094,53.56079]},"geometry":{"type":"MultiPolygon","coordinates":[[[[127.03094,50.98125],[126.98558,51.02912],[126.92283,51.06188],[126.91768,51.13909],[126.90001,51.20067],[126.92659,51.2464],[126.97626,51.2915],[126.96416,51.3331],[126.88735,51.32196],[126.87803,51.30072],[126.92172,51.25967],[126.88485,51.24457],[126.84143,51.25881],[126.81333,51.31187],[126.83726,51.3451],[126.90419,51.34049],[126.93007,51.35921],[126.90836,51.40727],[126.83517,51.41379],[126.78425,51.44809],[126.81249,51.49414],[126.84408,51.52198],[126.81375,51.54626],[126.69562,51.57846],[126.67906,51.60224],[126.74111,51.64222],[126.72386,51.67893],[126.7343,51.71151],[126.71245,51.73046],[126.67294,51.73179],[126.6586,51.76243],[126.62285,51.77736],[126.58082,51.82479],[126.56329,51.8622],[126.51028,51.92225],[126.46256,51.94849],[126.46812,51.98259],[126.45087,52.02772],[126.51459,52.03736],[126.56176,52.11388],[126.56023,52.13388],[126.49929,52.16039],[126.307,52.20571],[126.31701,52.23942],[126.40913,52.28232],[126.40064,52.3046],[126.34331,52.3046],[126.31799,52.32912],[126.34888,52.35785],[126.35361,52.38929],[126.32675,52.42435],[126.27054,52.47438],[126.20542,52.46614],[126.19276,52.49216],[126.21335,52.52527],[126.1474,52.57294],[126.09397,52.5989],[126.02204,52.58041],[125.96861,52.63035],[125.99588,52.6752],[126.06183,52.67343],[126.07254,52.69113],[126.05153,52.74727],[126.10858,52.75648],[126.10789,52.77424],[126.05404,52.79962],[126.02037,52.79562],[125.98558,52.75852],[125.93716,52.7867],[125.92032,52.81876],[125.85521,52.86638],[125.83614,52.89884],[125.77186,52.89791],[125.69853,52.86527],[125.66667,52.87],[125.67224,52.92238],[125.7368,52.9436],[125.74445,52.99284],[125.68434,53.00811],[125.64274,53.04139],[125.6138,53.08341],[125.53073,53.05099],[125.50402,53.06125],[125.50388,53.09532],[125.34345,53.14467],[125.31548,53.14513],[125.25231,53.1806],[125.14197,53.20427],[125.03887,53.20261],[124.97027,53.19405],[124.88762,53.16439],[124.90947,53.11811],[124.85618,53.11147],[124.8328,53.14522],[124.73443,53.14669],[124.71245,53.16246],[124.72079,53.19221],[124.68406,53.20639],[124.61505,53.20961],[124.56315,53.20151],[124.49664,53.20768],[124.43583,53.22387],[124.41246,53.24871],[124.37586,53.25919],[124.328,53.33213],[124.23937,53.37965],[124.19415,53.37332],[124.14197,53.34929],[124.10899,53.35526],[124.05793,53.40403],[124.01396,53.40339],[123.99838,53.4262],[123.86536,53.48971],[123.69825,53.4984],[123.66889,53.53395],[123.62103,53.55011],[123.51737,53.55842],[123.4567,53.53641],[123.39409,53.53815],[123.30991,53.56079],[123.24757,53.55659],[123.17926,53.50991],[123.13737,53.49831],[123.05222,53.50681],[122.94397,53.48395],[122.89443,53.463],[122.82681,53.45723],[122.7642,53.46355],[122.6732,53.45916],[122.6078,53.46538],[122.53782,53.4533],[122.49621,53.45852],[122.43527,53.4447],[122.37781,53.47142],[122.35012,53.50553],[122.26719,53.47014],[122.22753,53.46199],[122.16144,53.46858],[122.11121,53.42702],[121.87606,53.42666],[121.81623,53.41347],[121.75432,53.38937],[121.69755,53.39267],[121.59639,53.3525],[121.49955,53.33718],[121.51152,53.31754],[121.57552,53.29145],[121.61532,53.25892],[121.6789,53.24135],[121.66527,53.17056],[121.71953,53.14623],[121.74806,53.14909],[121.81498,53.0691],[121.78548,53.01855],[121.71564,52.99802],[121.67751,52.94804],[121.66234,52.91247],[121.61031,52.89226],[121.62032,52.85107],[121.59124,52.8247],[121.47673,52.7721],[121.45489,52.73536],[121.37307,52.68312],[121.31004,52.67622],[121.29265,52.6518],[121.23713,52.61906],[121.18245,52.59927],[121.22558,52.57742],[121.28026,52.58686],[121.32562,52.57266],[121.35317,52.53575],[121.40967,52.5235],[121.41634,52.49927],[121.4951,52.48477],[121.51889,52.45668],[121.56522,52.46033],[121.59041,52.44319],[121.64008,52.44441],[121.67876,52.41976],[121.65845,52.39032],[121.7155,52.34311],[121.7141,52.31813],[121.76934,52.30817],[121.84114,52.28269],[121.90069,52.28063],[121.94772,52.29839],[121.97666,52.34377],[122.03566,52.37756],[122.04053,52.41311],[122.08185,52.42089],[122.14238,52.49497],[122.20791,52.46923],[122.31046,52.47531],[122.34232,52.41414],[122.41649,52.37418],[122.44724,52.39398],[122.48411,52.34152],[122.47813,52.29623],[122.5605,52.2826],[122.58596,52.26643],[122.67891,52.27668],[122.71077,52.25627],[122.761,52.2669],[122.76935,52.17971],[122.73804,52.1535],[122.69073,52.14039],[122.62923,52.13662],[122.64398,52.11171],[122.62506,52.06761],[122.65052,52.05901],[122.66485,51.99868],[122.68391,51.97454],[122.72621,51.9788],[122.72955,51.91931],[122.70618,51.89019],[122.72566,51.87815],[122.73261,51.83267],[122.77199,51.77955],[122.75015,51.74768],[122.77491,51.70398],[122.8161,51.65529],[122.82069,51.63316],[122.85631,51.60673],[122.83266,51.58161],[122.87398,51.56127],[122.8801,51.51098],[122.85464,51.47768],[122.90042,51.44531],[122.90348,51.41532],[122.96609,51.38694],[122.96011,51.36161],[122.9782,51.33146],[123.01437,51.30995],[123.05918,51.32186],[123.15379,51.30092],[123.27081,51.25544],[123.33968,51.27246],[123.3767,51.26698],[123.4631,51.28679],[123.58262,51.29467],[123.64259,51.31984],[123.68127,51.35163],[123.68503,51.37399],[123.72677,51.3971],[123.79467,51.36132],[123.84254,51.36756],[123.88776,51.3208],[123.93994,51.31312],[123.99462,51.32272],[124.07184,51.3208],[124.09035,51.34135],[124.12819,51.3475],[124.19248,51.33934],[124.23923,51.34462],[124.27165,51.30822],[124.31172,51.28957],[124.33955,51.29352],[124.40647,51.27208],[124.43027,51.3012],[124.42679,51.33185],[124.44363,51.35806],[124.49024,51.38041],[124.55577,51.37543],[124.58722,51.36372],[124.62451,51.32868],[124.69352,51.33271],[124.75127,51.357],[124.78355,51.39221],[124.86466,51.37965],[124.88512,51.40813],[124.94244,51.44742],[124.91754,51.47433],[124.92881,51.49854],[124.98363,51.5083],[125.0045,51.52934],[125.0475,51.52963],[125.07282,51.55343],[125.06002,51.5968],[125.09884,51.65834],[125.13028,51.63545],[125.17606,51.63936],[125.21488,51.6281],[125.28918,51.63392],[125.31604,51.60997],[125.35166,51.6239],[125.3806,51.58572],[125.42471,51.56289],[125.52614,51.48964],[125.62576,51.37955],[125.66959,51.34327],[125.69547,51.3378],[125.71787,51.29794],[125.76449,51.26102],[125.75795,51.22734],[125.82056,51.22696],[125.85201,51.213],[125.87705,51.16262],[126.0091,51.05724],[126.05919,51.04352],[126.03428,51.01104],[126.05919,50.95976],[126.01995,50.92083],[126.10371,50.92306],[126.13126,50.94582],[126.12987,50.97486],[126.18149,50.97031],[126.22504,51.00186],[126.31006,50.99528],[126.42053,50.92945],[126.47633,50.90213],[126.61018,50.90843],[126.68782,50.90416],[126.7432,50.91308],[126.86773,50.91521],[127.00604,50.93236],[127.00145,50.95066],[127.03094,50.98125]]],[[[124.14308,50.56613],[124.08409,50.56867],[124.08701,50.53996],[124.02634,50.5384],[124.02342,50.51846],[123.98363,50.51025],[124.00338,50.47887],[124.00533,50.43454],[123.97375,50.40036],[123.93994,50.39742],[123.92032,50.37302],[123.87955,50.40252],[123.84059,50.41143],[123.8257,50.44952],[123.80052,50.45588],[123.78382,50.40173],[123.7777,50.34449],[123.87064,50.27047],[123.86077,50.23038],[123.90919,50.21012],[123.93075,50.1869],[123.97695,50.20884],[124.02495,50.2109],[124.06182,50.199],[124.13543,50.23726],[124.18942,50.21681],[124.28292,50.23077],[124.28654,50.18956],[124.3248,50.17843],[124.35972,50.20195],[124.34428,50.21907],[124.35249,50.25033],[124.34525,50.33193],[124.36418,50.36086],[124.39493,50.36018],[124.43987,50.38557],[124.41663,50.44962],[124.44404,50.47349],[124.43347,50.5467],[124.38018,50.54572],[124.31589,50.53273],[124.26636,50.55627],[124.18315,50.55764],[124.14308,50.56613]]]]}}]}