{"type":"FeatureCollection","features":[{"type":"Feature","id":"datav:150100","properties":{"boundaryId":"datav:150100","nodeId":"geo:cn-nm-het","parentNodeId":"geo:cn-nm","bounds":[110.55779,39.58962,112.31019,41.38558]},"geometry":{"type":"Polygon","coordinates":[[[111.03354,40.2882],[111.17806,40.22299],[111.23731,40.16911],[111.31563,40.15126],[111.42026,40.02176],[111.4431,39.8943],[111.37055,39.78913],[111.36361,39.72169],[111.43818,39.64308],[111.50206,39.66318],[111.64657,39.64431],[111.78762,39.58962],[111.84254,39.62015],[111.92838,39.61027],[111.97058,39.79635],[112.03503,39.8544],[112.17492,40.05122],[112.23302,40.17034],[112.30007,40.21145],[112.31019,40.25639],[112.26626,40.32959],[112.26452,40.38841],[112.13475,40.51111],[112.05382,40.55811],[112.13041,40.6977],[112.18764,40.85016],[112.12521,40.96147],[112.04168,40.96942],[112.03445,41.04737],[111.88387,41.1292],[111.84051,41.25226],[111.73097,41.31096],[111.58241,41.30683],[111.54137,41.3285],[111.42575,41.31887],[111.27951,41.29031],[111.23615,41.24038],[111.10262,41.30838],[111.03498,41.29977],[110.887,41.33487],[110.82891,41.38317],[110.7422,41.38558],[110.64768,41.33332],[110.58207,41.33177],[110.55779,41.23401],[110.60144,41.22057],[110.67774,41.05376],[110.62861,40.98913],[110.64566,40.91994],[110.74509,40.91891],[110.713,40.81013],[110.78382,40.79383],[110.78844,40.68884],[110.84307,40.53531],[110.90868,40.48185],[111.02053,40.4592],[111.08354,40.42573],[111.11505,40.33134],[111.03354,40.2882]]]}},{"type":"Feature","id":"datav:150200","properties":{"boundaryId":"datav:150200","nodeId":"geo:cn-nm-bts","parentNodeId":"geo:cn-nm","bounds":[109.27739,40.24678,111.43732,42.73854]},"geometry":{"type":"Polygon","coordinates":[[[111.42575,41.31887],[111.385,41.37991],[111.43067,41.41685],[111.43732,41.53045],[111.34916,41.64677],[111.24367,41.6697],[111.06215,41.79823],[110.92429,42.02255],[110.79567,42.1738],[110.72312,42.39425],[110.73006,42.44278],[110.6393,42.49178],[110.55433,42.59674],[110.43496,42.69243],[110.33987,42.73854],[110.13957,42.67476],[110.10835,42.64275],[109.90603,42.63584],[109.68405,42.55896],[109.54416,42.47235],[109.38317,42.44768],[109.43375,42.42757],[109.50717,42.26591],[109.53925,42.14731],[109.37479,41.93298],[109.27739,41.86991],[109.36496,41.7663],[109.39907,41.6916],[109.44907,41.50645],[109.66411,41.49924],[109.62625,41.43385],[109.69879,41.37974],[109.69561,41.32265],[109.61931,41.28033],[109.72192,41.13851],[109.67769,41.10435],[109.69186,41.04133],[109.81296,41.0021],[109.83608,40.94521],[109.90083,40.88238],[109.78088,40.7548],[109.52855,40.73242],[109.48173,40.74856],[109.41352,40.70499],[109.40543,40.63011],[109.43578,40.50902],[109.51237,40.51303],[109.60284,40.55219],[109.70082,40.48237],[109.90314,40.52939],[110.09101,40.528],[110.17859,40.55097],[110.36501,40.46077],[110.43438,40.39678],[110.51444,40.39172],[110.55664,40.33465],[110.64277,40.30147],[110.6919,40.32121],[110.76879,40.27334],[110.92544,40.24678],[111.03354,40.2882],[111.11505,40.33134],[111.08354,40.42573],[111.02053,40.4592],[110.90868,40.48185],[110.84307,40.53531],[110.78844,40.68884],[110.78382,40.79383],[110.713,40.81013],[110.74509,40.91891],[110.64566,40.91994],[110.62861,40.98913],[110.67774,41.05376],[110.60144,41.22057],[110.55779,41.23401],[110.58207,41.33177],[110.64768,41.33332],[110.7422,41.38558],[110.82891,41.38317],[110.887,41.33487],[111.03498,41.29977],[111.10262,41.30838],[111.23615,41.24038],[111.27951,41.29031],[111.42575,41.31887]]]}},{"type":"Feature","id":"datav:150300","properties":{"boundaryId":"datav:150300","nodeId":"geo:cn-nm-whm","parentNodeId":"geo:cn-nm","bounds":[106.62003,39.04741,107.13653,39.85844]},"geometry":{"type":"Polygon","coordinates":[[[106.74981,39.85844],[106.76975,39.63391],[106.63969,39.57426],[106.62003,39.49954],[106.75299,39.43146],[106.75125,39.38156],[106.80675,39.31868],[106.79605,39.21424],[106.85357,39.11657],[106.96716,39.0547],[107.07844,39.04741],[107.13653,39.28004],[107.05214,39.23837],[106.94288,39.29919],[106.96485,39.45004],[106.94086,39.58432],[106.88768,39.67764],[106.91571,39.70408],[106.8634,39.84314],[106.77813,39.81254],[106.74981,39.85844]]]}},{"type":"Feature","id":"datav:150400","properties":{"boundaryId":"datav:150400","nodeId":null,"bounds":[116.35663,41.28291,120.98459,45.25238]},"geometry":{"type":"Polygon","coordinates":[[[120.88314,42.2698],[120.76724,42.36651],[120.76869,42.39408],[120.66492,42.44261],[120.56983,42.5404],[120.45971,42.75587],[120.40393,42.93907],[120.34843,43.05851],[120.46029,43.13494],[120.46896,43.17555],[120.63111,43.29319],[120.71406,43.38181],[120.60278,43.42574],[120.76204,43.55486],[120.93401,43.6116],[120.98459,43.65089],[120.78689,43.8144],[120.77476,43.93542],[120.69267,44.03694],[120.70857,44.08138],[120.68891,44.18264],[120.64556,44.23518],[120.45451,44.26258],[120.33919,44.39104],[120.28629,44.51774],[120.21461,44.55121],[120.02443,44.77407],[119.84899,44.89475],[119.75794,44.92265],[119.71777,44.96885],[119.65678,45.10255],[119.50764,45.19511],[119.49204,45.22399],[119.33769,45.25238],[119.30763,45.19139],[119.36168,45.16572],[119.37006,45.10061],[119.21572,45.15313],[119.15907,45.10012],[119.19693,45.0325],[119.15329,44.99364],[119.22439,44.90984],[119.08132,44.93741],[119.06745,44.87236],[119.14924,44.82608],[119.18219,44.777],[119.14838,44.73178],[119.06571,44.71062],[118.92871,44.7173],[119.00097,44.65248],[118.96715,44.54223],[118.75038,44.4684],[118.48303,44.38891],[118.47869,44.34683],[118.40325,44.30767],[118.24631,44.32619],[118.25094,44.28111],[118.14284,44.2076],[118.11393,44.13088],[118.06393,44.10276],[117.92433,44.12694],[117.78993,44.01981],[117.69975,44.01718],[117.64397,44.04287],[117.68646,44.09602],[117.52287,44.22681],[117.45234,44.23518],[117.20638,44.22025],[117.12082,44.17952],[117.01128,44.05768],[116.96157,44.02492],[117.02198,43.97005],[116.99972,43.91249],[117.00116,43.78266],[117.05435,43.75338],[116.97226,43.67359],[116.85867,43.65752],[116.80462,43.56531],[116.83093,43.50703],[116.79017,43.4841],[116.68121,43.517],[116.62196,43.5052],[116.60577,43.41992],[116.43669,43.32869],[116.41414,43.25684],[116.37021,43.24349],[116.35663,43.157],[116.50085,43.01532],[116.63988,42.95249],[116.67427,42.88959],[116.67398,42.76142],[116.58814,42.59994],[116.66965,42.55592],[116.69826,42.59539],[116.80144,42.58308],[116.88584,42.53466],[116.90954,42.43805],[116.89365,42.38783],[117.09857,42.48401],[117.17603,42.4656],[117.27546,42.48198],[117.41303,42.47117],[117.43529,42.58544],[117.60033,42.60298],[117.66738,42.58241],[117.77981,42.61865],[117.87404,42.51018],[118.02434,42.38478],[118.04746,42.28065],[117.96913,42.24556],[118.10642,42.17193],[118.08879,42.11708],[118.15527,42.08122],[118.22666,42.09023],[118.29689,42.0484],[118.30614,41.93997],[118.34025,41.87247],[118.29227,41.77279],[118.16596,41.81326],[118.1307,41.74238],[118.20671,41.65071],[118.23041,41.58221],[118.30152,41.56971],[118.32695,41.45085],[118.4125,41.33194],[118.51916,41.35395],[118.77004,41.35309],[118.84489,41.34243],[118.89085,41.3008],[118.97467,41.30648],[119.1978,41.28291],[119.29636,41.32523],[119.37642,41.42217],[119.40446,41.51073],[119.30792,41.65755],[119.29983,41.71143],[119.34116,41.92242],[119.32469,41.96927],[119.3744,42.02102],[119.38509,42.08955],[119.30445,42.12897],[119.23798,42.20095],[119.28451,42.26523],[119.43192,42.31656],[119.50244,42.38799],[119.5721,42.3594],[119.54146,42.29217],[119.64233,42.24064],[119.74465,42.21164],[119.84668,42.2152],[119.84552,42.0972],[119.95448,41.96825],[120.05044,41.77603],[120.03686,41.70802],[120.09611,41.69707],[120.12704,41.77262],[120.25161,41.88389],[120.28687,41.93486],[120.37445,41.99447],[120.45653,42.01625],[120.46665,42.10536],[120.58428,42.16718],[120.62475,42.15462],[120.74527,42.22352],[120.82071,42.2281],[120.88314,42.2698]]]}},{"type":"Feature","id":"datav:150500","properties":{"boundaryId":"datav:150500","nodeId":"geo:cn-nm-tlo","parentNodeId":"geo:cn-nm","bounds":[119.24809,42.24251,123.7038,45.65581]},"geometry":{"type":"Polygon","coordinates":[[[120.88314,42.2698],[120.93603,42.2798],[121.02881,42.24251],[121.12159,42.28099],[121.21871,42.37192],[121.2849,42.38783],[121.30455,42.43568],[121.38519,42.47303],[121.6378,42.48046],[121.66613,42.4372],[121.74734,42.48452],[121.86932,42.52791],[121.92134,42.60618],[121.94042,42.68856],[122.06094,42.7234],[122.1332,42.6894],[122.25951,42.69664],[122.3413,42.67122],[122.46154,42.75805],[122.37483,42.77487],[122.35836,42.83587],[122.43697,42.84292],[122.56386,42.82596],[122.62513,42.77319],[122.73236,42.78647],[122.84653,42.7202],[122.88728,42.77016],[123.05839,42.76915],[123.22747,42.83234],[123.17111,42.85165],[123.18412,42.92599],[123.25956,42.99338],[123.47199,43.04278],[123.57258,43.0046],[123.6272,43.08077],[123.69628,43.28135],[123.7038,43.37066],[123.60871,43.36633],[123.48673,43.44537],[123.41997,43.41011],[123.37575,43.47662],[123.31592,43.49208],[123.30464,43.55071],[123.35291,43.56764],[123.45234,43.54573],[123.53731,43.64973],[123.49685,43.78564],[123.40089,43.97928],[123.33239,44.02838],[123.38644,44.16194],[123.32372,44.17985],[123.19684,44.34503],[123.12718,44.36877],[123.14221,44.42818],[123.12487,44.50958],[123.02486,44.49291],[122.85607,44.39824],[122.76069,44.36976],[122.67542,44.2857],[122.48322,44.23699],[122.31934,44.23288],[122.27136,44.25569],[122.16384,44.25536],[121.93435,44.34355],[121.88261,44.40217],[121.82943,44.41149],[121.6511,44.56329],[121.54849,44.66764],[121.53028,44.72039],[121.40918,44.79098],[121.40166,44.85141],[121.2401,44.934],[121.03344,44.99834],[120.97765,45.07328],[120.96783,45.18429],[120.82678,45.25367],[120.74325,45.26011],[120.55451,45.35757],[120.55943,45.41693],[120.49729,45.46337],[120.16577,45.59494],[120.02732,45.5951],[119.99871,45.48232],[119.90679,45.50576],[119.87616,45.54813],[119.79118,45.56416],[119.56545,45.65581],[119.49637,45.55037],[119.30445,45.46819],[119.31341,45.38557],[119.24809,45.30363],[119.33769,45.25238],[119.49204,45.22399],[119.50764,45.19511],[119.65678,45.10255],[119.71777,44.96885],[119.75794,44.92265],[119.84899,44.89475],[120.02443,44.77407],[120.21461,44.55121],[120.28629,44.51774],[120.33919,44.39104],[120.45451,44.26258],[120.64556,44.23518],[120.68891,44.18264],[120.70857,44.08138],[120.69267,44.03694],[120.77476,43.93542],[120.78689,43.8144],[120.98459,43.65089],[120.93401,43.6116],[120.76204,43.55486],[120.60278,43.42574],[120.71406,43.38181],[120.63111,43.29319],[120.46896,43.17555],[120.46029,43.13494],[120.34843,43.05851],[120.40393,42.93907],[120.45971,42.75587],[120.56983,42.5404],[120.66492,42.44261],[120.76869,42.39408],[120.76724,42.36651],[120.88314,42.2698]]]}},{"type":"Feature","id":"datav:150600","properties":{"boundaryId":"datav:150600","nodeId":"geo:cn-nm-ods","parentNodeId":"geo:cn-nm","bounds":[106.48246,37.62207,111.4431,40.86177]},"geometry":{"type":"Polygon","coordinates":[[[106.96716,39.0547],[106.95444,38.94113],[106.83739,38.84754],[106.75588,38.74847],[106.7027,38.70827],[106.66252,38.60149],[106.64865,38.47268],[106.60183,38.39247],[106.48246,38.31956],[106.55529,38.26383],[106.72813,38.2041],[106.75588,38.18124],[107.01485,38.12036],[107.19029,38.15404],[107.24232,38.11063],[107.33163,38.08647],[107.39377,38.01505],[107.41169,37.94915],[107.49262,37.94482],[107.56054,37.89369],[107.65014,37.86458],[107.84264,37.82895],[107.98195,37.78733],[108.02444,37.69876],[108.01316,37.66559],[108.13398,37.62207],[108.24641,37.66577],[108.30104,37.64075],[108.42243,37.64891],[108.53255,37.69061],[108.61117,37.65417],[108.77765,37.68354],[108.79817,37.93362],[108.82679,37.9952],[108.88286,38.01379],[108.93575,37.9217],[109.01755,37.96992],[109.069,38.09116],[108.94731,38.17061],[108.93893,38.2095],[109.05223,38.42855],[109.17594,38.51875],[109.27681,38.62297],[109.33144,38.59791],[109.33866,38.70148],[109.40167,38.71631],[109.45081,38.78883],[109.51728,38.83381],[109.54965,38.80579],[109.62451,38.8545],[109.68376,38.93561],[109.66527,38.98174],[109.96095,39.19187],[110.19304,39.28075],[110.18321,39.35642],[110.13668,39.39183],[110.15257,39.45393],[110.24333,39.42368],[110.39102,39.31177],[110.52427,39.3828],[110.62629,39.26675],[110.70289,39.27384],[110.73844,39.34862],[110.89076,39.50891],[111.01735,39.55201],[111.15493,39.56896],[111.14886,39.53223],[111.0584,39.44774],[111.06447,39.40103],[111.17227,39.42333],[111.35234,39.42669],[111.42662,39.50343],[111.43818,39.64308],[111.36361,39.72169],[111.37055,39.78913],[111.4431,39.8943],[111.42026,40.02176],[111.31563,40.15126],[111.23731,40.16911],[111.17806,40.22299],[111.03354,40.2882],[110.92544,40.24678],[110.76879,40.27334],[110.6919,40.32121],[110.64277,40.30147],[110.55664,40.33465],[110.51444,40.39172],[110.43438,40.39678],[110.36501,40.46077],[110.17859,40.55097],[110.09101,40.528],[109.90314,40.52939],[109.70082,40.48237],[109.60284,40.55219],[109.51237,40.51303],[109.43578,40.50902],[109.33346,40.47924],[109.07911,40.54906],[108.97795,40.52748],[108.76147,40.57847],[108.65828,40.63533],[108.56203,40.72808],[108.4366,40.794],[108.23456,40.82035],[108.22358,40.85363],[107.91461,40.84877],[107.82067,40.83647],[107.75853,40.86177],[107.69841,40.8129],[107.61315,40.77822],[107.5299,40.70239],[107.48713,40.71211],[107.38481,40.64367],[107.28567,40.6494],[107.2033,40.50606],[107.15503,40.45188],[107.1718,40.39015],[107.04433,40.32889],[107.02266,40.25831],[106.86687,40.16806],[106.82322,40.1087],[106.72929,40.04736],[106.72033,39.91556],[106.74981,39.85844],[106.77813,39.81254],[106.8634,39.84314],[106.91571,39.70408],[106.88768,39.67764],[106.94086,39.58432],[106.96485,39.45004],[106.94288,39.29919],[107.05214,39.23837],[107.13653,39.28004],[107.07844,39.04741],[106.96716,39.0547]]]}},{"type":"Feature","id":"datav:150700","properties":{"boundaryId":"datav:150700","nodeId":"geo:cn-nm-hbr","parentNodeId":"geo:cn-nm","bounds":[115.52942,47.09621,126.06836,53.33718]},"geometry":{"type":"Polygon","coordinates":[[[122.41819,47.35038],[122.50576,47.40048],[122.54334,47.49543],[122.59305,47.54709],[122.76329,47.61352],[122.85751,47.67833],[123.16186,47.78201],[123.25464,47.87474],[123.28904,47.94321],[123.5376,48.02186],[123.61911,48.0779],[123.74628,48.19758],[123.86623,48.27477],[124.08329,48.43853],[124.24255,48.52219],[124.31423,48.50383],[124.31885,48.34713],[124.47695,48.16413],[124.54719,48.20094],[124.57956,48.29748],[124.52002,48.37452],[124.50875,48.44826],[124.55557,48.46785],[124.51858,48.55419],[124.57898,48.59647],[124.62494,48.70028],[124.61396,48.75119],[124.6972,48.84187],[124.76541,48.98126],[124.82899,49.07197],[124.80934,49.11592],[124.90645,49.18393],[125.11745,49.12596],[125.21948,49.18902],[125.21485,49.28025],[125.25821,49.31401],[125.26399,49.46146],[125.20531,49.59407],[125.12727,49.65505],[125.21976,49.66914],[125.21283,49.90721],[125.24202,49.98783],[125.31601,50.04567],[125.25763,50.10079],[125.33422,50.16495],[125.46457,50.22991],[125.46631,50.2974],[125.53047,50.33104],[125.51313,50.40935],[125.82933,50.56164],[125.75852,50.74722],[125.88945,50.80486],[126.06836,50.96785],[126.00911,51.05719],[125.90881,51.13918],[125.85188,51.21256],[125.7643,51.26117],[125.62585,51.37926],[125.52411,51.49149],[125.3796,51.5868],[125.35156,51.62392],[125.13045,51.63544],[125.05993,51.59676],[125.0475,51.52969],[124.92871,51.49848],[124.94258,51.4474],[124.86455,51.37969],[124.78362,51.39227],[124.69344,51.33278],[124.49025,51.38041],[124.44372,51.3581],[124.40643,51.27206],[124.27145,51.3083],[124.23937,51.34465],[124.12809,51.34751],[124.07173,51.32075],[123.92606,51.30071],[123.84253,51.36754],[123.71102,51.39827],[123.66189,51.31918],[123.29424,51.25415],[123.15377,51.30085],[122.97804,51.33149],[122.9659,51.38698],[122.85462,51.47766],[122.88006,51.51102],[122.85636,51.60671],[122.74999,51.74775],[122.72629,51.97886],[122.68381,51.97449],[122.62918,52.13659],[122.76936,52.17973],[122.76098,52.26686],[122.58582,52.26644],[122.4783,52.29629],[122.48409,52.34151],[122.34217,52.41407],[122.31038,52.47522],[122.20777,52.46922],[122.16933,52.51357],[121.94764,52.29839],[121.84128,52.2827],[121.71411,52.31813],[121.64011,52.44438],[121.51872,52.45666],[121.4164,52.49935],[121.32565,52.57263],[121.18229,52.59629],[121.37305,52.68316],[121.48201,52.77429],[121.59127,52.82469],[121.61034,52.89232],[121.66237,52.91249],[121.71555,52.99804],[121.7855,53.01857],[121.81498,53.06911],[121.75313,53.14734],[121.66526,53.17055],[121.67884,53.24134],[121.61526,53.25902],[121.49936,53.33718],[121.32941,53.32282],[121.28547,53.29134],[121.15367,53.28531],[120.95482,53.29859],[120.82273,53.27011],[120.81406,53.23969],[120.69094,53.17261],[120.64209,53.10515],[120.54151,53.07035],[120.45306,53.01003],[120.34468,52.90088],[120.22242,52.84282],[120.03137,52.77276],[120.07068,52.70759],[120.04929,52.59852],[120.186,52.57931],[120.28629,52.62299],[120.43717,52.63968],[120.73429,52.53684],[120.69296,52.51831],[120.68805,52.42762],[120.62417,52.36151],[120.62851,52.32275],[120.75857,52.25635],[120.78574,52.16554],[120.76955,52.11409],[120.68602,52.03498],[120.71955,52.01017],[120.66088,51.92946],[120.497,51.88735],[120.45942,51.84506],[120.17241,51.67991],[120.09438,51.68204],[119.98599,51.50575],[120.00246,51.45939],[119.87934,51.2967],[119.76026,51.21327],[119.78511,51.1636],[119.7643,51.09259],[119.68308,51.01888],[119.59869,50.98472],[119.49146,50.87891],[119.51574,50.81412],[119.49666,50.74548],[119.36139,50.63273],[119.28249,50.60483],[119.26457,50.46945],[119.14606,50.4111],[119.23393,50.3651],[119.3585,50.35896],[119.31862,50.22038],[119.35966,50.19707],[119.2348,50.07478],[119.09202,49.98592],[118.96542,49.98886],[118.742,49.94658],[118.57292,49.93095],[118.48592,49.86692],[118.46973,49.82572],[118.22088,49.73002],[118.20585,49.6847],[118.11885,49.66647],[118.08272,49.61663],[117.98069,49.62123],[117.86652,49.59214],[117.80959,49.52127],[117.485,49.6331],[117.27806,49.63636],[117.06909,49.69551],[116.7367,49.84758],[116.71791,49.84728],[116.35085,49.31759],[116.04852,48.87352],[116.07829,48.82242],[115.8303,48.5601],[115.79937,48.51506],[115.82279,48.25937],[115.52942,48.15527],[115.58058,47.92173],[115.93898,47.68311],[115.96817,47.6899],[116.11095,47.81171],[116.26587,47.87673],[116.45287,47.83754],[116.66994,47.89056],[116.87919,47.89394],[117.09481,47.82401],[117.38413,47.64115],[117.49367,47.75846],[117.81334,48.01619],[118.01538,48.01129],[118.24024,48.04054],[118.27637,48.00929],[118.42435,48.01481],[118.568,47.99213],[118.77321,47.77109],[119.13421,47.66445],[119.15213,47.54059],[119.36573,47.47747],[119.35475,47.43008],[119.48336,47.33812],[119.61632,47.36093],[119.67181,47.4121],[119.77037,47.4386],[119.90766,47.56996],[120.01316,47.55482],[120.11894,47.60256],[120.23369,47.63051],[120.4733,47.55513],[120.59006,47.54832],[120.5785,47.50734],[120.73631,47.37939],[120.63313,47.30769],[120.62648,47.24195],[120.73805,47.21831],[120.82302,47.14561],[120.87649,47.14982],[120.97679,47.09621],[121.05512,47.14592],[121.17333,47.14125],[121.25512,47.11336],[121.38028,47.14234],[121.43606,47.18345],[121.55196,47.19591],[121.58809,47.17038],[121.67335,47.25035],[121.76006,47.28097],[121.92712,47.24149],[122.07944,47.18252],[122.2465,47.25346],[122.29939,47.30008],[122.41819,47.35038]],[[124.34256,50.18813],[124.28301,50.23079],[124.18937,50.21686],[124.10266,50.2387],[123.9541,50.18696],[123.86276,50.22639],[123.87028,50.27399],[123.77779,50.34449],[123.78039,50.43707],[123.92028,50.37299],[124.00526,50.43459],[123.98358,50.51025],[124.08416,50.56862],[124.26654,50.55625],[124.31596,50.53267],[124.43331,50.54665],[124.41655,50.44962],[124.43996,50.38555],[124.36423,50.36086],[124.36857,50.25818],[124.34256,50.18813]]]}},{"type":"Feature","id":"datav:150800","properties":{"boundaryId":"datav:150800","nodeId":"geo:cn-nm-byr","parentNodeId":"geo:cn-nm","bounds":[105.20147,40.16806,109.90083,42.46036]},"geometry":{"type":"Polygon","coordinates":[[[106.86687,40.16806],[107.02266,40.25831],[107.04433,40.32889],[107.1718,40.39015],[107.15503,40.45188],[107.2033,40.50606],[107.28567,40.6494],[107.38481,40.64367],[107.48713,40.71211],[107.5299,40.70239],[107.61315,40.77822],[107.69841,40.8129],[107.75853,40.86177],[107.82067,40.83647],[107.91461,40.84877],[108.22358,40.85363],[108.23456,40.82035],[108.4366,40.794],[108.56203,40.72808],[108.65828,40.63533],[108.76147,40.57847],[108.97795,40.52748],[109.07911,40.54906],[109.33346,40.47924],[109.43578,40.50902],[109.40543,40.63011],[109.41352,40.70499],[109.48173,40.74856],[109.52855,40.73242],[109.78088,40.7548],[109.90083,40.88238],[109.83608,40.94521],[109.81296,41.0021],[109.69186,41.04133],[109.67769,41.10435],[109.72192,41.13851],[109.61931,41.28033],[109.69561,41.32265],[109.69879,41.37974],[109.62625,41.43385],[109.66411,41.49924],[109.44907,41.50645],[109.39907,41.6916],[109.36496,41.7663],[109.27739,41.86991],[109.37479,41.93298],[109.53925,42.14731],[109.50717,42.26591],[109.43375,42.42757],[109.38317,42.44768],[109.29155,42.43585],[109.02564,42.4585],[108.84557,42.39578],[108.53284,42.44295],[108.29844,42.43839],[108.23803,42.46036],[108.02241,42.43332],[107.93917,42.40373],[107.73656,42.41506],[107.57442,42.41303],[107.46632,42.45884],[107.30417,42.41269],[107.2718,42.36414],[107.05127,42.31927],[106.78594,42.29149],[106.6131,42.24183],[106.01307,42.03207],[105.74167,41.94934],[105.58964,41.8885],[105.29165,41.74989],[105.23384,41.75109],[105.20147,41.5428],[105.248,41.31956],[105.31708,41.20127],[105.31795,41.11333],[105.37922,41.05964],[105.39859,40.98395],[105.70438,40.81013],[105.8356,40.78204],[105.94428,40.73953],[106.18273,40.70464],[106.24718,40.62629],[106.47957,40.55515],[106.48101,40.49387],[106.37407,40.49195],[106.34459,40.51982],[106.20932,40.51633],[106.22926,40.4653],[106.3284,40.3467],[106.43274,40.34862],[106.60327,40.38684],[106.81369,40.36991],[106.76571,40.29483],[106.70559,40.26233],[106.74027,40.19641],[106.86687,40.16806]]]}},{"type":"Feature","id":"datav:150900","properties":{"boundaryId":"datav:150900","nodeId":"geo:cn-nm-uls","parentNodeId":"geo:cn-nm","bounds":[110.33987,40.16806,114.80713,43.38032]},"geometry":{"type":"Polygon","coordinates":[[[112.31019,40.25639],[112.45615,40.30007],[112.62986,40.23576],[112.75067,40.16806],[112.84866,40.20708],[112.89288,40.32645],[113.0397,40.37009],[113.25128,40.41335],[113.31602,40.32016],[113.3877,40.31911],[113.55996,40.34862],[113.68049,40.44403],[113.76344,40.47401],[113.85101,40.46059],[113.94871,40.51738],[114.06201,40.52887],[114.04178,40.60873],[114.06403,40.70707],[114.13455,40.7378],[114.04467,40.8311],[114.04149,40.91735],[113.82038,41.10159],[113.87789,41.11557],[113.92038,41.17197],[113.99669,41.19248],[114.01634,41.23211],[113.92674,41.32627],[113.94871,41.39211],[113.87125,41.41341],[113.92992,41.48449],[114.03224,41.5296],[114.10132,41.53783],[114.23109,41.51365],[114.22155,41.58221],[114.25942,41.62332],[114.21519,41.68476],[114.20305,41.79345],[114.3467,41.92804],[114.50943,41.9725],[114.46607,42.03803],[114.51087,42.11096],[114.75539,42.11589],[114.80713,42.14952],[114.75713,42.21741],[114.6866,42.26235],[114.57533,42.29776],[114.4655,42.17091],[114.47908,42.11419],[114.37705,42.10977],[114.3759,42.14969],[114.29121,42.19145],[114.22676,42.13492],[114.13224,42.11708],[114.06519,42.04398],[114.0623,41.9662],[113.95507,41.9507],[113.91316,41.98595],[113.91605,42.05011],[113.74321,42.08343],[113.70968,42.12982],[113.64465,42.10943],[113.57268,42.13186],[113.37238,42.14375],[113.25099,42.03122],[113.08653,41.93281],[113.04231,41.98595],[112.96485,41.99821],[112.85617,42.11708],[112.73796,42.1446],[112.65472,42.31606],[112.58968,42.34704],[112.39777,42.38766],[112.1807,42.53483],[112.02896,42.5846],[111.85843,42.8184],[111.75265,42.98768],[111.65842,43.02386],[111.5035,43.17872],[111.3798,43.18256],[111.21563,43.27685],[111.15089,43.38032],[111.02053,43.33002],[110.76994,43.09933],[110.73642,43.08963],[110.6315,42.93606],[110.46964,42.83906],[110.43727,42.78143],[110.33987,42.73854],[110.43496,42.69243],[110.55433,42.59674],[110.6393,42.49178],[110.73006,42.44278],[110.72312,42.39425],[110.79567,42.1738],[110.92429,42.02255],[111.06215,41.79823],[111.24367,41.6697],[111.34916,41.64677],[111.43732,41.53045],[111.43067,41.41685],[111.385,41.37991],[111.42575,41.31887],[111.54137,41.3285],[111.58241,41.30683],[111.73097,41.31096],[111.84051,41.25226],[111.88387,41.1292],[112.03445,41.04737],[112.04168,40.96942],[112.12521,40.96147],[112.18764,40.85016],[112.13041,40.6977],[112.05382,40.55811],[112.13475,40.51111],[112.26452,40.38841],[112.26626,40.32959],[112.31019,40.25639]]]}},{"type":"Feature","id":"datav:152200","properties":{"boundaryId":"datav:152200","nodeId":"geo:cn-nm-hin","parentNodeId":"geo:cn-nm","bounds":[119.48336,44.25536,123.63183,47.63051]},"geometry":{"type":"Polygon","coordinates":[[[122.27136,44.25569],[122.29159,44.31029],[122.2861,44.47772],[122.228,44.48017],[122.19592,44.55986],[122.13176,44.57749],[122.10314,44.67399],[122.11499,44.77667],[122.04967,44.91276],[122.08667,44.95297],[122.07453,45.0066],[122.11933,45.06859],[122.10979,45.14198],[122.14332,45.183],[122.23003,45.20689],[122.23899,45.27623],[122.14736,45.29557],[122.16355,45.44377],[122.02337,45.49019],[121.96643,45.59606],[122.00343,45.6233],[121.97019,45.69278],[121.867,45.71981],[121.81122,45.68702],[121.71411,45.70174],[121.64445,45.75242],[121.75428,45.79492],[121.81729,45.87566],[121.8092,45.96155],[121.84504,46.02345],[122.04013,45.959],[122.09158,45.88204],[122.20083,45.85684],[122.26269,45.79492],[122.3731,45.85605],[122.36211,45.91743],[122.44593,45.91695],[122.49594,45.85828],[122.64074,45.77112],[122.67138,45.70062],[122.7419,45.7051],[122.79248,45.76617],[122.75231,45.83483],[122.82861,45.91233],[122.79306,46.07321],[123.04567,46.10005],[123.11244,46.13006],[123.1029,46.17195],[123.17863,46.24803],[123.01157,46.43493],[123.00723,46.57697],[123.18152,46.61364],[123.27921,46.61694],[123.27748,46.6616],[123.3665,46.67779],[123.60466,46.69005],[123.63183,46.72947],[123.62576,46.84771],[123.56275,46.82593],[123.48384,46.84473],[123.52228,46.92222],[123.42748,46.93443],[123.37459,46.83768],[123.23094,46.85993],[123.17111,46.74391],[122.99654,46.76164],[122.90723,46.80791],[122.89538,46.96022],[122.79739,46.93818],[122.77832,47.00288],[122.82196,47.06564],[122.61097,47.12988],[122.4627,47.27848],[122.41819,47.35038],[122.29939,47.30008],[122.2465,47.25346],[122.07944,47.18252],[121.92712,47.24149],[121.76006,47.28097],[121.67335,47.25035],[121.58809,47.17038],[121.55196,47.19591],[121.43606,47.18345],[121.38028,47.14234],[121.25512,47.11336],[121.17333,47.14125],[121.05512,47.14592],[120.97679,47.09621],[120.87649,47.14982],[120.82302,47.14561],[120.73805,47.21831],[120.62648,47.24195],[120.63313,47.30769],[120.73631,47.37939],[120.5785,47.50734],[120.59006,47.54832],[120.4733,47.55513],[120.23369,47.63051],[120.11894,47.60256],[120.01316,47.55482],[119.90766,47.56996],[119.77037,47.4386],[119.67181,47.4121],[119.61632,47.36093],[119.48336,47.33812],[119.56111,47.30116],[119.71603,47.19559],[119.8065,47.05487],[119.79494,47.01304],[119.85968,46.91706],[119.92876,46.90376],[119.93512,46.71282],[119.91171,46.66978],[119.95217,46.6042],[119.90737,46.53728],[119.94899,46.49362],[119.90101,46.40367],[119.83772,46.37554],[119.83569,46.23536],[119.87934,46.14434],[119.85535,46.10815],[119.80795,45.82094],[119.70043,45.7366],[119.68164,45.66958],[119.56545,45.65581],[119.79118,45.56416],[119.87616,45.54813],[119.90679,45.50576],[119.99871,45.48232],[120.02732,45.5951],[120.16577,45.59494],[120.49729,45.46337],[120.55943,45.41693],[120.55451,45.35757],[120.74325,45.26011],[120.82678,45.25367],[120.96783,45.18429],[120.97765,45.07328],[121.03344,44.99834],[121.2401,44.934],[121.40166,44.85141],[121.40918,44.79098],[121.53028,44.72039],[121.54849,44.66764],[121.6511,44.56329],[121.82943,44.41149],[121.88261,44.40217],[121.93435,44.34355],[122.16384,44.25536],[122.27136,44.25569]]]}},{"type":"Feature","id":"datav:152500","properties":{"boundaryId":"datav:152500","nodeId":"geo:cn-nm-xgo","parentNodeId":"geo:cn-nm","bounds":[111.15089,41.57142,119.95217,46.77498]},"geometry":{"type":"Polygon","coordinates":[[[114.80713,42.14952],[114.85627,42.10994],[114.86089,42.05487],[114.91696,41.98102],[114.92245,41.82521],[114.89615,41.76766],[114.89557,41.6365],[114.8606,41.60106],[115.08778,41.62281],[115.19501,41.60209],[115.20426,41.57142],[115.37768,41.60243],[115.34559,41.63564],[115.34704,41.71229],[115.42999,41.7287],[115.57422,41.80541],[115.65399,41.82896],[115.83724,41.93776],[115.91643,41.94508],[116.01673,41.77706],[116.09881,41.77655],[116.12309,41.86172],[116.19419,41.86189],[116.2335,41.9415],[116.32714,42.0057],[116.48264,41.97591],[116.56646,41.92872],[116.72745,41.95104],[116.87948,42.01846],[116.89076,42.09261],[116.85029,42.15631],[116.9185,42.22996],[116.88497,42.35331],[116.89365,42.38783],[116.90954,42.43805],[116.88584,42.53466],[116.80144,42.58308],[116.69826,42.59539],[116.66965,42.55592],[116.58814,42.59994],[116.67398,42.76142],[116.67427,42.88959],[116.63988,42.95249],[116.50085,43.01532],[116.35663,43.157],[116.37021,43.24349],[116.41414,43.25684],[116.43669,43.32869],[116.60577,43.41992],[116.62196,43.5052],[116.68121,43.517],[116.79017,43.4841],[116.83093,43.50703],[116.80462,43.56531],[116.85867,43.65752],[116.97226,43.67359],[117.05435,43.75338],[117.00116,43.78266],[116.99972,43.91249],[117.02198,43.97005],[116.96157,44.02492],[117.01128,44.05768],[117.12082,44.17952],[117.20638,44.22025],[117.45234,44.23518],[117.52287,44.22681],[117.68646,44.09602],[117.64397,44.04287],[117.69975,44.01718],[117.78993,44.01981],[117.92433,44.12694],[118.06393,44.10276],[118.11393,44.13088],[118.14284,44.2076],[118.25094,44.28111],[118.24631,44.32619],[118.40325,44.30767],[118.47869,44.34683],[118.48303,44.38891],[118.75038,44.4684],[118.96715,44.54223],[119.00097,44.65248],[118.92871,44.7173],[119.06571,44.71062],[119.14838,44.73178],[119.18219,44.777],[119.14924,44.82608],[119.06745,44.87236],[119.08132,44.93741],[119.22439,44.90984],[119.15329,44.99364],[119.19693,45.0325],[119.15907,45.10012],[119.21572,45.15313],[119.37006,45.10061],[119.36168,45.16572],[119.30763,45.19139],[119.33769,45.25238],[119.24809,45.30363],[119.31341,45.38557],[119.30445,45.46819],[119.49637,45.55037],[119.56545,45.65581],[119.68164,45.66958],[119.70043,45.7366],[119.80795,45.82094],[119.85535,46.10815],[119.87934,46.14434],[119.83569,46.23536],[119.83772,46.37554],[119.90101,46.40367],[119.94899,46.49362],[119.90737,46.53728],[119.95217,46.6042],[119.91171,46.66978],[119.81344,46.66836],[119.78367,46.62591],[119.67759,46.58468],[119.65678,46.62559],[119.43192,46.63865],[119.37411,46.60325],[119.26283,46.64887],[119.12323,46.64289],[119.01138,46.74563],[118.95097,46.72209],[118.91455,46.77498],[118.84518,46.77184],[118.78796,46.68706],[118.44661,46.7045],[118.31655,46.73951],[118.19284,46.68282],[118.12434,46.67826],[118.04659,46.63141],[117.9145,46.60797],[117.87086,46.54988],[117.7038,46.51679],[117.59599,46.60357],[117.41997,46.582],[117.44772,46.52814],[117.39222,46.46318],[117.37199,46.36021],[117.09741,46.35721],[116.82659,46.38044],[116.74566,46.3278],[116.58525,46.29236],[116.43958,46.13768],[116.41414,46.13403],[116.27165,45.9668],[116.24304,45.87614],[116.2887,45.83898],[116.28697,45.77511],[116.22309,45.74731],[116.17425,45.68862],[116.03551,45.6851],[115.93666,45.63291],[115.69966,45.45951],[115.36467,45.39232],[115.16784,45.39634],[114.97419,45.37704],[114.74499,45.4383],[114.55105,45.38766],[114.51954,45.28365],[114.45971,45.21334],[114.34728,45.11936],[114.19092,45.03671],[114.11692,44.95686],[114.06519,44.93125],[113.90738,44.91519],[113.862,44.86326],[113.79899,44.84946],[113.63106,44.74545],[113.50418,44.77748],[113.12902,44.79699],[112.93797,44.84021],[112.85068,44.84069],[112.71223,44.87933],[112.5998,44.9306],[112.54055,45.00109],[112.43881,45.0715],[112.39661,45.06454],[112.11365,45.07312],[112.00266,45.09074],[111.90352,45.05225],[111.7645,44.96934],[111.62461,44.7783],[111.56073,44.64694],[111.56998,44.57618],[111.47836,44.48883],[111.41593,44.35715],[111.42865,44.31947],[111.50668,44.29423],[111.55929,44.17131],[111.66305,44.06114],[111.77317,44.01059],[111.87028,43.94021],[111.95988,43.82316],[111.95092,43.69313],[111.79427,43.67193],[111.64397,43.54373],[111.56449,43.49025],[111.45668,43.49441],[111.35408,43.43606],[111.15089,43.38032],[111.21563,43.27685],[111.3798,43.18256],[111.5035,43.17872],[111.65842,43.02386],[111.75265,42.98768],[111.85843,42.8184],[112.02896,42.5846],[112.1807,42.53483],[112.39777,42.38766],[112.58968,42.34704],[112.65472,42.31606],[112.73796,42.1446],[112.85617,42.11708],[112.96485,41.99821],[113.04231,41.98595],[113.08653,41.93281],[113.25099,42.03122],[113.37238,42.14375],[113.57268,42.13186],[113.64465,42.10943],[113.70968,42.12982],[113.74321,42.08343],[113.91605,42.05011],[113.91316,41.98595],[113.95507,41.9507],[114.0623,41.9662],[114.06519,42.04398],[114.13224,42.11708],[114.22676,42.13492],[114.29121,42.19145],[114.3759,42.14969],[114.37705,42.10977],[114.47908,42.11419],[114.4655,42.17091],[114.57533,42.29776],[114.6866,42.26235],[114.75713,42.21741],[114.80713,42.14952]]]}},{"type":"Feature","id":"datav:152900","properties":{"boundaryId":"datav:152900","nodeId":"geo:cn-nm-alm","parentNodeId":"geo:cn-nm","bounds":[97.17276,37.40678,106.86687,42.79521]},"geometry":{"type":"Polygon","coordinates":[[[105.23384,41.75109],[105.00955,41.58324],[104.92313,41.65413],[104.68902,41.64523],[104.52427,41.66183],[104.53005,41.87485],[104.09564,41.80865],[103.86875,41.8025],[103.41844,41.88236],[103.02189,42.02816],[102.71205,42.15275],[102.54094,42.16226],[102.44903,42.14409],[102.0704,42.23217],[101.80362,42.50377],[101.58164,42.52521],[100.86282,42.67122],[100.32552,42.69008],[100.27262,42.63635],[99.96914,42.64781],[99.50756,42.56807],[98.96273,42.60686],[98.54653,42.6382],[98.19536,42.65337],[97.17276,42.79521],[97.37133,42.45698],[97.84707,41.65653],[97.61411,41.47728],[97.62943,41.44055],[97.97193,41.09797],[98.25027,40.93915],[98.33322,40.91908],[98.34421,40.56838],[98.62804,40.6779],[98.56994,40.74682],[98.6685,40.77284],[98.71561,40.66174],[98.8003,40.61029],[98.79105,40.70534],[98.98499,40.7829],[99.04164,40.6937],[99.10205,40.67633],[99.17315,40.74734],[99.17488,40.8583],[99.56594,40.84669],[99.67317,40.93292],[100.05701,40.908],[100.10816,40.87562],[100.23736,40.71679],[100.24256,40.61864],[100.16973,40.5414],[100.16973,40.27754],[100.0018,40.19693],[99.95584,40.15091],[99.92839,40.06489],[99.8333,40.01211],[99.75121,40.00685],[99.71393,39.9721],[99.52461,39.88815],[99.67259,39.88797],[99.82202,39.86002],[99.9044,39.78579],[100.04082,39.7571],[100.12782,39.70214],[100.25008,39.68504],[100.31424,39.60691],[100.32638,39.50908],[100.50067,39.48134],[100.49922,39.4005],[100.61744,39.3874],[100.7079,39.40457],[100.84201,39.40581],[100.84288,39.20022],[100.86427,39.10697],[100.83508,39.02606],[100.90184,39.02997],[100.96948,38.99669],[100.96919,38.94701],[101.11717,38.97515],[101.22874,39.02072],[101.19868,38.94327],[101.24203,38.86128],[101.33539,38.84683],[101.33134,38.77723],[101.41227,38.76419],[101.55765,38.71506],[101.60188,38.65517],[101.67905,38.69093],[101.77703,38.66053],[101.87385,38.734],[101.94149,38.80883],[102.07502,38.89159],[101.92617,39.00061],[101.8305,39.09346],[102.00825,39.12581],[102.28659,39.19258],[102.3522,39.23127],[102.45365,39.25522],[102.58343,39.18069],[102.94703,39.10679],[103.01322,39.10111],[103.13316,39.19276],[103.18808,39.21548],[103.34647,39.3325],[103.59532,39.38669],[103.8488,39.46118],[103.95575,39.45711],[104.09015,39.41979],[104.04766,39.29777],[104.17743,39.1521],[104.2072,39.08369],[104.19622,38.98815],[104.16789,38.94042],[104.04448,38.89498],[103.85979,38.64444],[103.41641,38.40504],[103.50775,38.28091],[103.53492,38.15675],[103.36872,38.089],[103.36815,37.98563],[103.40196,37.86187],[103.68319,37.77792],[103.93349,37.57416],[104.1835,37.40678],[104.4075,37.46461],[104.41964,37.51187],[104.80608,37.53966],[104.86648,37.56671],[105.02805,37.58105],[105.111,37.63386],[105.31477,37.70203],[105.59889,37.69931],[105.62201,37.77774],[105.76075,37.79982],[105.80872,37.87543],[105.79976,37.94012],[105.83994,38.00783],[105.78213,38.08233],[105.7752,38.18682],[105.84254,38.24116],[105.86595,38.29727],[105.82173,38.36824],[105.83676,38.4759],[105.8752,38.59182],[105.85295,38.64157],[105.90584,38.73132],[105.89861,38.78955],[106.00295,38.8759],[105.97318,38.91138],[106.06076,38.96856],[106.09833,39.0876],[106.14602,39.15317],[106.25094,39.13149],[106.29545,39.16791],[106.27985,39.26214],[106.40297,39.29174],[106.50645,39.27011],[106.60269,39.37536],[106.68073,39.35588],[106.75125,39.38156],[106.75299,39.43146],[106.62003,39.49954],[106.63969,39.57426],[106.76975,39.63391],[106.74981,39.85844],[106.72033,39.91556],[106.72929,40.04736],[106.82322,40.1087],[106.86687,40.16806],[106.74027,40.19641],[106.70559,40.26233],[106.76571,40.29483],[106.81369,40.36991],[106.60327,40.38684],[106.43274,40.34862],[106.3284,40.3467],[106.22926,40.4653],[106.20932,40.51633],[106.34459,40.51982],[106.37407,40.49195],[106.48101,40.49387],[106.47957,40.55515],[106.24718,40.62629],[106.18273,40.70464],[105.94428,40.73953],[105.8356,40.78204],[105.70438,40.81013],[105.39859,40.98395],[105.37922,41.05964],[105.31795,41.11333],[105.31708,41.20127],[105.248,41.31956],[105.20147,41.5428],[105.23384,41.75109]]]}}]}