{"type":"FeatureCollection","features":[{"type":"Feature","id":"datav:220100","properties":{"boundaryId":"datav:220100","nodeId":"geo:cn-jl-cgq","parentNodeId":"geo:cn-jl","bounds":[124.01571,43.16164,127.08895,45.2523]},"geometry":{"type":"MultiPolygon","coordinates":[[[[125.69798,43.26274],[125.78179,43.29278],[125.80066,43.31033],[125.81585,43.31574],[125.83231,43.30054],[125.85718,43.29496],[125.89153,43.30169],[125.91389,43.317],[125.94989,43.32356],[125.95783,43.33695],[125.97912,43.33641],[126.01889,43.35307],[126.01386,43.37127],[126.00099,43.37427],[125.9885,43.40327],[125.95783,43.39857],[125.93402,43.43514],[125.88273,43.46258],[125.8685,43.49148],[125.85273,43.50162],[125.86618,43.511],[125.86724,43.52358],[125.8565,43.53884],[125.87808,43.5622],[125.88611,43.59187],[125.89434,43.60401],[125.88582,43.61924],[125.88776,43.65084],[125.87886,43.6709],[125.84876,43.70741],[125.83018,43.73869],[125.83289,43.74765],[125.81866,43.76589],[125.81605,43.78341],[125.80173,43.80321],[125.81053,43.83184],[125.82524,43.86376],[125.86047,43.86051],[125.89105,43.86387],[125.89986,43.85384],[125.91737,43.86164],[125.95018,43.84962],[125.98463,43.85623],[125.98657,43.87042],[126.04222,43.88207],[126.04512,43.92094],[126.02131,43.97915],[126.00089,43.99575],[126.00709,44.02742],[126.0367,44.05032],[126.08973,44.10323],[126.10677,44.12605],[126.13328,44.11359],[126.13338,44.12972],[126.16241,44.13969],[126.15767,44.15032],[126.17712,44.16428],[126.20964,44.15716],[126.22522,44.17646],[126.26354,44.17899],[126.27361,44.16924],[126.29664,44.1923],[126.33167,44.18735],[126.34948,44.17479],[126.37629,44.17436],[126.3909,44.18217],[126.41374,44.17991],[126.42535,44.17107],[126.46213,44.17765],[126.46794,44.20308],[126.48071,44.21557],[126.50074,44.22155],[126.50365,44.23415],[126.47094,44.24304],[126.4631,44.25751],[126.48981,44.30561],[126.47055,44.31566],[126.47219,44.33631],[126.45516,44.3542],[126.49358,44.37999],[126.47965,44.39261],[126.48478,44.41644],[126.46765,44.42465],[126.43416,44.41832],[126.42477,44.42557],[126.44103,44.43732],[126.44074,44.44762],[126.42226,44.46548],[126.42429,44.48843],[126.44597,44.50279],[126.42226,44.51356],[126.41316,44.52851],[126.43871,44.54105],[126.45255,44.55572],[126.46445,44.54629],[126.50781,44.54324],[126.51274,44.53906],[126.55465,44.56311],[126.62771,44.57494],[126.63042,44.56059],[126.6552,44.54544],[126.70368,44.53478],[126.7093,44.53199],[126.7122,44.53285],[126.72052,44.53548],[126.73872,44.52165],[126.75962,44.51887],[126.77017,44.52562],[126.79775,44.52289],[126.81169,44.53076],[126.85649,44.53655],[126.87846,44.51222],[126.89985,44.51485],[126.92027,44.53285],[126.94901,44.52471],[126.95927,44.53012],[126.99121,44.52776],[127.01037,44.55208],[127.05044,44.56696],[127.04144,44.5911],[127.02866,44.59731],[127.04144,44.61175],[127.04473,44.6501],[127.03069,44.67628],[127.04114,44.71223],[127.0364,44.72243],[126.99798,44.76449],[126.98424,44.82496],[127.00311,44.85475],[127.00118,44.87003],[127.01114,44.89043],[127.04589,44.90714],[127.0726,44.90693],[127.08895,44.92997],[127.08644,44.95805],[127.05721,44.9918],[127.03805,44.99653],[127.03592,45.01651],[127.0184,45.02437],[127.00911,45.04375],[126.98743,45.06632],[126.96856,45.07449],[126.97282,45.09751],[126.9643,45.1331],[126.94408,45.13882],[126.88833,45.14253],[126.87295,45.13771],[126.8564,45.14555],[126.8323,45.14476],[126.81285,45.13659],[126.78817,45.1437],[126.78701,45.15901],[126.75856,45.17761],[126.7393,45.17575],[126.73223,45.18719],[126.68578,45.18767],[126.64988,45.21123],[126.64484,45.22521],[126.62249,45.23595],[126.57468,45.2523],[126.55745,45.25114],[126.54003,45.23886],[126.51284,45.23987],[126.46048,45.23457],[126.43987,45.22399],[126.43213,45.23468],[126.39893,45.22018],[126.36603,45.19853],[126.35984,45.18804],[126.33826,45.19244],[126.32355,45.17957],[126.29345,45.1802],[126.25851,45.1632],[126.26248,45.15223],[126.23567,45.1402],[126.22541,45.15387],[126.18254,45.14492],[126.16986,45.13463],[126.19638,45.10324],[126.17441,45.08892],[126.18138,45.07189],[126.17374,45.04864],[126.19019,45.03202],[126.18815,45.00089],[126.14461,44.9816],[126.14683,44.96268],[126.17054,44.95002],[126.18699,44.93316],[126.19251,44.9173],[126.16435,44.90214],[126.14519,44.90267],[126.14741,44.92646],[126.10812,44.92427],[126.09815,44.89197],[126.06089,44.90272],[126.05044,44.8621],[126.05596,44.84777],[126.03776,44.80401],[126.04967,44.78679],[126.00873,44.78343],[125.95144,44.76097],[125.92066,44.77143],[125.90663,44.80796],[125.88089,44.81483],[125.87344,44.83669],[125.82621,44.84095],[125.78179,44.86364],[125.78731,44.87573],[125.75198,44.89335],[125.73814,44.92374],[125.71995,44.93901],[125.66566,44.93571],[125.64108,44.93034],[125.64175,44.918],[125.61291,44.90075],[125.60062,44.88569],[125.5772,44.89373],[125.53133,44.8843],[125.50559,44.88388],[125.48091,44.87254],[125.4693,44.88414],[125.44975,44.88468],[125.43688,44.89719],[125.42101,44.89059],[125.41259,44.87456],[125.36952,44.88452],[125.34029,44.87972],[125.32975,44.86737],[125.2831,44.85096],[125.24719,44.86007],[125.2319,44.84505],[125.25349,44.83216],[125.27478,44.83226],[125.3131,44.81425],[125.26249,44.79601],[125.22929,44.80364],[125.172,44.78652],[125.15652,44.79025],[125.13339,44.78332],[125.12535,44.76999],[125.10735,44.76534],[125.0699,44.77681],[125.04232,44.77079],[125.02635,44.78801],[124.99499,44.7599],[124.95851,44.75489],[124.89715,44.72606],[124.86889,44.73306],[124.80725,44.70412],[124.8297,44.68328],[124.80357,44.66383],[124.7787,44.66907],[124.74676,44.64967],[124.7217,44.66015],[124.63431,44.64069],[124.61815,44.62951],[124.6284,44.62026],[124.6016,44.60154],[124.58215,44.59362],[124.55243,44.56937],[124.56966,44.5532],[124.57411,44.52942],[124.56153,44.52942],[124.54547,44.51437],[124.5926,44.49127],[124.58137,44.47669],[124.60315,44.47122],[124.64331,44.44864],[124.63508,44.43437],[124.61253,44.43796],[124.58563,44.42841],[124.56898,44.43619],[124.55079,44.42406],[124.57353,44.39422],[124.59986,44.3896],[124.62482,44.35925],[124.60711,44.3376],[124.6285,44.30593],[124.62037,44.28323],[124.60402,44.27221],[124.60015,44.25326],[124.61728,44.21159],[124.63634,44.20394],[124.66934,44.20949],[124.68792,44.20055],[124.69847,44.20685],[124.71715,44.19241],[124.76283,44.21391],[124.72973,44.17625],[124.73612,44.15916],[124.72179,44.15102],[124.68676,44.14234],[124.65376,44.12756],[124.51643,44.11661],[124.50579,44.10059],[124.48624,44.0913],[124.41956,44.03828],[124.39759,44.02818],[124.3523,44.01769],[124.32636,44.00862],[124.30807,43.99099],[124.25359,43.99921],[124.23123,43.99013],[124.21256,43.99824],[124.19126,43.98829],[124.16475,43.9977],[124.15759,44.0137],[124.13794,44.00986],[124.0761,44.02105],[124.06226,44.0091],[124.01571,44.00451],[124.02887,43.94995],[124.04039,43.92717],[124.07842,43.88006],[124.08529,43.86284],[124.07765,43.8436],[124.06584,43.83417],[124.07436,43.82007],[124.05723,43.81048],[124.04755,43.7909],[124.06323,43.77115],[124.07078,43.75194],[124.08326,43.74103],[124.08481,43.71589],[124.10504,43.70502],[124.14713,43.70356],[124.17278,43.70719],[124.19417,43.71654],[124.19939,43.72979],[124.22252,43.75872],[124.30575,43.7635],[124.36227,43.7712],[124.4305,43.75628],[124.46582,43.76084],[124.4963,43.7483],[124.52427,43.75525],[124.55069,43.74065],[124.55931,43.72751],[124.57373,43.72354],[124.59898,43.69062],[124.62676,43.6816],[124.66615,43.65986],[124.68154,43.628],[124.68086,43.59242],[124.69383,43.57641],[124.6945,43.55256],[124.67757,43.51634],[124.68241,43.49753],[124.71725,43.43285],[124.7307,43.42281],[124.74338,43.38994],[124.7576,43.38323],[124.75731,43.36684],[124.77502,43.32602],[124.75615,43.29617],[124.76002,43.28074],[124.77483,43.27286],[124.80134,43.24298],[124.77599,43.22886],[124.78431,43.20131],[124.79931,43.19567],[124.84054,43.16164],[124.85883,43.17693],[124.84402,43.18795],[124.82941,43.21227],[124.83725,43.23236],[124.86483,43.26586],[124.86309,43.28545],[124.89231,43.2931],[124.9287,43.31799],[124.91922,43.34805],[124.8838,43.35897],[124.88206,43.38285],[124.86038,43.40671],[124.8716,43.42063],[124.89551,43.42144],[124.91612,43.43973],[124.91496,43.46062],[124.89367,43.48118],[124.9168,43.49737],[124.95348,43.5062],[124.98677,43.51819],[125.00593,43.54102],[124.99567,43.55202],[125.01551,43.55823],[125.03409,43.58006],[125.05354,43.59171],[125.10822,43.61108],[125.23519,43.64225],[125.29007,43.64981],[125.30226,43.61521],[125.29733,43.59176],[125.28194,43.57794],[125.27758,43.56394],[125.28174,43.54309],[125.25881,43.53355],[125.27439,43.49606],[125.24129,43.48009],[125.24768,43.45233],[125.2771,43.44147],[125.2922,43.45206],[125.31813,43.45364],[125.33468,43.46924],[125.35868,43.48025],[125.38046,43.4736],[125.3851,43.4851],[125.36168,43.51541],[125.37088,43.52598],[125.38955,43.53001],[125.37436,43.55251],[125.3942,43.55458],[125.38655,43.57968],[125.40465,43.58675],[125.42633,43.58703],[125.45304,43.59976],[125.45304,43.57614],[125.45991,43.56051],[125.44791,43.53034],[125.45875,43.52277],[125.46727,43.49388],[125.49581,43.47365],[125.48885,43.45664],[125.50249,43.45293],[125.51449,43.43547],[125.49949,43.42838],[125.51517,43.40949],[125.52969,43.41238],[125.58262,43.40534],[125.57836,43.37875],[125.54159,43.36143],[125.55417,43.34553],[125.56995,43.33865],[125.59966,43.3135],[125.62191,43.30596],[125.62879,43.29699],[125.67369,43.28074],[125.69798,43.26274]]],[[[126.71539,44.53333],[126.71907,44.53162],[126.72023,44.53398],[126.71539,44.53333]]],[[[126.71907,44.53162],[126.71539,44.53333],[126.71278,44.53242],[126.71907,44.53162]]]]}},{"type":"Feature","id":"datav:220200","properties":{"boundaryId":"datav:220200","nodeId":"geo:cn-jl-jls","parentNodeId":"geo:cn-jl","bounds":[125.64785,42.56149,127.91746,44.64812]},"geometry":{"type":"MultiPolygon","coordinates":[[[[126.75043,42.67231],[126.77423,42.67154],[126.78449,42.69131],[126.81246,42.70921],[126.80046,42.73311],[126.82214,42.77747],[126.85379,42.78464],[126.87924,42.78023],[126.89927,42.78701],[126.89733,42.80262],[126.94737,42.80565],[126.95027,42.81149],[126.99005,42.80488],[126.99953,42.79374],[127.01685,42.789],[127.04134,42.80653],[127.07269,42.81315],[127.09476,42.79953],[127.12505,42.80488],[127.16008,42.80405],[127.18099,42.82522],[127.19376,42.82356],[127.19289,42.80333],[127.20247,42.78481],[127.20073,42.76495],[127.22676,42.73824],[127.23499,42.72041],[127.25357,42.70898],[127.24699,42.67833],[127.22521,42.65607],[127.21921,42.62771],[127.20421,42.60835],[127.24021,42.59945],[127.28096,42.61742],[127.28793,42.63202],[127.31957,42.64031],[127.33883,42.60564],[127.35248,42.60199],[127.35199,42.58794],[127.40599,42.5735],[127.43241,42.57345],[127.45816,42.56149],[127.46803,42.56681],[127.46754,42.59779],[127.49754,42.60222],[127.48535,42.61449],[127.48661,42.63103],[127.51012,42.63379],[127.55222,42.64833],[127.57313,42.66861],[127.58861,42.66971],[127.59897,42.6933],[127.62084,42.71136],[127.64339,42.71395],[127.64135,42.73223],[127.65693,42.76092],[127.70561,42.77444],[127.71761,42.81728],[127.73832,42.8218],[127.75913,42.81463],[127.80055,42.81265],[127.80936,42.79975],[127.83762,42.78834],[127.85252,42.81111],[127.8352,42.81888],[127.8292,42.83425],[127.81546,42.84087],[127.81904,42.87579],[127.79474,42.87419],[127.77403,42.89545],[127.7541,42.90183],[127.74432,42.89027],[127.71161,42.89132],[127.69613,42.90035],[127.67484,42.90271],[127.64097,42.9217],[127.63632,42.93777],[127.60845,42.9546],[127.5859,42.95592],[127.55793,42.97918],[127.53122,42.98445],[127.49725,43.02336],[127.47954,43.02199],[127.46996,43.03803],[127.48477,43.06087],[127.50112,43.06559],[127.4929,43.09155],[127.50345,43.12057],[127.48003,43.13977],[127.51061,43.14087],[127.53219,43.14624],[127.56151,43.16899],[127.5679,43.18663],[127.61193,43.20624],[127.63419,43.22382],[127.63622,43.23669],[127.65723,43.26017],[127.65945,43.27352],[127.64348,43.29272],[127.61842,43.30016],[127.6339,43.32329],[127.62519,43.34122],[127.68219,43.35433],[127.679,43.36422],[127.69497,43.37804],[127.70348,43.39502],[127.71016,43.43023],[127.69632,43.43727],[127.70668,43.46466],[127.69816,43.48423],[127.71984,43.5104],[127.745,43.50369],[127.76987,43.53197],[127.77084,43.54984],[127.79116,43.55458],[127.79794,43.57217],[127.82939,43.59856],[127.84091,43.59514],[127.86568,43.6249],[127.89655,43.62501],[127.89946,43.64562],[127.91301,43.65187],[127.90565,43.67008],[127.91746,43.71637],[127.91591,43.7306],[127.89346,43.72973],[127.85697,43.747],[127.85726,43.75487],[127.83936,43.77923],[127.84052,43.79502],[127.80781,43.82794],[127.81652,43.85357],[127.83752,43.86717],[127.85446,43.85764],[127.86104,43.88218],[127.85126,43.89615],[127.79523,43.91677],[127.77587,43.93674],[127.78613,43.95611],[127.77984,43.97169],[127.78894,44.00267],[127.80781,44.01791],[127.82097,44.02045],[127.87013,44.05578],[127.865,44.06226],[127.84575,44.08213],[127.80829,44.08645],[127.78352,44.07198],[127.72923,44.09902],[127.73484,44.12999],[127.72052,44.16282],[127.724,44.19661],[127.71239,44.19904],[127.69923,44.17614],[127.68113,44.16687],[127.64087,44.19311],[127.62664,44.18789],[127.59055,44.22785],[127.60497,44.246],[127.62316,44.25832],[127.62335,44.27759],[127.60922,44.29475],[127.58551,44.30636],[127.55638,44.34055],[127.53432,44.35957],[127.52164,44.3606],[127.52048,44.38068],[127.50693,44.39304],[127.48787,44.39749],[127.48554,44.40866],[127.50277,44.42315],[127.50829,44.43721],[127.50064,44.45025],[127.47896,44.45861],[127.46464,44.48671],[127.47548,44.4985],[127.46561,44.5163],[127.48419,44.5283],[127.50896,44.53033],[127.53693,44.52262],[127.5468,44.53853],[127.57022,44.55074],[127.55648,44.57601],[127.51322,44.58254],[127.50674,44.59453],[127.47412,44.60897],[127.43541,44.61384],[127.39302,44.63229],[127.32189,44.63555],[127.27622,44.64047],[127.26305,44.61293],[127.21399,44.6255],[127.21167,44.64812],[127.18176,44.64363],[127.13899,44.60763],[127.11789,44.61534],[127.09476,44.61582],[127.08944,44.59399],[127.05044,44.56696],[127.01037,44.55208],[126.99121,44.52776],[126.95927,44.53012],[126.94901,44.52471],[126.92027,44.53285],[126.89985,44.51485],[126.87846,44.51222],[126.85649,44.53655],[126.81169,44.53076],[126.79775,44.52289],[126.77017,44.52562],[126.75962,44.51887],[126.73872,44.52165],[126.72052,44.53548],[126.72023,44.53398],[126.71907,44.53162],[126.71278,44.53242],[126.7122,44.53285],[126.7093,44.53199],[126.70368,44.53478],[126.6552,44.54544],[126.63042,44.56059],[126.62771,44.57494],[126.55465,44.56311],[126.51274,44.53906],[126.50781,44.54324],[126.46445,44.54629],[126.45255,44.55572],[126.43871,44.54105],[126.41316,44.52851],[126.42226,44.51356],[126.44597,44.50279],[126.42429,44.48843],[126.42226,44.46548],[126.44074,44.44762],[126.44103,44.43732],[126.42477,44.42557],[126.43416,44.41832],[126.46765,44.42465],[126.48478,44.41644],[126.47965,44.39261],[126.49358,44.37999],[126.45516,44.3542],[126.47219,44.33631],[126.47055,44.31566],[126.48981,44.30561],[126.4631,44.25751],[126.47094,44.24304],[126.50365,44.23415],[126.50074,44.22155],[126.48071,44.21557],[126.46794,44.20308],[126.46213,44.17765],[126.42535,44.17107],[126.41374,44.17991],[126.3909,44.18217],[126.37629,44.17436],[126.34948,44.17479],[126.33167,44.18735],[126.29664,44.1923],[126.27361,44.16924],[126.26354,44.17899],[126.22522,44.17646],[126.20964,44.15716],[126.17712,44.16428],[126.15767,44.15032],[126.16241,44.13969],[126.13338,44.12972],[126.13328,44.11359],[126.10677,44.12605],[126.08973,44.10323],[126.0367,44.05032],[126.00709,44.02742],[126.00089,43.99575],[126.02131,43.97915],[126.04512,43.92094],[126.04222,43.88207],[125.98657,43.87042],[125.98463,43.85623],[125.95018,43.84962],[125.91737,43.86164],[125.89986,43.85384],[125.89105,43.86387],[125.86047,43.86051],[125.82524,43.86376],[125.81053,43.83184],[125.80173,43.80321],[125.81605,43.78341],[125.81866,43.76589],[125.83289,43.74765],[125.83018,43.73869],[125.84876,43.70741],[125.87886,43.6709],[125.88776,43.65084],[125.88582,43.61924],[125.89434,43.60401],[125.88611,43.59187],[125.87808,43.5622],[125.8565,43.53884],[125.86724,43.52358],[125.86618,43.511],[125.85273,43.50162],[125.8685,43.49148],[125.88273,43.46258],[125.93402,43.43514],[125.95783,43.39857],[125.9885,43.40327],[126.00099,43.37427],[126.01386,43.37127],[126.01889,43.35307],[125.97912,43.33641],[125.95783,43.33695],[125.94989,43.32356],[125.91389,43.317],[125.89153,43.30169],[125.85718,43.29496],[125.83231,43.30054],[125.81585,43.31574],[125.80066,43.31033],[125.78179,43.29278],[125.69798,43.26274],[125.64785,43.22278],[125.65521,43.20022],[125.66653,43.19983],[125.68346,43.17858],[125.68075,43.16948],[125.69876,43.15051],[125.71337,43.12557],[125.72527,43.12337],[125.7606,43.12913],[125.77618,43.10286],[125.7876,43.09688],[125.74976,43.08316],[125.7334,43.06482],[125.70398,43.05604],[125.65985,43.0584],[125.67456,43.04451],[125.70776,43.03336],[125.72624,43.02292],[125.73679,43.00616],[125.77231,43.02012],[125.80966,43.00583],[125.83173,42.98225],[125.83444,42.96675],[125.8655,42.94756],[125.8415,42.92566],[125.85776,42.92407],[125.90692,42.90524],[125.9196,42.85089],[125.95134,42.82285],[125.98057,42.81315],[125.99431,42.81618],[126.00757,42.79639],[126.02934,42.78861],[126.08993,42.78922],[126.09912,42.7831],[126.14915,42.79209],[126.16667,42.78497],[126.19503,42.79076],[126.21728,42.78607],[126.22764,42.77372],[126.26103,42.78414],[126.27012,42.79446],[126.29964,42.80014],[126.31213,42.81497],[126.32596,42.81519],[126.355,42.80422],[126.36603,42.81381],[126.38403,42.81541],[126.39468,42.80499],[126.38722,42.77962],[126.39816,42.76136],[126.40039,42.7378],[126.39013,42.73184],[126.38287,42.70876],[126.388,42.69755],[126.43532,42.67496],[126.48468,42.68463],[126.50713,42.68573],[126.54187,42.6685],[126.56326,42.67082],[126.56742,42.68607],[126.59665,42.69656],[126.64872,42.72941],[126.68288,42.71694],[126.70088,42.70611],[126.73446,42.69573],[126.75043,42.67231]]],[[[126.72023,44.53398],[126.72052,44.53548],[126.7122,44.53285],[126.71278,44.53242],[126.71539,44.53333],[126.72023,44.53398]]]]}},{"type":"Feature","id":"datav:220300","properties":{"boundaryId":"datav:220300","nodeId":"geo:cn-jl-sps","parentNodeId":"geo:cn-jl","bounds":[123.3045,42.82665,125.7876,44.10987]},"geometry":{"type":"Polygon","coordinates":[[[124.01571,44.00451],[123.95174,43.99862],[123.85758,43.99986],[123.81858,43.98624],[123.76864,44.00364],[123.77358,44.02288],[123.75674,44.04093],[123.73264,44.03952],[123.7187,44.06291],[123.69557,44.08342],[123.68319,44.10987],[123.66354,44.10782],[123.66044,44.09254],[123.63567,44.07813],[123.58989,44.08833],[123.5718,44.08796],[123.54799,44.07792],[123.4785,44.08364],[123.44966,44.07689],[123.4095,44.077],[123.39924,44.06663],[123.35869,44.075],[123.3285,44.07095],[123.32627,44.04568],[123.33237,44.02834],[123.36576,44.01397],[123.36982,44.00472],[123.40089,43.97926],[123.37495,43.9659],[123.3825,43.95211],[123.39702,43.95476],[123.41512,43.92879],[123.42828,43.92738],[123.43999,43.89788],[123.46825,43.85308],[123.46205,43.82262],[123.47396,43.81601],[123.48228,43.79475],[123.49244,43.79269],[123.49825,43.77115],[123.48557,43.76334],[123.48267,43.73777],[123.49902,43.73038],[123.5208,43.70676],[123.51896,43.6815],[123.53725,43.6497],[123.53599,43.6317],[123.5116,43.62604],[123.51044,43.59225],[123.47396,43.59024],[123.42915,43.60384],[123.42112,43.59824],[123.43399,43.5756],[123.44666,43.58093],[123.46089,43.56857],[123.45247,43.5457],[123.40321,43.55883],[123.35666,43.5677],[123.3045,43.55071],[123.30614,43.53541],[123.32985,43.51906],[123.31602,43.49203],[123.33537,43.48085],[123.3645,43.48336],[123.37582,43.47654],[123.38947,43.44938],[123.41395,43.42592],[123.41986,43.41009],[123.4427,43.42057],[123.44202,43.43765],[123.48702,43.44551],[123.51963,43.40245],[123.53251,43.40152],[123.54509,43.41506],[123.58409,43.37727],[123.60857,43.3663],[123.7037,43.37067],[123.69857,43.38252],[123.7099,43.4167],[123.73438,43.42723],[123.75199,43.45473],[123.74629,43.4712],[123.77135,43.48401],[123.80454,43.48243],[123.82593,43.47153],[123.84926,43.47011],[123.87229,43.45135],[123.85564,43.43678],[123.84974,43.41566],[123.8659,43.39562],[123.89232,43.39011],[123.90142,43.37919],[123.89648,43.36105],[123.923,43.36045],[123.96423,43.34083],[123.99326,43.30814],[124.03362,43.28113],[124.06604,43.29267],[124.09826,43.29294],[124.11723,43.2773],[124.11442,43.24731],[124.13291,43.2553],[124.17839,43.24222],[124.20017,43.24583],[124.21652,43.25612],[124.22978,43.23483],[124.2532,43.23735],[124.27633,43.2334],[124.28765,43.2069],[124.27381,43.17874],[124.28398,43.16603],[124.32859,43.14355],[124.34059,43.12864],[124.36585,43.1214],[124.39682,43.09254],[124.42595,43.0763],[124.36982,43.0255],[124.33343,42.99737],[124.36082,42.97588],[124.38443,42.97071],[124.41521,42.9767],[124.4423,42.95867],[124.44211,42.9414],[124.43195,42.93083],[124.38104,42.91284],[124.36633,42.90249],[124.37175,42.88097],[124.4155,42.87926],[124.44666,42.86516],[124.45469,42.85249],[124.45179,42.82665],[124.47259,42.82753],[124.4663,42.8461],[124.48014,42.85855],[124.51469,42.87364],[124.53124,42.87205],[124.54179,42.88394],[124.56318,42.889],[124.60276,42.92214],[124.60818,42.93777],[124.63208,42.94987],[124.63528,42.97302],[124.65937,42.97291],[124.66073,42.98412],[124.67776,43.0027],[124.67437,43.02655],[124.68618,43.05044],[124.71821,43.06987],[124.75489,43.07383],[124.75857,43.08628],[124.77822,43.09825],[124.78654,43.11778],[124.80793,43.1175],[124.84189,43.12699],[124.85835,43.11953],[124.89135,43.13291],[124.95057,43.16877],[124.96867,43.17666],[124.97787,43.196],[125.004,43.19605],[125.02461,43.21429],[125.04338,43.22229],[125.06129,43.2138],[125.12535,43.22114],[125.15584,43.22744],[125.20055,43.22897],[125.20994,43.21276],[125.27003,43.15506],[125.31542,43.13456],[125.33894,43.12803],[125.36594,43.11087],[125.38839,43.10774],[125.39023,43.12085],[125.40368,43.13588],[125.40001,43.14827],[125.36962,43.14997],[125.35742,43.16038],[125.37029,43.18274],[125.37465,43.20471],[125.3672,43.21878],[125.40968,43.21993],[125.42333,43.23401],[125.44859,43.22393],[125.46562,43.20378],[125.48023,43.20148],[125.49165,43.18148],[125.48014,43.16318],[125.48439,43.12908],[125.49581,43.10033],[125.55504,43.09364],[125.58243,43.07289],[125.61079,43.06718],[125.63362,43.07048],[125.65985,43.0584],[125.70398,43.05604],[125.7334,43.06482],[125.74976,43.08316],[125.7876,43.09688],[125.77618,43.10286],[125.7606,43.12913],[125.72527,43.12337],[125.71337,43.12557],[125.69876,43.15051],[125.68075,43.16948],[125.68346,43.17858],[125.66653,43.19983],[125.65521,43.20022],[125.64785,43.22278],[125.69798,43.26274],[125.67369,43.28074],[125.62879,43.29699],[125.62191,43.30596],[125.59966,43.3135],[125.56995,43.33865],[125.55417,43.34553],[125.54159,43.36143],[125.57836,43.37875],[125.58262,43.40534],[125.52969,43.41238],[125.51517,43.40949],[125.49949,43.42838],[125.51449,43.43547],[125.50249,43.45293],[125.48885,43.45664],[125.49581,43.47365],[125.46727,43.49388],[125.45875,43.52277],[125.44791,43.53034],[125.45991,43.56051],[125.45304,43.57614],[125.45304,43.59976],[125.42633,43.58703],[125.40465,43.58675],[125.38655,43.57968],[125.3942,43.55458],[125.37436,43.55251],[125.38955,43.53001],[125.37088,43.52598],[125.36168,43.51541],[125.3851,43.4851],[125.38046,43.4736],[125.35868,43.48025],[125.33468,43.46924],[125.31813,43.45364],[125.2922,43.45206],[125.2771,43.44147],[125.24768,43.45233],[125.24129,43.48009],[125.27439,43.49606],[125.25881,43.53355],[125.28174,43.54309],[125.27758,43.56394],[125.28194,43.57794],[125.29733,43.59176],[125.30226,43.61521],[125.29007,43.64981],[125.23519,43.64225],[125.10822,43.61108],[125.05354,43.59171],[125.03409,43.58006],[125.01551,43.55823],[124.99567,43.55202],[125.00593,43.54102],[124.98677,43.51819],[124.95348,43.5062],[124.9168,43.49737],[124.89367,43.48118],[124.91496,43.46062],[124.91612,43.43973],[124.89551,43.42144],[124.8716,43.42063],[124.86038,43.40671],[124.88206,43.38285],[124.8838,43.35897],[124.91922,43.34805],[124.9287,43.31799],[124.89231,43.2931],[124.86309,43.28545],[124.86483,43.26586],[124.83725,43.23236],[124.82941,43.21227],[124.84402,43.18795],[124.85883,43.17693],[124.84054,43.16164],[124.79931,43.19567],[124.78431,43.20131],[124.77599,43.22886],[124.80134,43.24298],[124.77483,43.27286],[124.76002,43.28074],[124.75615,43.29617],[124.77502,43.32602],[124.75731,43.36684],[124.7576,43.38323],[124.74338,43.38994],[124.7307,43.42281],[124.71725,43.43285],[124.68241,43.49753],[124.67757,43.51634],[124.6945,43.55256],[124.69383,43.57641],[124.68086,43.59242],[124.68154,43.628],[124.66615,43.65986],[124.62676,43.6816],[124.59898,43.69062],[124.57373,43.72354],[124.55931,43.72751],[124.55069,43.74065],[124.52427,43.75525],[124.4963,43.7483],[124.46582,43.76084],[124.4305,43.75628],[124.36227,43.7712],[124.30575,43.7635],[124.22252,43.75872],[124.19939,43.72979],[124.19417,43.71654],[124.17278,43.70719],[124.14713,43.70356],[124.10504,43.70502],[124.08481,43.71589],[124.08326,43.74103],[124.07078,43.75194],[124.06323,43.77115],[124.04755,43.7909],[124.05723,43.81048],[124.07436,43.82007],[124.06584,43.83417],[124.07765,43.8436],[124.08529,43.86284],[124.07842,43.88006],[124.04039,43.92717],[124.02887,43.94995],[124.01571,44.00451]]]}},{"type":"Feature","id":"datav:220400","properties":{"boundaryId":"datav:220400","nodeId":"geo:cn-jl-lyh","parentNodeId":"geo:cn-jl","bounds":[124.84083,42.30048,125.83598,43.23401]},"geometry":{"type":"Polygon","coordinates":[[[124.89135,43.13291],[124.89377,43.11794],[124.88186,43.11087],[124.88748,43.07377],[124.85748,43.04006],[124.84083,43.02671],[124.85602,43.01391],[124.86057,42.99242],[124.86957,42.98808],[124.86667,42.91856],[124.84925,42.88157],[124.8596,42.83205],[124.85709,42.82384],[124.87393,42.79016],[124.89773,42.788],[124.93006,42.81954],[124.94961,42.80631],[124.97506,42.80267],[124.9798,42.78172],[124.99267,42.76583],[124.99645,42.74531],[124.98609,42.72698],[124.96809,42.72262],[124.98909,42.69706],[124.98464,42.67701],[125.01435,42.66612],[125.01967,42.65363],[125.01106,42.63202],[125.03845,42.61543],[125.05509,42.62406],[125.08626,42.62577],[125.09961,42.61322],[125.08674,42.58601],[125.0819,42.5636],[125.06709,42.53603],[125.09071,42.51554],[125.08529,42.50086],[125.10503,42.49083],[125.10764,42.47952],[125.13648,42.47127],[125.14964,42.4594],[125.14006,42.44599],[125.1809,42.43279],[125.18661,42.41515],[125.19755,42.40783],[125.18594,42.3914],[125.20345,42.36687],[125.16755,42.35198],[125.17713,42.34604],[125.18187,42.30826],[125.21274,42.30048],[125.24216,42.31265],[125.26287,42.3131],[125.28562,42.3151],[125.298,42.32516],[125.31649,42.32804],[125.33536,42.34049],[125.34271,42.35876],[125.36497,42.36509],[125.40639,42.38446],[125.43949,42.38202],[125.45323,42.39207],[125.47927,42.39928],[125.51759,42.4207],[125.56288,42.43506],[125.57382,42.45175],[125.58417,42.48291],[125.58582,42.50762],[125.60014,42.5182],[125.61649,42.51853],[125.64708,42.55158],[125.66566,42.54012],[125.68985,42.57145],[125.70137,42.57367],[125.70872,42.59436],[125.70156,42.60957],[125.66498,42.6407],[125.65879,42.69187],[125.67388,42.71611],[125.64427,42.73294],[125.68637,42.73427],[125.70727,42.74216],[125.75643,42.74244],[125.8115,42.7527],[125.83598,42.7687],[125.81092,42.79049],[125.75885,42.8202],[125.7573,42.83965],[125.74163,42.84704],[125.73611,42.87425],[125.7454,42.93375],[125.75982,42.94376],[125.7516,42.9723],[125.73659,42.99105],[125.73679,43.00616],[125.72624,43.02292],[125.70776,43.03336],[125.67456,43.04451],[125.65985,43.0584],[125.63362,43.07048],[125.61079,43.06718],[125.58243,43.07289],[125.55504,43.09364],[125.49581,43.10033],[125.48439,43.12908],[125.48014,43.16318],[125.49165,43.18148],[125.48023,43.20148],[125.46562,43.20378],[125.44859,43.22393],[125.42333,43.23401],[125.40968,43.21993],[125.3672,43.21878],[125.37465,43.20471],[125.37029,43.18274],[125.35742,43.16038],[125.36962,43.14997],[125.40001,43.14827],[125.40368,43.13588],[125.39023,43.12085],[125.38839,43.10774],[125.36594,43.11087],[125.33894,43.12803],[125.31542,43.13456],[125.27003,43.15506],[125.20994,43.21276],[125.20055,43.22897],[125.15584,43.22744],[125.12535,43.22114],[125.06129,43.2138],[125.04338,43.22229],[125.02461,43.21429],[125.004,43.19605],[124.97787,43.196],[124.96867,43.17666],[124.95057,43.16877],[124.89135,43.13291]]]}},{"type":"Feature","id":"datav:220500","properties":{"boundaryId":"datav:220500","nodeId":"geo:cn-jl-ths","parentNodeId":"geo:cn-jl","bounds":[125.26287,40.86635,126.75043,43.02012]},"geometry":{"type":"Polygon","coordinates":[[[125.26287,42.3131],[125.27865,42.2967],[125.29926,42.28948],[125.27594,42.26674],[125.289,42.24744],[125.27565,42.23136],[125.31262,42.22007],[125.31291,42.19736],[125.30594,42.14629],[125.34513,42.14317],[125.36884,42.18277],[125.41849,42.1547],[125.44472,42.15219],[125.46204,42.15944],[125.48991,42.13626],[125.47762,42.12099],[125.45614,42.11352],[125.45478,42.10293],[125.4121,42.1007],[125.42381,42.07822],[125.41549,42.06372],[125.36333,42.01684],[125.36991,42.00283],[125.34175,42.0002],[125.33604,41.98725],[125.31755,41.97714],[125.29829,41.97412],[125.29191,41.95881],[125.31726,41.94523],[125.34571,41.9397],[125.33449,41.92969],[125.30758,41.92449],[125.30391,41.89569],[125.29558,41.87992],[125.30091,41.86772],[125.29171,41.8521],[125.29471,41.82327],[125.30623,41.80115],[125.31775,41.79286],[125.32026,41.77201],[125.33536,41.76977],[125.33855,41.74169],[125.33458,41.71741],[125.31697,41.67729],[125.34426,41.67252],[125.3761,41.68621],[125.41181,41.69143],[125.43223,41.67471],[125.44636,41.67577],[125.45904,41.64338],[125.47075,41.63872],[125.45372,41.62046],[125.45004,41.59872],[125.46407,41.58046],[125.46252,41.56837],[125.47685,41.56005],[125.47723,41.54813],[125.49252,41.53665],[125.49514,41.5074],[125.50588,41.50335],[125.53346,41.47869],[125.54091,41.4587],[125.53433,41.42885],[125.54701,41.41888],[125.55785,41.3978],[125.57798,41.39774],[125.58746,41.38134],[125.57924,41.36741],[125.58959,41.35946],[125.6104,41.36504],[125.63721,41.34445],[125.63924,41.33142],[125.62008,41.31833],[125.64224,41.29597],[125.63866,41.28395],[125.64659,41.26469],[125.68463,41.27418],[125.6945,41.24452],[125.74956,41.24548],[125.75798,41.23186],[125.73524,41.19326],[125.73824,41.17861],[125.79108,41.16628],[125.76727,41.15027],[125.75682,41.12955],[125.73524,41.12593],[125.71356,41.10498],[125.71269,41.09564],[125.73921,41.08958],[125.72643,41.05525],[125.7063,41.03349],[125.68782,41.02533],[125.67911,40.99805],[125.68395,40.98631],[125.65037,40.97071],[125.63401,40.94149],[125.61446,40.94205],[125.5894,40.9311],[125.59046,40.91844],[125.57691,40.89896],[125.58746,40.89208],[125.6254,40.90691],[125.64717,40.90827],[125.6554,40.91594],[125.68317,40.90117],[125.70776,40.8676],[125.74201,40.87464],[125.77163,40.89589],[125.78169,40.89703],[125.80298,40.88447],[125.81276,40.86635],[125.85853,40.8868],[125.87808,40.90918],[125.92347,40.8818],[125.95763,40.88129],[125.97331,40.90413],[125.99683,40.89578],[126.02751,40.90191],[126.0068,40.91673],[125.98831,40.90907],[125.97786,40.91679],[126.0067,40.93621],[126.04115,40.92843],[126.0396,40.94092],[126.05286,40.94784],[126.05209,40.9618],[126.08228,40.97616],[126.06776,40.98989],[126.06912,41.00112],[126.08577,41.0086],[126.10841,41.00667],[126.09854,41.03304],[126.1266,41.04573],[126.13386,41.06381],[126.11383,41.07718],[126.13009,41.09349],[126.16425,41.09309],[126.18564,41.10697],[126.18786,41.11597],[126.22899,41.13131],[126.23432,41.14455],[126.28648,41.16311],[126.29519,41.17312],[126.28977,41.19094],[126.30884,41.19331],[126.31503,41.21779],[126.32867,41.23525],[126.35442,41.24463],[126.3669,41.28259],[126.39361,41.30196],[126.40939,41.32803],[126.43223,41.33238],[126.43958,41.35489],[126.49368,41.37468],[126.51361,41.37153],[126.51758,41.3484],[126.53316,41.35455],[126.53626,41.36944],[126.50607,41.38675],[126.49736,41.4067],[126.50868,41.43978],[126.52378,41.46],[126.53974,41.49406],[126.54516,41.5231],[126.55184,41.53395],[126.52532,41.53603],[126.50461,41.50177],[126.46852,41.50081],[126.46813,41.51781],[126.44055,41.52006],[126.42845,41.50976],[126.39932,41.5168],[126.41268,41.53356],[126.39961,41.54098],[126.38045,41.56747],[126.40503,41.58484],[126.40213,41.60777],[126.42545,41.65848],[126.40387,41.67106],[126.35993,41.66146],[126.31716,41.66595],[126.28096,41.69603],[126.29393,41.72941],[126.313,41.76092],[126.30903,41.77622],[126.32122,41.80098],[126.30777,41.80742],[126.29867,41.82865],[126.27796,41.83218],[126.27438,41.84259],[126.24632,41.84875],[126.23016,41.84259],[126.21767,41.85418],[126.23877,41.87393],[126.23896,41.88803],[126.21903,41.89066],[126.2078,41.90548],[126.18835,41.9005],[126.17828,41.91555],[126.1208,41.95356],[126.17422,41.97792],[126.19754,41.97138],[126.22135,41.98267],[126.23674,41.99864],[126.25706,42.0011],[126.25812,42.01299],[126.29258,42.03677],[126.32471,42.03828],[126.36864,42.06389],[126.39739,42.06389],[126.40174,42.07912],[126.39139,42.09713],[126.4211,42.11107],[126.42816,42.12065],[126.45197,42.12656],[126.44829,42.14049],[126.46755,42.15821],[126.46997,42.17676],[126.50655,42.19663],[126.53297,42.184],[126.57555,42.20554],[126.58,42.22813],[126.57323,42.23515],[126.53162,42.24972],[126.52262,42.29454],[126.5262,42.31538],[126.53994,42.34604],[126.51778,42.37258],[126.51942,42.39795],[126.51091,42.41065],[126.55387,42.44377],[126.58465,42.46301],[126.61165,42.46029],[126.62907,42.47055],[126.62955,42.48878],[126.63865,42.50645],[126.63255,42.56459],[126.62278,42.57643],[126.65113,42.59458],[126.67136,42.59336],[126.68714,42.6073],[126.70514,42.60614],[126.75043,42.67231],[126.73446,42.69573],[126.70088,42.70611],[126.68288,42.71694],[126.64872,42.72941],[126.59665,42.69656],[126.56742,42.68607],[126.56326,42.67082],[126.54187,42.6685],[126.50713,42.68573],[126.48468,42.68463],[126.43532,42.67496],[126.388,42.69755],[126.38287,42.70876],[126.39013,42.73184],[126.40039,42.7378],[126.39816,42.76136],[126.38722,42.77962],[126.39468,42.80499],[126.38403,42.81541],[126.36603,42.81381],[126.355,42.80422],[126.32596,42.81519],[126.31213,42.81497],[126.29964,42.80014],[126.27012,42.79446],[126.26103,42.78414],[126.22764,42.77372],[126.21728,42.78607],[126.19503,42.79076],[126.16667,42.78497],[126.14915,42.79209],[126.09912,42.7831],[126.08993,42.78922],[126.02934,42.78861],[126.00757,42.79639],[125.99431,42.81618],[125.98057,42.81315],[125.95134,42.82285],[125.9196,42.85089],[125.90692,42.90524],[125.85776,42.92407],[125.8415,42.92566],[125.8655,42.94756],[125.83444,42.96675],[125.83173,42.98225],[125.80966,43.00583],[125.77231,43.02012],[125.73679,43.00616],[125.73659,42.99105],[125.7516,42.9723],[125.75982,42.94376],[125.7454,42.93375],[125.73611,42.87425],[125.74163,42.84704],[125.7573,42.83965],[125.75885,42.8202],[125.81092,42.79049],[125.83598,42.7687],[125.8115,42.7527],[125.75643,42.74244],[125.70727,42.74216],[125.68637,42.73427],[125.64427,42.73294],[125.67388,42.71611],[125.65879,42.69187],[125.66498,42.6407],[125.70156,42.60957],[125.70872,42.59436],[125.70137,42.57367],[125.68985,42.57145],[125.66566,42.54012],[125.64708,42.55158],[125.61649,42.51853],[125.60014,42.5182],[125.58582,42.50762],[125.58417,42.48291],[125.57382,42.45175],[125.56288,42.43506],[125.51759,42.4207],[125.47927,42.39928],[125.45323,42.39207],[125.43949,42.38202],[125.40639,42.38446],[125.36497,42.36509],[125.34271,42.35876],[125.33536,42.34049],[125.31649,42.32804],[125.298,42.32516],[125.28562,42.3151],[125.26287,42.3131]]]}},{"type":"Feature","id":"datav:220600","properties":{"boundaryId":"datav:220600","nodeId":"geo:cn-jl-bsn","parentNodeId":"geo:cn-jl","bounds":[126.1208,41.36448,128.3154,42.82522]},"geometry":{"type":"Polygon","coordinates":[[[126.55184,41.53395],[126.56016,41.54824],[126.57787,41.55606],[126.58078,41.57427],[126.568,41.59175],[126.56404,41.60884],[126.57004,41.6217],[126.59239,41.62445],[126.60526,41.63928],[126.60826,41.66932],[126.62539,41.6774],[126.64184,41.66342],[126.66033,41.66191],[126.6882,41.67448],[126.72478,41.71135],[126.72043,41.72088],[126.69894,41.72453],[126.68597,41.73703],[126.69662,41.75167],[126.71965,41.75469],[126.77704,41.71707],[126.78149,41.69816],[126.80017,41.70304],[126.7964,41.73126],[126.8084,41.74808],[126.82166,41.74735],[126.82727,41.73244],[126.84759,41.73311],[126.85679,41.76069],[126.8864,41.79135],[126.90817,41.79846],[126.93159,41.81291],[126.95308,41.80328],[126.9434,41.77252],[126.97805,41.77723],[126.98424,41.76702],[127.01066,41.76153],[127.01569,41.74483],[127.05073,41.74466],[127.05595,41.70579],[127.08363,41.70338],[127.07792,41.69261],[127.05615,41.69513],[127.04076,41.671],[127.07289,41.65837],[127.0786,41.64574],[127.10415,41.64753],[127.13831,41.60029],[127.1807,41.59917],[127.18079,41.58686],[127.15495,41.58877],[127.1416,41.5691],[127.12766,41.56837],[127.1206,41.5402],[127.16473,41.54256],[127.18012,41.52883],[127.21418,41.5326],[127.21234,41.52276],[127.24138,41.5204],[127.23431,41.50931],[127.24989,41.50143],[127.26538,41.51426],[127.28899,41.50453],[127.29431,41.48652],[127.3518,41.46518],[127.36031,41.47942],[127.38983,41.48325],[127.40561,41.47819],[127.40977,41.46349],[127.45757,41.46152],[127.49948,41.47835],[127.54574,41.46642],[127.54767,41.44981],[127.56829,41.4315],[127.59345,41.42671],[127.61774,41.43274],[127.63681,41.41369],[127.66719,41.42428],[127.72478,41.42045],[127.75565,41.42772],[127.77945,41.4266],[127.79562,41.41888],[127.85407,41.42107],[127.87207,41.40462],[127.87226,41.44034],[127.91523,41.43696],[127.94117,41.45009],[127.94717,41.4404],[127.96681,41.43899],[127.99178,41.42209],[127.99972,41.44141],[128.01975,41.42744],[128.01801,41.41685],[128.05904,41.39769],[128.08265,41.39233],[128.1142,41.36448],[128.13133,41.38308],[128.16085,41.38844],[128.17004,41.40456],[128.18979,41.41403],[128.20798,41.41166],[128.21263,41.42913],[128.22685,41.44609],[128.2434,41.47768],[128.24292,41.50188],[128.25889,41.50695],[128.30069,41.53941],[128.29634,41.56308],[128.31337,41.57753],[128.3154,41.60518],[128.30398,41.63013],[128.28956,41.62636],[128.26982,41.66803],[128.23827,41.68391],[128.20982,41.68862],[128.19046,41.71084],[128.17004,41.71488],[128.15292,41.73916],[128.1445,41.76708],[128.14759,41.78087],[128.11246,41.7946],[128.10375,41.84292],[128.11546,41.89575],[128.10424,41.92326],[128.10675,41.95004],[128.09688,41.95294],[128.04733,41.98619],[128.03407,42.00032],[128.06456,42.01154],[128.0392,42.02991],[128.03659,42.04285],[128.0153,42.08743],[127.98752,42.12522],[127.96091,42.14562],[127.96836,42.16467],[127.92781,42.18867],[127.91543,42.20409],[127.91262,42.23108],[127.88533,42.2431],[127.87768,42.26691],[127.85455,42.28336],[127.82891,42.28081],[127.81071,42.29676],[127.81778,42.32349],[127.88775,42.3301],[127.90352,42.34904],[127.90352,42.36687],[127.94378,42.3677],[127.95994,42.39295],[128.00717,42.41421],[128.01627,42.42785],[128.01859,42.45075],[128.04356,42.48013],[128.03427,42.50058],[128.03388,42.52866],[128.02023,42.54162],[128.02778,42.56122],[127.99517,42.58855],[127.98143,42.61051],[127.95917,42.62096],[127.95356,42.64147],[127.96033,42.65783],[127.93846,42.66303],[127.92317,42.67336],[127.90449,42.67016],[127.89046,42.69595],[127.87526,42.69612],[127.8621,42.71909],[127.84691,42.73074],[127.86568,42.74067],[127.86936,42.75143],[127.83442,42.76258],[127.83762,42.78834],[127.80936,42.79975],[127.80055,42.81265],[127.75913,42.81463],[127.73832,42.8218],[127.71761,42.81728],[127.70561,42.77444],[127.65693,42.76092],[127.64135,42.73223],[127.64339,42.71395],[127.62084,42.71136],[127.59897,42.6933],[127.58861,42.66971],[127.57313,42.66861],[127.55222,42.64833],[127.51012,42.63379],[127.48661,42.63103],[127.48535,42.61449],[127.49754,42.60222],[127.46754,42.59779],[127.46803,42.56681],[127.45816,42.56149],[127.43241,42.57345],[127.40599,42.5735],[127.35199,42.58794],[127.35248,42.60199],[127.33883,42.60564],[127.31957,42.64031],[127.28793,42.63202],[127.28096,42.61742],[127.24021,42.59945],[127.20421,42.60835],[127.21921,42.62771],[127.22521,42.65607],[127.24699,42.67833],[127.25357,42.70898],[127.23499,42.72041],[127.22676,42.73824],[127.20073,42.76495],[127.20247,42.78481],[127.19289,42.80333],[127.19376,42.82356],[127.18099,42.82522],[127.16008,42.80405],[127.12505,42.80488],[127.09476,42.79953],[127.07269,42.81315],[127.04134,42.80653],[127.01685,42.789],[126.99953,42.79374],[126.99005,42.80488],[126.95027,42.81149],[126.94737,42.80565],[126.89733,42.80262],[126.89927,42.78701],[126.87924,42.78023],[126.85379,42.78464],[126.82214,42.77747],[126.80046,42.73311],[126.81246,42.70921],[126.78449,42.69131],[126.77423,42.67154],[126.75043,42.67231],[126.70514,42.60614],[126.68714,42.6073],[126.67136,42.59336],[126.65113,42.59458],[126.62278,42.57643],[126.63255,42.56459],[126.63865,42.50645],[126.62955,42.48878],[126.62907,42.47055],[126.61165,42.46029],[126.58465,42.46301],[126.55387,42.44377],[126.51091,42.41065],[126.51942,42.39795],[126.51778,42.37258],[126.53994,42.34604],[126.5262,42.31538],[126.52262,42.29454],[126.53162,42.24972],[126.57323,42.23515],[126.58,42.22813],[126.57555,42.20554],[126.53297,42.184],[126.50655,42.19663],[126.46997,42.17676],[126.46755,42.15821],[126.44829,42.14049],[126.45197,42.12656],[126.42816,42.12065],[126.4211,42.11107],[126.39139,42.09713],[126.40174,42.07912],[126.39739,42.06389],[126.36864,42.06389],[126.32471,42.03828],[126.29258,42.03677],[126.25812,42.01299],[126.25706,42.0011],[126.23674,41.99864],[126.22135,41.98267],[126.19754,41.97138],[126.17422,41.97792],[126.1208,41.95356],[126.17828,41.91555],[126.18835,41.9005],[126.2078,41.90548],[126.21903,41.89066],[126.23896,41.88803],[126.23877,41.87393],[126.21767,41.85418],[126.23016,41.84259],[126.24632,41.84875],[126.27438,41.84259],[126.27796,41.83218],[126.29867,41.82865],[126.30777,41.80742],[126.32122,41.80098],[126.30903,41.77622],[126.313,41.76092],[126.29393,41.72941],[126.28096,41.69603],[126.31716,41.66595],[126.35993,41.66146],[126.40387,41.67106],[126.42545,41.65848],[126.40213,41.60777],[126.40503,41.58484],[126.38045,41.56747],[126.39961,41.54098],[126.41268,41.53356],[126.39932,41.5168],[126.42845,41.50976],[126.44055,41.52006],[126.46813,41.51781],[126.46852,41.50081],[126.50461,41.50177],[126.52532,41.53603],[126.55184,41.53395]]]}},{"type":"Feature","id":"datav:220700","properties":{"boundaryId":"datav:220700","nodeId":"geo:cn-jl-syu","parentNodeId":"geo:cn-jl","bounds":[123.11453,43.98624,126.19638,45.53945]},"geometry":{"type":"Polygon","coordinates":[[[123.12546,44.50928],[123.13611,44.50242],[123.13679,44.48564],[123.12595,44.47701],[123.12411,44.45797],[123.14211,44.42814],[123.1362,44.40603],[123.11453,44.40249],[123.12837,44.36688],[123.14869,44.36162],[123.17375,44.34523],[123.19698,44.34501],[123.27711,44.25256],[123.28669,44.21487],[123.29976,44.19521],[123.32366,44.1798],[123.38637,44.16185],[123.38453,44.14174],[123.36247,44.1336],[123.35066,44.09265],[123.3284,44.08385],[123.3285,44.07095],[123.35869,44.075],[123.39924,44.06663],[123.4095,44.077],[123.44966,44.07689],[123.4785,44.08364],[123.54799,44.07792],[123.5718,44.08796],[123.58989,44.08833],[123.63567,44.07813],[123.66044,44.09254],[123.66354,44.10782],[123.68319,44.10987],[123.69557,44.08342],[123.7187,44.06291],[123.73264,44.03952],[123.75674,44.04093],[123.77358,44.02288],[123.76864,44.00364],[123.81858,43.98624],[123.85758,43.99986],[123.95174,43.99862],[124.01571,44.00451],[124.06226,44.0091],[124.0761,44.02105],[124.13794,44.00986],[124.15759,44.0137],[124.16475,43.9977],[124.19126,43.98829],[124.21256,43.99824],[124.23123,43.99013],[124.25359,43.99921],[124.30807,43.99099],[124.32636,44.00862],[124.3523,44.01769],[124.39759,44.02818],[124.41956,44.03828],[124.48624,44.0913],[124.50579,44.10059],[124.51643,44.11661],[124.65376,44.12756],[124.68676,44.14234],[124.72179,44.15102],[124.73612,44.15916],[124.72973,44.17625],[124.76283,44.21391],[124.71715,44.19241],[124.69847,44.20685],[124.68792,44.20055],[124.66934,44.20949],[124.63634,44.20394],[124.61728,44.21159],[124.60015,44.25326],[124.60402,44.27221],[124.62037,44.28323],[124.6285,44.30593],[124.60711,44.3376],[124.62482,44.35925],[124.59986,44.3896],[124.57353,44.39422],[124.55079,44.42406],[124.56898,44.43619],[124.58563,44.42841],[124.61253,44.43796],[124.63508,44.43437],[124.64331,44.44864],[124.60315,44.47122],[124.58137,44.47669],[124.5926,44.49127],[124.54547,44.51437],[124.56153,44.52942],[124.57411,44.52942],[124.56966,44.5532],[124.55243,44.56937],[124.58215,44.59362],[124.6016,44.60154],[124.6284,44.62026],[124.61815,44.62951],[124.63431,44.64069],[124.7217,44.66015],[124.74676,44.64967],[124.7787,44.66907],[124.80357,44.66383],[124.8297,44.68328],[124.80725,44.70412],[124.86889,44.73306],[124.89715,44.72606],[124.95851,44.75489],[124.99499,44.7599],[125.02635,44.78801],[125.04232,44.77079],[125.0699,44.77681],[125.10735,44.76534],[125.12535,44.76999],[125.13339,44.78332],[125.15652,44.79025],[125.172,44.78652],[125.22929,44.80364],[125.26249,44.79601],[125.3131,44.81425],[125.27478,44.83226],[125.25349,44.83216],[125.2319,44.84505],[125.24719,44.86007],[125.2831,44.85096],[125.32975,44.86737],[125.34029,44.87972],[125.36952,44.88452],[125.41259,44.87456],[125.42101,44.89059],[125.43688,44.89719],[125.44975,44.88468],[125.4693,44.88414],[125.48091,44.87254],[125.50559,44.88388],[125.53133,44.8843],[125.5772,44.89373],[125.60062,44.88569],[125.61291,44.90075],[125.64175,44.918],[125.64108,44.93034],[125.66566,44.93571],[125.71995,44.93901],[125.73814,44.92374],[125.75198,44.89335],[125.78731,44.87573],[125.78179,44.86364],[125.82621,44.84095],[125.87344,44.83669],[125.88089,44.81483],[125.90663,44.80796],[125.92066,44.77143],[125.95144,44.76097],[126.00873,44.78343],[126.04967,44.78679],[126.03776,44.80401],[126.05596,44.84777],[126.05044,44.8621],[126.06089,44.90272],[126.09815,44.89197],[126.10812,44.92427],[126.14741,44.92646],[126.14519,44.90267],[126.16435,44.90214],[126.19251,44.9173],[126.18699,44.93316],[126.17054,44.95002],[126.14683,44.96268],[126.14461,44.9816],[126.18815,45.00089],[126.19019,45.03202],[126.17374,45.04864],[126.18138,45.07189],[126.17441,45.08892],[126.19638,45.10324],[126.16986,45.13463],[126.13425,45.14825],[126.11402,45.1428],[126.09535,45.14714],[126.08538,45.16267],[126.05073,45.17019],[125.99625,45.16378],[125.98221,45.18698],[125.95754,45.20133],[125.91979,45.19604],[125.88844,45.2215],[125.87189,45.22118],[125.84963,45.23897],[125.82369,45.23801],[125.81247,45.24944],[125.81489,45.26774],[125.78779,45.27922],[125.77424,45.29307],[125.75992,45.29074],[125.73127,45.32298],[125.72624,45.33651],[125.69575,45.35071],[125.69634,45.36545],[125.7124,45.38941],[125.71598,45.42175],[125.70379,45.43773],[125.7124,45.46308],[125.69169,45.48774],[125.70195,45.50181],[125.68792,45.51403],[125.66004,45.50707],[125.6373,45.51992],[125.61669,45.51797],[125.59317,45.49696],[125.54982,45.48637],[125.49736,45.46936],[125.48043,45.48648],[125.42507,45.48558],[125.43368,45.45871],[125.39855,45.41684],[125.36991,45.39484],[125.34136,45.40007],[125.32762,45.41706],[125.30662,45.41758],[125.30158,45.40197],[125.27613,45.41669],[125.24894,45.41769],[125.18942,45.39933],[125.157,45.41083],[125.13764,45.40962],[125.11316,45.38999],[125.09167,45.38265],[125.06971,45.38461],[125.06613,45.39901],[125.08867,45.41104],[125.08422,45.42317],[125.04987,45.4285],[125.03574,45.4594],[125.02558,45.49333],[124.98309,45.49238],[124.94535,45.50234],[124.93945,45.52982],[124.91496,45.53945],[124.90867,45.51945],[124.88457,45.49544],[124.88331,45.47837],[124.89009,45.4566],[124.88641,45.44268],[124.86628,45.44063],[124.83986,45.45571],[124.80541,45.44068],[124.77909,45.44137],[124.77996,45.46113],[124.7606,45.46841],[124.72963,45.44406],[124.69044,45.45244],[124.65676,45.43778],[124.62521,45.43725],[124.58515,45.45381],[124.57469,45.4439],[124.57963,45.42418],[124.54421,45.41194],[124.50724,45.42465],[124.48072,45.45623],[124.45701,45.45781],[124.4275,45.45043],[124.41385,45.43873],[124.39875,45.44063],[124.37379,45.45855],[124.33478,45.43609],[124.28562,45.42059],[124.26162,45.40271],[124.12623,45.33614],[124.08704,45.32779],[124.07368,45.31416],[124.06536,45.28572],[124.08684,45.26309],[124.06942,45.23611],[124.05374,45.23161],[123.97632,45.2259],[123.94216,45.21954],[123.91932,45.20954],[123.87916,45.17231],[123.83619,45.14216],[123.82748,45.13076],[123.74687,45.06435],[123.68957,45.03398],[123.63228,45.00945],[123.58738,44.97155],[123.57228,44.96315],[123.53067,44.95183],[123.51992,44.96629],[123.49254,44.95954],[123.49796,44.93098],[123.45199,44.89218],[123.41966,44.85576],[123.42983,44.84931],[123.44986,44.81222],[123.5148,44.73434],[123.52554,44.72729],[123.5238,44.707],[123.50212,44.7077],[123.45595,44.69611],[123.41841,44.67153],[123.37031,44.66282],[123.3315,44.64956],[123.31795,44.6394],[123.28979,44.63587],[123.24498,44.59693],[123.2204,44.59057],[123.20134,44.57697],[123.14859,44.55401],[123.1394,44.52294],[123.12546,44.50928]]]}},{"type":"Feature","id":"datav:220800","properties":{"boundaryId":"datav:220800","nodeId":"geo:cn-jl-bcs","parentNodeId":"geo:cn-jl","bounds":[121.64439,44.23291,124.37379,46.30362]},"geometry":{"type":"Polygon","coordinates":[[[124.37379,45.45855],[124.35249,45.49665],[124.36885,45.51292],[124.35869,45.54482],[124.34872,45.54693],[124.2954,45.53919],[124.26462,45.55508],[124.26123,45.56923],[124.27285,45.58401],[124.22756,45.5989],[124.23665,45.62302],[124.21246,45.63059],[124.18749,45.61593],[124.16775,45.6153],[124.14723,45.62308],[124.12971,45.63758],[124.14936,45.66158],[124.12188,45.66925],[124.13746,45.67939],[124.12546,45.69519],[124.09952,45.70301],[124.09807,45.72247],[124.0822,45.73643],[124.05413,45.75132],[124.01474,45.74995],[124.00197,45.77066],[124.00942,45.78198],[124.03468,45.78492],[124.06439,45.80226],[124.04271,45.81536],[124.03623,45.83808],[124.07107,45.8452],[124.06865,45.8688],[124.0582,45.88962],[124.00187,45.90442],[123.97158,45.93192],[123.96568,45.96071],[123.9771,45.97586],[124.01203,45.98202],[124.01513,45.99846],[123.99278,46.00791],[124.00536,46.02138],[124.03836,46.01804],[124.03129,46.04892],[124.0099,46.05752],[124.01678,46.07666],[124.01261,46.09047],[123.99568,46.09876],[124.0159,46.12418],[123.99529,46.13782],[124.00894,46.1549],[124.00207,46.16682],[123.97197,46.1703],[123.97526,46.18394],[123.95706,46.20687],[123.98232,46.22642],[123.956,46.24467],[123.95223,46.25927],[123.96645,46.27709],[123.95832,46.28997],[123.93481,46.28586],[123.91758,46.25683],[123.89745,46.26457],[123.9079,46.27849],[123.89629,46.30362],[123.86668,46.29952],[123.84984,46.30237],[123.82496,46.28519],[123.78722,46.26758],[123.75674,46.25994],[123.74425,46.26405],[123.72557,46.25568],[123.70419,46.25797],[123.67961,46.25366],[123.66819,46.25849],[123.60499,46.25179],[123.59667,46.23407],[123.57422,46.23022],[123.5446,46.23505],[123.52641,46.24924],[123.49989,46.25953],[123.47937,46.24425],[123.45073,46.23703],[123.43147,46.24384],[123.40476,46.23963],[123.37379,46.22294],[123.34737,46.24586],[123.32008,46.25142],[123.30218,46.24831],[123.24818,46.27329],[123.2233,46.27054],[123.14462,46.22949],[123.12846,46.21046],[123.12769,46.17467],[123.10291,46.17202],[123.1124,46.13006],[123.06991,46.12355],[123.04582,46.10006],[122.79313,46.07322],[122.82855,45.91227],[122.82671,45.89799],[122.80029,45.85671],[122.77281,45.85656],[122.75239,45.83483],[122.79245,45.76626],[122.77116,45.74623],[122.75113,45.73611],[122.74203,45.70516],[122.67148,45.70064],[122.66529,45.72997],[122.64961,45.73228],[122.64061,45.77113],[122.60345,45.77811],[122.56716,45.80682],[122.54442,45.81588],[122.51829,45.78471],[122.50435,45.78775],[122.50329,45.82112],[122.49583,45.85823],[122.47541,45.87754],[122.44599,45.91692],[122.37496,45.92068],[122.36035,45.90333],[122.36896,45.8621],[122.32125,45.84431],[122.32086,45.83044],[122.28186,45.80933],[122.2627,45.79498],[122.24547,45.81048],[122.23647,45.83148],[122.21934,45.83012],[122.21625,45.84504],[122.20095,45.85687],[122.13815,45.87315],[122.11598,45.87398],[122.0916,45.88199],[122.0824,45.89647],[122.08531,45.90991],[122.07118,45.93061],[122.0434,45.94326],[122.03972,45.95925],[121.98795,45.97168],[121.9444,45.98933],[121.92804,45.98834],[121.92359,46.00488],[121.86407,46.00243],[121.84298,46.02445],[121.81462,46.02148],[121.7854,46.00327],[121.76459,46.00066],[121.76769,45.98468],[121.78385,45.98656],[121.8093,45.96155],[121.80378,45.94206],[121.8214,45.91838],[121.80572,45.90061],[121.81714,45.8756],[121.78598,45.86085],[121.76991,45.84352],[121.75104,45.80498],[121.75423,45.79487],[121.72249,45.78534],[121.68823,45.76322],[121.65697,45.77019],[121.64439,45.75247],[121.66926,45.73915],[121.66452,45.72971],[121.68891,45.71266],[121.71407,45.7018],[121.75685,45.69072],[121.78211,45.69377],[121.81133,45.68695],[121.8123,45.70479],[121.85256,45.71786],[121.8992,45.71801],[121.93395,45.71061],[121.94479,45.71413],[121.97014,45.69277],[121.99405,45.63763],[122.00334,45.62329],[121.99608,45.59895],[121.96646,45.59616],[121.97256,45.56897],[121.99337,45.55287],[122.00334,45.52435],[122.00247,45.50786],[122.02347,45.49022],[122.06334,45.47294],[122.12121,45.45344],[122.16457,45.44326],[122.17986,45.40956],[122.14686,45.37453],[122.14366,45.35441],[122.14724,45.29561],[122.23899,45.27631],[122.24179,45.24775],[122.23008,45.20684],[122.19263,45.18068],[122.14328,45.18301],[122.10989,45.14205],[122.11869,45.0999],[122.11947,45.0686],[122.10824,45.04991],[122.09895,45.02156],[122.07456,45.00663],[122.08676,44.95294],[122.07911,44.91422],[122.0496,44.91283],[122.05627,44.88281],[122.0705,44.88207],[122.0826,44.83956],[122.09818,44.81878],[122.09237,44.79953],[122.09992,44.78236],[122.11502,44.7766],[122.15741,44.77735],[122.16912,44.77025],[122.1427,44.75371],[122.11066,44.7678],[122.09886,44.7448],[122.11627,44.73984],[122.15247,44.74384],[122.16137,44.72825],[122.14889,44.71592],[122.11744,44.70214],[122.10302,44.67399],[122.11347,44.61544],[122.13195,44.60368],[122.13834,44.58816],[122.13166,44.57751],[122.19602,44.55984],[122.22408,44.52621],[122.22263,44.49775],[122.22815,44.48017],[122.27267,44.47347],[122.28612,44.47776],[122.29444,44.41091],[122.29163,44.31029],[122.27421,44.27382],[122.27141,44.25568],[122.31941,44.23291],[122.36702,44.23593],[122.48267,44.2369],[122.51287,44.25025],[122.55932,44.26021],[122.59735,44.27253],[122.64284,44.28361],[122.67555,44.28576],[122.69006,44.29684],[122.70313,44.31894],[122.76061,44.36973],[122.85613,44.3983],[122.9202,44.4312],[123.02491,44.49298],[123.06711,44.50617],[123.12546,44.50928],[123.1394,44.52294],[123.14859,44.55401],[123.20134,44.57697],[123.2204,44.59057],[123.24498,44.59693],[123.28979,44.63587],[123.31795,44.6394],[123.3315,44.64956],[123.37031,44.66282],[123.41841,44.67153],[123.45595,44.69611],[123.50212,44.7077],[123.5238,44.707],[123.52554,44.72729],[123.5148,44.73434],[123.44986,44.81222],[123.42983,44.84931],[123.41966,44.85576],[123.45199,44.89218],[123.49796,44.93098],[123.49254,44.95954],[123.51992,44.96629],[123.53067,44.95183],[123.57228,44.96315],[123.58738,44.97155],[123.63228,45.00945],[123.68957,45.03398],[123.74687,45.06435],[123.82748,45.13076],[123.83619,45.14216],[123.87916,45.17231],[123.91932,45.20954],[123.94216,45.21954],[123.97632,45.2259],[124.05374,45.23161],[124.06942,45.23611],[124.08684,45.26309],[124.06536,45.28572],[124.07368,45.31416],[124.08704,45.32779],[124.12623,45.33614],[124.26162,45.40271],[124.28562,45.42059],[124.33478,45.43609],[124.37379,45.45855]]]}},{"type":"Feature","id":"datav:222400","properties":{"boundaryId":"datav:222400","nodeId":"geo:cn-jl-ybz","parentNodeId":"geo:cn-jl","bounds":[127.46996,41.99641,131.31955,44.51426]},"geometry":{"type":"Polygon","coordinates":[[[128.06456,42.01154],[128.09078,42.02276],[128.12969,42.02114],[128.14904,42.02494],[128.29063,42.0265],[128.40579,42.01902],[128.44005,42.0231],[128.46618,42.02081],[128.49676,42.00188],[128.53809,42.00076],[128.54941,42.00478],[128.56915,41.99641],[128.59838,42.00735],[128.6066,42.03007],[128.63786,42.03521],[128.65441,42.03085],[128.65828,42.01869],[128.67957,42.01439],[128.70212,42.02042],[128.73803,42.05022],[128.75041,42.0505],[128.77925,42.03353],[128.79503,42.04241],[128.81603,42.04001],[128.83993,42.02907],[128.8981,42.01673],[128.93052,42.01411],[128.95558,42.03074],[128.96177,42.0558],[128.95365,42.06556],[128.95471,42.08375],[128.97126,42.09696],[129.00949,42.09228],[129.01539,42.10243],[129.03929,42.10772],[129.04181,42.13169],[129.05778,42.14111],[129.11371,42.14077],[129.13317,42.15637],[129.1382,42.16907],[129.16046,42.16712],[129.16665,42.18823],[129.19201,42.19875],[129.20933,42.23765],[129.18165,42.24204],[129.1832,42.26207],[129.2252,42.26985],[129.20865,42.29326],[129.24059,42.30649],[129.20623,42.31277],[129.21756,42.32382],[129.25665,42.32321],[129.26023,42.33566],[129.2311,42.35615],[129.24456,42.37891],[129.26169,42.37403],[129.27533,42.38752],[129.2943,42.38052],[129.32459,42.39223],[129.30872,42.40372],[129.32788,42.42197],[129.34124,42.40966],[129.35875,42.41909],[129.34211,42.44149],[129.3512,42.4543],[129.37656,42.45131],[129.36127,42.43345],[129.36833,42.42552],[129.39272,42.42818],[129.40095,42.44904],[129.42621,42.436],[129.45234,42.441],[129.46937,42.42275],[129.49889,42.41204],[129.52182,42.39201],[129.53818,42.36842],[129.57805,42.3803],[129.56527,42.38863],[129.58473,42.40955],[129.6004,42.41121],[129.60369,42.4299],[129.59857,42.44305],[129.61608,42.46395],[129.6275,42.46284],[129.65218,42.42652],[129.67376,42.43162],[129.70454,42.42724],[129.72147,42.43722],[129.74857,42.47104],[129.73938,42.49925],[129.74218,42.528],[129.74983,42.54682],[129.74054,42.56326],[129.74615,42.5844],[129.75931,42.58783],[129.76125,42.61759],[129.77286,42.63429],[129.75447,42.64595],[129.77634,42.66911],[129.79686,42.68187],[129.76899,42.70589],[129.76483,42.72251],[129.78138,42.7463],[129.7837,42.76274],[129.81118,42.79523],[129.80741,42.81392],[129.81631,42.851],[129.83306,42.85833],[129.85144,42.92252],[129.87477,42.9239],[129.85928,42.94481],[129.86015,42.96741],[129.88996,42.98187],[129.89712,43.00171],[129.9397,43.01226],[129.95412,43.011],[129.96186,42.97967],[129.97822,42.97643],[130.00222,42.98126],[130.02729,42.96752],[130.06648,42.96999],[130.10848,42.98973],[130.144,42.97643],[130.12087,42.95438],[130.12764,42.93259],[130.10219,42.92291],[130.13606,42.90348],[130.17061,42.91229],[130.20981,42.90227],[130.25781,42.90607],[130.27707,42.8939],[130.27291,42.87254],[130.258,42.86053],[130.24378,42.78039],[130.25026,42.75524],[130.24203,42.73874],[130.26216,42.70821],[130.29003,42.70308],[130.3062,42.68513],[130.31868,42.66248],[130.33349,42.64965],[130.37307,42.63092],[130.38788,42.60304],[130.42078,42.61698],[130.44681,42.60725],[130.4262,42.5854],[130.42378,42.57466],[130.43549,42.55341],[130.46056,42.55286],[130.47643,42.56985],[130.45969,42.58816],[130.46433,42.60476],[130.48252,42.62666],[130.49617,42.62948],[130.52278,42.6224],[130.52898,42.60664],[130.52027,42.59325],[130.53546,42.54483],[130.55607,42.52357],[130.55888,42.49604],[130.58598,42.48534],[130.57437,42.45026],[130.58114,42.43562],[130.61133,42.43368],[130.60156,42.44887],[130.60001,42.48606],[130.56556,42.50645],[130.56691,42.52877],[130.57649,42.54107],[130.5703,42.55435],[130.60079,42.55972],[130.62353,42.57378],[130.63475,42.60045],[130.62372,42.61422],[130.62304,42.63152],[130.60311,42.6423],[130.59208,42.6717],[130.56982,42.68717],[130.52878,42.70379],[130.49365,42.69098],[130.46627,42.68811],[130.45523,42.70407],[130.42523,42.707],[130.40888,42.72643],[130.4291,42.73212],[130.43472,42.75176],[130.46423,42.76241],[130.46627,42.77234],[130.49365,42.7751],[130.50817,42.78398],[130.53236,42.78718],[130.56333,42.81563],[130.6034,42.81948],[130.63359,42.83563],[130.64559,42.83403],[130.66708,42.84819],[130.68721,42.85045],[130.71547,42.84202],[130.72689,42.83133],[130.75369,42.84577],[130.76976,42.83767],[130.78379,42.84164],[130.78447,42.86626],[130.80189,42.87948],[130.84476,42.88108],[130.85986,42.86213],[130.87641,42.86422],[130.89073,42.85293],[130.90805,42.85943],[130.91299,42.87089],[130.94967,42.877],[130.98092,42.85778],[131.01654,42.86417],[131.04334,42.86318],[131.03773,42.88532],[131.02467,42.8949],[131.0176,42.91267],[131.03376,42.92869],[131.06328,42.91829],[131.07209,42.92632],[131.09028,42.91675],[131.11506,42.91504],[131.12822,42.93122],[131.14564,42.93661],[131.14351,42.95718],[131.1287,42.96697],[131.11331,42.99352],[131.11428,43.01501],[131.10248,43.02144],[131.10877,43.0372],[131.12512,43.05203],[131.12048,43.06812],[131.16035,43.07558],[131.17341,43.11098],[131.1948,43.11789],[131.21851,43.14706],[131.20941,43.16806],[131.2189,43.19134],[131.20148,43.20268],[131.20612,43.23713],[131.25519,43.26515],[131.25713,43.28884],[131.26942,43.29918],[131.26496,43.3316],[131.28035,43.37815],[131.29951,43.38099],[131.31761,43.39743],[131.31403,43.41752],[131.30145,43.42325],[131.29613,43.44158],[131.31442,43.46122],[131.31955,43.49873],[131.2969,43.49464],[131.30609,43.47938],[131.29409,43.47038],[131.26961,43.46858],[131.23574,43.47584],[131.22741,43.45729],[131.20496,43.45473],[131.2009,43.44218],[131.17757,43.44551],[131.1587,43.43072],[131.14264,43.42597],[131.12561,43.43372],[131.12077,43.44769],[131.09202,43.45773],[131.06851,43.48249],[131.0477,43.49154],[131.0267,43.50876],[131.00134,43.50756],[130.98315,43.49279],[130.9606,43.4863],[130.92131,43.45538],[130.90805,43.43454],[130.85976,43.43907],[130.84079,43.45467],[130.82347,43.50288],[130.77508,43.52135],[130.75931,43.54265],[130.73579,43.5451],[130.72766,43.56019],[130.70221,43.56013],[130.69969,43.56814],[130.67114,43.56487],[130.66727,43.5836],[130.62382,43.58942],[130.63495,43.61445],[130.62392,43.62419],[130.59672,43.62191],[130.58549,43.61396],[130.5583,43.63012],[130.53362,43.63126],[130.50323,43.63985],[130.48833,43.65611],[130.46839,43.65644],[130.45572,43.64752],[130.43704,43.64638],[130.41285,43.65269],[130.41014,43.66981],[130.39988,43.67443],[130.39446,43.70334],[130.40917,43.71795],[130.42339,43.74466],[130.39184,43.76735],[130.3841,43.78878],[130.37965,43.82577],[130.36378,43.84598],[130.38633,43.854],[130.3662,43.89068],[130.38333,43.90578],[130.35584,43.94048],[130.33765,43.94703],[130.35013,43.97596],[130.3633,43.99083],[130.36736,44.01467],[130.35836,44.02391],[130.36552,44.04401],[130.34307,44.04617],[130.31936,44.03979],[130.30803,44.02153],[130.30765,44.00278],[130.27223,43.98099],[130.27455,43.9678],[130.26197,43.94941],[130.23884,43.94048],[130.2189,43.94432],[130.18968,43.94097],[130.15377,43.91564],[130.15455,43.89192],[130.1441,43.87909],[130.11622,43.87806],[130.11081,43.85238],[130.07984,43.83525],[130.06667,43.83444],[130.04809,43.85151],[130.02709,43.85184],[130.00909,43.88878],[130.02409,43.91699],[130.01906,43.93804],[130.02554,43.94383],[129.98896,43.98224],[129.98064,44.01445],[129.95122,44.0272],[129.93574,44.02737],[129.92451,44.01526],[129.90854,44.02434],[129.88038,44.00008],[129.84051,43.99662],[129.81777,43.97396],[129.78128,43.95541],[129.79425,43.93999],[129.77809,43.92944],[129.78689,43.91726],[129.78022,43.89284],[129.73976,43.89577],[129.73947,43.8825],[129.72496,43.87806],[129.69854,43.88364],[129.65876,43.87205],[129.60921,43.88223],[129.59479,43.87438],[129.52947,43.87064],[129.49308,43.8754],[129.4684,43.86679],[129.45118,43.85178],[129.41788,43.8436],[129.40685,43.81942],[129.37095,43.80164],[129.34791,43.79855],[129.32043,43.81113],[129.30214,43.79643],[129.29033,43.79703],[129.27804,43.81389],[129.25491,43.81953],[129.21214,43.78498],[129.22114,43.74244],[129.21649,43.72365],[129.23188,43.70855],[129.21427,43.69524],[129.21978,43.68226],[129.21378,43.66622],[129.21814,43.64845],[129.23227,43.6355],[129.23033,43.59448],[129.19288,43.57603],[129.14846,43.57091],[129.12155,43.5555],[129.09562,43.54859],[129.03852,43.54053],[129.01432,43.52331],[128.98326,43.5366],[128.96323,43.539],[128.94958,43.55403],[128.92577,43.5536],[128.91368,43.54369],[128.87797,43.54015],[128.86664,43.55812],[128.85445,43.55725],[128.85097,43.57576],[128.8349,43.58741],[128.82097,43.63724],[128.80664,43.66677],[128.78738,43.68693],[128.78429,43.71561],[128.72864,43.73788],[128.73764,43.75308],[128.75932,43.76089],[128.74257,43.80175],[128.71877,43.81791],[128.72641,43.83178],[128.76087,43.85769],[128.72351,43.89469],[128.70783,43.89745],[128.66177,43.89024],[128.63641,43.89138],[128.63138,43.92576],[128.64522,43.93588],[128.64028,43.94751],[128.62422,43.95033],[128.60399,43.96742],[128.58454,43.99083],[128.57496,44.04752],[128.53538,44.09184],[128.52889,44.11229],[128.50286,44.12346],[128.48273,44.15188],[128.47189,44.1577],[128.4626,44.18686],[128.45728,44.2264],[128.47179,44.24777],[128.45389,44.258],[128.47015,44.28878],[128.47228,44.3198],[128.44654,44.33985],[128.47567,44.34716],[128.48167,44.37564],[128.46134,44.39985],[128.45738,44.4217],[128.46279,44.43302],[128.43666,44.45282],[128.42776,44.47347],[128.38837,44.48982],[128.37299,44.51426],[128.34666,44.50938],[128.32934,44.4954],[128.29692,44.48242],[128.29208,44.4673],[128.25976,44.45856],[128.25395,44.44665],[128.22811,44.44547],[128.21176,44.43211],[128.1894,44.37381],[128.18795,44.36323],[128.17179,44.34652],[128.13898,44.35786],[128.12562,44.34899],[128.09737,44.35415],[128.07511,44.36941],[128.05033,44.35044],[128.06407,44.34173],[128.05633,44.32905],[128.06514,44.30733],[128.10153,44.29039],[128.08972,44.27586],[128.06388,44.26155],[128.10395,44.23006],[128.09243,44.21579],[128.09243,44.18158],[128.07046,44.18115],[128.06049,44.16859],[128.08498,44.14762],[128.09001,44.13225],[128.05256,44.10701],[128.02459,44.10776],[128.00727,44.09427],[127.94949,44.08812],[127.91281,44.0648],[127.88959,44.0696],[127.865,44.06226],[127.87013,44.05578],[127.82097,44.02045],[127.80781,44.01791],[127.78894,44.00267],[127.77984,43.97169],[127.78613,43.95611],[127.77587,43.93674],[127.79523,43.91677],[127.85126,43.89615],[127.86104,43.88218],[127.85446,43.85764],[127.83752,43.86717],[127.81652,43.85357],[127.80781,43.82794],[127.84052,43.79502],[127.83936,43.77923],[127.85726,43.75487],[127.85697,43.747],[127.89346,43.72973],[127.91591,43.7306],[127.91746,43.71637],[127.90565,43.67008],[127.91301,43.65187],[127.89946,43.64562],[127.89655,43.62501],[127.86568,43.6249],[127.84091,43.59514],[127.82939,43.59856],[127.79794,43.57217],[127.79116,43.55458],[127.77084,43.54984],[127.76987,43.53197],[127.745,43.50369],[127.71984,43.5104],[127.69816,43.48423],[127.70668,43.46466],[127.69632,43.43727],[127.71016,43.43023],[127.70348,43.39502],[127.69497,43.37804],[127.679,43.36422],[127.68219,43.35433],[127.62519,43.34122],[127.6339,43.32329],[127.61842,43.30016],[127.64348,43.29272],[127.65945,43.27352],[127.65723,43.26017],[127.63622,43.23669],[127.63419,43.22382],[127.61193,43.20624],[127.5679,43.18663],[127.56151,43.16899],[127.53219,43.14624],[127.51061,43.14087],[127.48003,43.13977],[127.50345,43.12057],[127.4929,43.09155],[127.50112,43.06559],[127.48477,43.06087],[127.46996,43.03803],[127.47954,43.02199],[127.49725,43.02336],[127.53122,42.98445],[127.55793,42.97918],[127.5859,42.95592],[127.60845,42.9546],[127.63632,42.93777],[127.64097,42.9217],[127.67484,42.90271],[127.69613,42.90035],[127.71161,42.89132],[127.74432,42.89027],[127.7541,42.90183],[127.77403,42.89545],[127.79474,42.87419],[127.81904,42.87579],[127.81546,42.84087],[127.8292,42.83425],[127.8352,42.81888],[127.85252,42.81111],[127.83762,42.78834],[127.83442,42.76258],[127.86936,42.75143],[127.86568,42.74067],[127.84691,42.73074],[127.8621,42.71909],[127.87526,42.69612],[127.89046,42.69595],[127.90449,42.67016],[127.92317,42.67336],[127.93846,42.66303],[127.96033,42.65783],[127.95356,42.64147],[127.95917,42.62096],[127.98143,42.61051],[127.99517,42.58855],[128.02778,42.56122],[128.02023,42.54162],[128.03388,42.52866],[128.03427,42.50058],[128.04356,42.48013],[128.01859,42.45075],[128.01627,42.42785],[128.00717,42.41421],[127.95994,42.39295],[127.94378,42.3677],[127.90352,42.36687],[127.90352,42.34904],[127.88775,42.3301],[127.81778,42.32349],[127.81071,42.29676],[127.82891,42.28081],[127.85455,42.28336],[127.87768,42.26691],[127.88533,42.2431],[127.91262,42.23108],[127.91543,42.20409],[127.92781,42.18867],[127.96836,42.16467],[127.96091,42.14562],[127.98752,42.12522],[128.0153,42.08743],[128.03659,42.04285],[128.0392,42.02991],[128.06456,42.01154]]]}}]}