{"type":"FeatureCollection","features":[{"type":"Feature","id":"datav:430100","properties":{"boundaryId":"datav:430100","nodeId":"geo:cn-hn-csx","parentNodeId":"geo:cn-hn","bounds":[111.89917,27.84807,114.26012,28.64644]},"geometry":{"type":"Polygon","coordinates":[[[111.90261,28.02198],[111.9083,28.00019],[111.9001,27.98134],[111.91262,27.9738],[111.93631,27.99123],[111.95125,27.98708],[111.96416,27.96517],[111.98226,27.95435],[111.99971,27.90784],[112.01755,27.90631],[112.06022,27.92003],[112.08773,27.90838],[112.0931,27.89592],[112.11826,27.89761],[112.16066,27.91691],[112.15885,27.92834],[112.19906,27.96222],[112.21109,27.95375],[112.23035,27.96184],[112.25765,27.95916],[112.29846,27.97124],[112.31301,27.95916],[112.3426,27.95719],[112.37111,27.97003],[112.38981,27.96211],[112.41131,27.96326],[112.41503,28.01521],[112.41011,28.03159],[112.42291,28.04934],[112.44397,28.05731],[112.48024,28.05627],[112.48626,28.04022],[112.5164,28.01881],[112.51181,27.99467],[112.53112,27.99413],[112.53949,27.97539],[112.56137,27.98047],[112.57669,27.95932],[112.59693,27.95348],[112.59474,27.93151],[112.61164,27.90029],[112.64944,27.88028],[112.65705,27.90035],[112.64195,27.92331],[112.65459,27.94151],[112.71246,27.91648],[112.73101,27.91697],[112.75842,27.96539],[112.76367,28.00232],[112.77702,28.03694],[112.80426,28.02564],[112.80869,28.03689],[112.77712,28.06113],[112.7827,28.07358],[112.81591,28.06151],[112.83177,28.02739],[112.85048,28.02127],[112.85869,27.98888],[112.88227,27.99292],[112.88374,27.97916],[112.92412,27.9749],[112.93763,27.99238],[112.95677,27.99893],[113.00316,27.96517],[113.0239,27.97697],[113.04168,28.0062],[113.07171,28.0109],[113.09097,27.98987],[113.07373,27.972],[113.0867,27.95009],[113.10864,27.93304],[113.12209,27.91429],[113.13664,27.915],[113.13883,27.94572],[113.15874,27.96637],[113.14862,27.99227],[113.17067,27.99992],[113.17581,28.01505],[113.20918,28.01232],[113.2146,28.02406],[113.24387,28.00991],[113.26405,28.01171],[113.27767,27.97063],[113.26668,27.93419],[113.28161,27.89444],[113.27499,27.86267],[113.30076,27.86885],[113.3594,27.84807],[113.41323,27.8578],[113.41553,27.88898],[113.42417,27.89767],[113.45951,27.90018],[113.46361,27.91822],[113.4902,27.93943],[113.52155,27.94233],[113.52592,27.95993],[113.5757,27.95976],[113.57822,27.93976],[113.56941,27.92779],[113.5768,27.89975],[113.59141,27.89127],[113.60218,27.91358],[113.63397,27.89576],[113.64491,27.87973],[113.66066,27.88493],[113.69693,27.86989],[113.73041,27.88471],[113.75344,27.93468],[113.77106,27.95271],[113.79272,27.95506],[113.80295,27.97402],[113.84524,27.97167],[113.85984,28.00172],[113.90016,27.98757],[113.91427,27.99134],[113.93555,28.01892],[113.94403,28.01417],[113.96881,28.04115],[114.02757,28.0418],[114.0471,28.05747],[114.01734,28.10278],[114.00596,28.14484],[113.99266,28.16142],[114.04803,28.17669],[114.06865,28.17168],[114.1053,28.18149],[114.10661,28.20161],[114.12122,28.21312],[114.14502,28.24778],[114.17067,28.2535],[114.19912,28.27247],[114.19814,28.29072],[114.2157,28.29399],[114.25552,28.32661],[114.2471,28.3381],[114.26012,28.35569],[114.25246,28.39575],[114.22817,28.39542],[114.2146,28.40304],[114.20224,28.42442],[114.18298,28.43688],[114.21931,28.47055],[114.21881,28.48262],[114.19562,28.49855],[114.17467,28.49736],[114.15465,28.50758],[114.13812,28.53372],[114.10065,28.5403],[114.08676,28.5559],[114.05175,28.54437],[114.02543,28.5428],[113.99578,28.56492],[113.97598,28.56475],[113.96247,28.54231],[113.94124,28.52639],[113.90322,28.52861],[113.88955,28.51562],[113.85847,28.53226],[113.84441,28.52389],[113.81755,28.46685],[113.7297,28.44129],[113.71777,28.42404],[113.70464,28.42219],[113.66143,28.45445],[113.63583,28.48262],[113.61531,28.49573],[113.57592,28.53639],[113.54726,28.52508],[113.50738,28.53693],[113.50092,28.55916],[113.47439,28.5798],[113.46274,28.59653],[113.4146,28.59088],[113.4245,28.63607],[113.41181,28.63227],[113.38479,28.64454],[113.36011,28.63145],[113.34923,28.61657],[113.32034,28.61576],[113.31,28.63314],[113.28364,28.63873],[113.2518,28.62972],[113.23473,28.64644],[113.21646,28.63808],[113.21547,28.62081],[113.18325,28.59686],[113.20076,28.55557],[113.18593,28.52921],[113.18544,28.50339],[113.1699,28.48045],[113.15431,28.47088],[113.12866,28.47398],[113.13046,28.4985],[113.085,28.50823],[113.06372,28.50529],[113.0414,28.48491],[112.99184,28.46092],[112.96077,28.47708],[112.97773,28.49855],[112.97866,28.52345],[112.93982,28.5085],[112.92127,28.5203],[112.89129,28.52475],[112.85262,28.51252],[112.82253,28.5128],[112.79206,28.52302],[112.77269,28.54639],[112.74687,28.51046],[112.71454,28.51062],[112.68538,28.52541],[112.67258,28.51753],[112.65442,28.48452],[112.62729,28.46827],[112.62428,28.44607],[112.61213,28.42453],[112.58424,28.40244],[112.57521,28.3546],[112.56246,28.34474],[112.55393,28.31893],[112.52597,28.32596],[112.48692,28.30924],[112.45125,28.31784],[112.40847,28.29437],[112.35278,28.29126],[112.31667,28.28298],[112.32247,28.26326],[112.30644,28.26135],[112.29414,28.24707],[112.28068,28.25263],[112.23795,28.21045],[112.22329,28.23394],[112.21011,28.23923],[112.178,28.23574],[112.14621,28.25454],[112.1373,28.26664],[112.11629,28.2717],[112.05168,28.25127],[112.03314,28.25247],[112.00967,28.24402],[112.00349,28.22451],[111.98659,28.22418],[111.96213,28.20886],[111.93325,28.16813],[111.93188,28.13333],[111.90885,28.11604],[111.89917,28.09983],[111.92625,28.0655],[111.91104,28.05229],[111.91312,28.02799],[111.90261,28.02198]]]}},{"type":"Feature","id":"datav:430200","properties":{"boundaryId":"datav:430200","nodeId":"geo:cn-hn-zzs","parentNodeId":"geo:cn-hn","bounds":[112.96941,26.04113,114.11012,28.02406]},"geometry":{"type":"Polygon","coordinates":[[[113.73041,27.88471],[113.69693,27.86989],[113.66066,27.88493],[113.64491,27.87973],[113.63397,27.89576],[113.60218,27.91358],[113.59141,27.89127],[113.5768,27.89975],[113.56941,27.92779],[113.57822,27.93976],[113.5757,27.95976],[113.52592,27.95993],[113.52155,27.94233],[113.4902,27.93943],[113.46361,27.91822],[113.45951,27.90018],[113.42417,27.89767],[113.41553,27.88898],[113.41323,27.8578],[113.3594,27.84807],[113.30076,27.86885],[113.27499,27.86267],[113.28161,27.89444],[113.26668,27.93419],[113.27767,27.97063],[113.26405,28.01171],[113.24387,28.00991],[113.2146,28.02406],[113.20918,28.01232],[113.17581,28.01505],[113.17067,27.99992],[113.14862,27.99227],[113.15874,27.96637],[113.13883,27.94572],[113.13664,27.915],[113.12209,27.91429],[113.10864,27.93304],[113.0867,27.95009],[113.06919,27.93856],[113.06132,27.9109],[113.03861,27.86409],[113.04638,27.84643],[113.01246,27.8229],[113.00377,27.79877],[113.02302,27.79182],[113.03369,27.77064],[113.03205,27.74239],[113.05896,27.72711],[113.05043,27.71101],[113.0262,27.71101],[113.00847,27.68478],[112.99507,27.67661],[113.01613,27.6604],[113.03883,27.62159],[113.01897,27.61271],[112.98883,27.57834],[112.97215,27.5688],[112.97652,27.54214],[112.96941,27.51164],[112.98396,27.48733],[112.9954,27.43831],[112.99425,27.40706],[113.00202,27.39273],[113.02417,27.38581],[113.02527,27.36724],[113.04222,27.35092],[113.03254,27.32927],[113.05103,27.28749],[113.08588,27.26643],[113.08243,27.2539],[113.12751,27.20736],[113.13325,27.22964],[113.1483,27.2517],[113.16432,27.23602],[113.18298,27.24092],[113.24841,27.23943],[113.27193,27.20571],[113.28396,27.17863],[113.2803,27.16664],[113.25782,27.16014],[113.21947,27.13174],[113.19348,27.1357],[113.16799,27.12618],[113.16454,27.10129],[113.19387,27.07606],[113.19802,27.04069],[113.21586,27.0408],[113.22559,26.9563],[113.24501,26.93832],[113.28096,26.93997],[113.27833,26.92845],[113.2571,26.91769],[113.25475,26.90026],[113.23971,26.89447],[113.23287,26.86097],[113.25978,26.8278],[113.28533,26.79969],[113.27811,26.77772],[113.29928,26.7681],[113.31509,26.79616],[113.33812,26.81024],[113.38446,26.7971],[113.3943,26.80477],[113.42811,26.76976],[113.40076,26.70694],[113.38145,26.6939],[113.40098,26.65825],[113.41547,26.64569],[113.41805,26.62938],[113.39912,26.59697],[113.4146,26.5874],[113.42948,26.55874],[113.47707,26.56267],[113.49578,26.58419],[113.52346,26.59548],[113.5413,26.59271],[113.56219,26.57517],[113.55869,26.5495],[113.57297,26.51911],[113.6036,26.50765],[113.589,26.46712],[113.60328,26.44835],[113.60771,26.4191],[113.5832,26.39466],[113.58353,26.37033],[113.5925,26.36019],[113.59895,26.32665],[113.61706,26.30824],[113.6152,26.2789],[113.64414,26.26797],[113.65546,26.27058],[113.67833,26.24727],[113.72516,26.22375],[113.73872,26.18317],[113.72926,26.13925],[113.70246,26.12442],[113.69327,26.09581],[113.70907,26.06581],[113.73643,26.04113],[113.75071,26.04163],[113.78096,26.06614],[113.78079,26.0937],[113.79162,26.10431],[113.82478,26.08409],[113.84507,26.0957],[113.86028,26.11931],[113.89644,26.13553],[113.91449,26.15874],[113.94611,26.1845],[113.97007,26.2021],[113.97893,26.23773],[114.02932,26.26636],[114.02122,26.28306],[114.04179,26.30957],[114.03561,26.32338],[114.03977,26.34566],[114.03626,26.37731],[114.06252,26.40613],[114.08544,26.40624],[114.09053,26.45571],[114.11012,26.48301],[114.0727,26.47991],[114.08419,26.50499],[114.08626,26.52575],[114.1059,26.55968],[114.10809,26.57501],[114.04256,26.57993],[114.01974,26.58745],[114.01766,26.59962],[113.99638,26.61561],[113.96001,26.6181],[113.93894,26.61284],[113.90645,26.61567],[113.88495,26.6358],[113.88145,26.65432],[113.8605,26.66411],[113.86269,26.68948],[113.85645,26.71474],[113.85355,26.76943],[113.83577,26.80638],[113.85793,26.8268],[113.87746,26.85948],[113.89206,26.86053],[113.89141,26.89783],[113.90218,26.92586],[113.92636,26.94714],[113.92138,26.96005],[113.8925,26.96473],[113.87149,26.9901],[113.86329,27.01848],[113.84813,27.01666],[113.83851,27.03496],[113.81668,27.04681],[113.81192,27.08157],[113.77193,27.09638],[113.77937,27.13719],[113.81471,27.17429],[113.82303,27.193],[113.8472,27.22249],[113.8599,27.26913],[113.87171,27.28474],[113.85464,27.30525],[113.87292,27.34675],[113.87264,27.38487],[113.82292,27.36477],[113.81088,27.36839],[113.7629,27.36087],[113.74365,27.34872],[113.72275,27.349],[113.69978,27.33207],[113.67215,27.33328],[113.65771,27.34746],[113.61668,27.34543],[113.60437,27.36554],[113.60267,27.38575],[113.62975,27.40102],[113.62067,27.41827],[113.59775,27.42876],[113.59967,27.45033],[113.59201,27.46817],[113.61438,27.47745],[113.6286,27.51224],[113.58336,27.5247],[113.57882,27.54516],[113.6088,27.58497],[113.60727,27.62538],[113.61941,27.64176],[113.65213,27.66363],[113.66974,27.69486],[113.69633,27.7189],[113.69901,27.74113],[113.73123,27.77447],[113.76323,27.79932],[113.76351,27.84221],[113.75634,27.86021],[113.7315,27.86913],[113.73041,27.88471]]]}},{"type":"Feature","id":"datav:430300","properties":{"boundaryId":"datav:430300","nodeId":"geo:cn-hn-xgt","parentNodeId":"geo:cn-hn","bounds":[111.99971,27.34378,113.09097,28.07358]},"geometry":{"type":"Polygon","coordinates":[[[111.99971,27.90784],[112.0123,27.87864],[112.01481,27.84708],[112.04052,27.83953],[112.04687,27.81705],[112.0699,27.80397],[112.08702,27.81382],[112.10125,27.80736],[112.1065,27.79062],[112.09868,27.765],[112.13062,27.74743],[112.09911,27.73467],[112.08183,27.72175],[112.05349,27.71414],[112.04879,27.68834],[112.07094,27.6696],[112.067,27.65848],[112.09124,27.64237],[112.10426,27.65338],[112.12488,27.64615],[112.14578,27.66516],[112.15486,27.64949],[112.19939,27.65431],[112.2071,27.67053],[112.22264,27.67152],[112.24085,27.69108],[112.24337,27.70773],[112.26853,27.70094],[112.29053,27.7057],[112.3042,27.69787],[112.32061,27.6753],[112.3135,27.65103],[112.28888,27.64692],[112.28391,27.63365],[112.33079,27.60252],[112.33429,27.58141],[112.32532,27.55618],[112.30858,27.53457],[112.30141,27.50319],[112.30639,27.49282],[112.34611,27.49627],[112.3658,27.48091],[112.39348,27.49254],[112.40601,27.52409],[112.42712,27.52607],[112.42964,27.49979],[112.46016,27.49046],[112.47023,27.46192],[112.52198,27.42919],[112.53889,27.41667],[112.56689,27.44177],[112.58724,27.43705],[112.59261,27.455],[112.61514,27.46598],[112.64627,27.46472],[112.65973,27.45231],[112.69069,27.45412],[112.6774,27.41926],[112.68566,27.40569],[112.70409,27.40767],[112.72751,27.39487],[112.76033,27.40399],[112.77417,27.37636],[112.80382,27.36202],[112.81569,27.34378],[112.83495,27.35438],[112.90191,27.36054],[112.92494,27.36707],[112.92182,27.40987],[112.9396,27.42628],[112.97811,27.43919],[112.9954,27.43831],[112.98396,27.48733],[112.96941,27.51164],[112.97652,27.54214],[112.97215,27.5688],[112.98883,27.57834],[113.01897,27.61271],[113.03883,27.62159],[113.01613,27.6604],[112.99507,27.67661],[113.00847,27.68478],[113.0262,27.71101],[113.05043,27.71101],[113.05896,27.72711],[113.03205,27.74239],[113.03369,27.77064],[113.02302,27.79182],[113.00377,27.79877],[113.01246,27.8229],[113.04638,27.84643],[113.03861,27.86409],[113.06132,27.9109],[113.06919,27.93856],[113.0867,27.95009],[113.07373,27.972],[113.09097,27.98987],[113.07171,28.0109],[113.04168,28.0062],[113.0239,27.97697],[113.00316,27.96517],[112.95677,27.99893],[112.93763,27.99238],[112.92412,27.9749],[112.88374,27.97916],[112.88227,27.99292],[112.85869,27.98888],[112.85048,28.02127],[112.83177,28.02739],[112.81591,28.06151],[112.7827,28.07358],[112.77712,28.06113],[112.80869,28.03689],[112.80426,28.02564],[112.77702,28.03694],[112.76367,28.00232],[112.75842,27.96539],[112.73101,27.91697],[112.71246,27.91648],[112.65459,27.94151],[112.64195,27.92331],[112.65705,27.90035],[112.64944,27.88028],[112.61164,27.90029],[112.59474,27.93151],[112.59693,27.95348],[112.57669,27.95932],[112.56137,27.98047],[112.53949,27.97539],[112.53112,27.99413],[112.51181,27.99467],[112.5164,28.01881],[112.48626,28.04022],[112.48024,28.05627],[112.44397,28.05731],[112.42291,28.04934],[112.41011,28.03159],[112.41503,28.01521],[112.41131,27.96326],[112.38981,27.96211],[112.37111,27.97003],[112.3426,27.95719],[112.31301,27.95916],[112.29846,27.97124],[112.25765,27.95916],[112.23035,27.96184],[112.21109,27.95375],[112.19906,27.96222],[112.15885,27.92834],[112.16066,27.91691],[112.11826,27.89761],[112.0931,27.89592],[112.08773,27.90838],[112.06022,27.92003],[112.01755,27.90631],[111.99971,27.90784]]]}},{"type":"Feature","id":"datav:430400","properties":{"boundaryId":"datav:430400","nodeId":"geo:cn-hn-hny","parentNodeId":"geo:cn-hn","bounds":[111.54359,26.11103,113.28396,27.46598]},"geometry":{"type":"Polygon","coordinates":[[[112.9954,27.43831],[112.97811,27.43919],[112.9396,27.42628],[112.92182,27.40987],[112.92494,27.36707],[112.90191,27.36054],[112.83495,27.35438],[112.81569,27.34378],[112.80382,27.36202],[112.77417,27.37636],[112.76033,27.40399],[112.72751,27.39487],[112.70409,27.40767],[112.68566,27.40569],[112.6774,27.41926],[112.69069,27.45412],[112.65973,27.45231],[112.64627,27.46472],[112.61514,27.46598],[112.59261,27.455],[112.58724,27.43705],[112.56689,27.44177],[112.53889,27.41667],[112.52198,27.42919],[112.49901,27.39773],[112.49988,27.37493],[112.47187,27.3724],[112.45989,27.35515],[112.43237,27.35422],[112.40852,27.36147],[112.36815,27.35609],[112.33106,27.37021],[112.29972,27.35872],[112.28259,27.33707],[112.27986,27.31223],[112.23905,27.28782],[112.23309,27.26539],[112.21394,27.26891],[112.19063,27.31179],[112.16388,27.32454],[112.15365,27.30569],[112.16306,27.27732],[112.15054,27.26583],[112.15409,27.23938],[112.1379,27.23701],[112.09217,27.20565],[112.09124,27.18562],[112.07067,27.19107],[112.05814,27.17544],[112.0466,27.13267],[112.05601,27.11665],[112.05622,27.08575],[112.05059,27.0711],[112.07182,27.06499],[112.08686,27.03391],[112.0868,27.01325],[112.06011,27.01303],[112.04321,26.99566],[112.04714,26.97527],[112.01985,26.9649],[112.00064,26.94367],[111.97253,26.95812],[111.9356,26.95222],[111.9298,26.93854],[111.89851,26.92663],[111.8984,26.98668],[111.8687,27.01341],[111.84195,27.00873],[111.81744,27.02096],[111.80787,27.03314],[111.77668,27.04659],[111.77253,27.05805],[111.7379,27.06157],[111.72477,27.06906],[111.68828,27.03138],[111.6658,27.03176],[111.64977,27.00112],[111.6577,26.98602],[111.64971,26.96292],[111.62203,26.9542],[111.58757,26.96694],[111.56711,26.93485],[111.58314,26.92503],[111.5891,26.89673],[111.55103,26.86003],[111.54359,26.84094],[111.54594,26.82172],[111.55808,26.80864],[111.57537,26.80936],[111.60125,26.78589],[111.62964,26.78931],[111.65086,26.84044],[111.66596,26.84331],[111.68462,26.83354],[111.71924,26.84728],[111.74501,26.82553],[111.75371,26.80704],[111.77214,26.80875],[111.78128,26.78915],[111.82056,26.8045],[111.81706,26.78401],[111.85021,26.78981],[111.85918,26.79958],[111.90333,26.75175],[111.92707,26.71103],[111.94036,26.69943],[111.96098,26.64531],[111.9902,26.62418],[112.00601,26.59691],[112.01974,26.61921],[111.99567,26.63939],[112.02849,26.65183],[112.09419,26.64514],[112.10978,26.65404],[112.12636,26.63574],[112.15108,26.62573],[112.14392,26.59343],[112.17056,26.58535],[112.17472,26.57119],[112.16274,26.53931],[112.14736,26.52747],[112.15245,26.50273],[112.19047,26.53688],[112.21312,26.54856],[112.24271,26.53505],[112.2367,26.50538],[112.21126,26.50273],[112.19534,26.48661],[112.1757,26.50018],[112.16,26.49387],[112.16651,26.47703],[112.16191,26.45073],[112.14063,26.40796],[112.15015,26.38463],[112.14818,26.35736],[112.1815,26.34339],[112.19042,26.31223],[112.21246,26.30563],[112.19731,26.27729],[112.20081,26.26237],[112.1949,26.20687],[112.18593,26.18567],[112.19545,26.17201],[112.21722,26.16546],[112.23139,26.13442],[112.23243,26.11787],[112.2577,26.12331],[112.28445,26.14364],[112.30426,26.13292],[112.31044,26.15857],[112.33779,26.16757],[112.35705,26.16129],[112.36432,26.18128],[112.38664,26.20521],[112.39507,26.18617],[112.42926,26.18972],[112.47953,26.17579],[112.48872,26.15091],[112.50781,26.15957],[112.5129,26.13558],[112.52909,26.14758],[112.57838,26.15363],[112.57231,26.19338],[112.58106,26.21908],[112.60283,26.21709],[112.60896,26.19844],[112.6234,26.19211],[112.6373,26.13892],[112.67379,26.11103],[112.7204,26.12547],[112.74622,26.1438],[112.78216,26.14602],[112.78812,26.17534],[112.78604,26.19699],[112.81854,26.18667],[112.81875,26.16179],[112.83856,26.15574],[112.89107,26.15652],[112.9036,26.14847],[112.921,26.15796],[112.92105,26.1744],[112.94261,26.17079],[112.96865,26.15424],[112.99299,26.16235],[113.00864,26.15563],[113.03566,26.17284],[113.03993,26.21359],[113.02587,26.24528],[113.09168,26.2501],[113.08714,26.27363],[113.10355,26.29054],[113.12882,26.29304],[113.12734,26.31356],[113.14206,26.32587],[113.17379,26.3297],[113.15656,26.36246],[113.16711,26.37427],[113.16044,26.38773],[113.16356,26.40957],[113.19124,26.40619],[113.21219,26.42525],[113.19228,26.44552],[113.21011,26.46518],[113.22685,26.46707],[113.23008,26.48207],[113.21432,26.50245],[113.18965,26.50616],[113.17166,26.52121],[113.15918,26.54164],[113.17915,26.56444],[113.1867,26.60809],[113.17959,26.63834],[113.18818,26.66245],[113.18298,26.68777],[113.16088,26.68788],[113.15229,26.70053],[113.12231,26.72319],[113.12904,26.74413],[113.09556,26.75993],[113.09726,26.78164],[113.14906,26.79213],[113.14414,26.83448],[113.1605,26.82752],[113.20634,26.82548],[113.22368,26.8209],[113.23807,26.80522],[113.25853,26.81549],[113.25978,26.8278],[113.23287,26.86097],[113.23971,26.89447],[113.25475,26.90026],[113.2571,26.91769],[113.27833,26.92845],[113.28096,26.93997],[113.24501,26.93832],[113.22559,26.9563],[113.21586,27.0408],[113.19802,27.04069],[113.19387,27.07606],[113.16454,27.10129],[113.16799,27.12618],[113.19348,27.1357],[113.21947,27.13174],[113.25782,27.16014],[113.2803,27.16664],[113.28396,27.17863],[113.27193,27.20571],[113.24841,27.23943],[113.18298,27.24092],[113.16432,27.23602],[113.1483,27.2517],[113.13325,27.22964],[113.12751,27.20736],[113.08243,27.2539],[113.08588,27.26643],[113.05103,27.28749],[113.03254,27.32927],[113.04222,27.35092],[113.02527,27.36724],[113.02417,27.38581],[113.00202,27.39273],[112.99425,27.40706],[112.9954,27.43831]]]}},{"type":"Feature","id":"datav:430500","properties":{"boundaryId":"datav:430500","nodeId":"geo:cn-hn-syr","parentNodeId":"geo:cn-hn","bounds":[109.82684,25.9614,112.09217,27.66012]},"geometry":{"type":"Polygon","coordinates":[[[111.00857,26.35886],[111.02509,26.38458],[111.01919,26.40103],[111.03177,26.4325],[111.04495,26.44092],[111.06027,26.47377],[111.05644,26.48661],[111.06722,26.50555],[111.06393,26.55841],[111.07356,26.58784],[111.10474,26.58591],[111.11388,26.60925],[111.13713,26.61063],[111.12712,26.5775],[111.12586,26.55392],[111.14227,26.54131],[111.16596,26.51175],[111.15442,26.5004],[111.15551,26.48246],[111.18106,26.46336],[111.20332,26.46286],[111.22964,26.48113],[111.25135,26.48384],[111.27187,26.4994],[111.28877,26.49232],[111.29692,26.51175],[111.2885,26.55708],[111.30458,26.58336],[111.30606,26.61976],[111.29369,26.67284],[111.27624,26.68887],[111.32143,26.71424],[111.31722,26.73319],[111.32942,26.75761],[111.32411,26.78832],[111.31514,26.80257],[111.32985,26.83669],[111.3664,26.86494],[111.40644,26.85821],[111.41963,26.86781],[111.46011,26.8671],[111.48254,26.85678],[111.52827,26.865],[111.54359,26.84094],[111.55103,26.86003],[111.5891,26.89673],[111.58314,26.92503],[111.56711,26.93485],[111.58757,26.96694],[111.62203,26.9542],[111.64971,26.96292],[111.6577,26.98602],[111.64977,27.00112],[111.6658,27.03176],[111.68828,27.03138],[111.72477,27.06906],[111.7379,27.06157],[111.77253,27.05805],[111.77668,27.04659],[111.80787,27.03314],[111.81744,27.02096],[111.84195,27.00873],[111.8687,27.01341],[111.8984,26.98668],[111.89851,26.92663],[111.9298,26.93854],[111.9356,26.95222],[111.97253,26.95812],[112.00064,26.94367],[112.01985,26.9649],[112.04714,26.97527],[112.04321,26.99566],[112.06011,27.01303],[112.0868,27.01325],[112.08686,27.03391],[112.07182,27.06499],[112.05059,27.0711],[112.05622,27.08575],[112.05601,27.11665],[112.0466,27.13267],[112.05814,27.17544],[112.07067,27.19107],[112.09124,27.18562],[112.09217,27.20565],[112.06842,27.21864],[112.06241,27.28584],[112.04107,27.28914],[112.01804,27.31756],[111.9908,27.31734],[111.99031,27.34158],[111.9705,27.35751],[111.94085,27.36922],[111.90945,27.38894],[111.91284,27.4103],[111.85529,27.46115],[111.83516,27.44605],[111.81361,27.45434],[111.81076,27.47136],[111.7902,27.47048],[111.78746,27.49463],[111.74408,27.4994],[111.73095,27.51822],[111.71777,27.51658],[111.69299,27.53386],[111.66892,27.53715],[111.65404,27.51477],[111.63866,27.53792],[111.6414,27.57466],[111.61558,27.56616],[111.59463,27.58294],[111.58905,27.60657],[111.57406,27.60773],[111.56798,27.62708],[111.5536,27.62603],[111.54266,27.60964],[111.48937,27.59424],[111.47783,27.57867],[111.45792,27.59545],[111.44194,27.59747],[111.41437,27.57521],[111.40398,27.55739],[111.37652,27.53282],[111.3571,27.52289],[111.34982,27.53704],[111.32214,27.54686],[111.30086,27.5671],[111.25611,27.5428],[111.24462,27.52508],[111.22378,27.53616],[111.22077,27.55174],[111.19741,27.54916],[111.16952,27.56265],[111.15009,27.58218],[111.11629,27.57719],[111.10693,27.59073],[111.07411,27.59144],[111.07083,27.62061],[111.05994,27.6313],[111.02575,27.63568],[111.00808,27.62587],[110.99473,27.6524],[110.98379,27.66012],[110.94572,27.65382],[110.91749,27.6564],[110.88292,27.6507],[110.86919,27.65546],[110.85556,27.64735],[110.84566,27.62428],[110.85349,27.59205],[110.82433,27.57883],[110.80868,27.56337],[110.7868,27.56052],[110.74665,27.60383],[110.74369,27.61732],[110.71443,27.616],[110.71054,27.60696],[110.67405,27.60005],[110.63811,27.55591],[110.63264,27.53611],[110.64823,27.52958],[110.68029,27.49704],[110.68822,27.44385],[110.66311,27.42068],[110.64922,27.36521],[110.61486,27.3241],[110.60655,27.32108],[110.60906,27.28898],[110.574,27.28106],[110.55392,27.30822],[110.54085,27.30519],[110.51164,27.27375],[110.48352,27.26214],[110.46213,27.24708],[110.45627,27.2133],[110.44304,27.20125],[110.42405,27.19949],[110.37558,27.22304],[110.35212,27.19905],[110.35589,27.17528],[110.34271,27.15051],[110.30463,27.16697],[110.24949,27.15106],[110.22651,27.13036],[110.20047,27.11819],[110.19418,27.10211],[110.20835,27.08129],[110.2014,27.0619],[110.16262,27.04642],[110.15031,27.02289],[110.15365,26.99842],[110.14626,26.9869],[110.11628,26.97802],[110.1048,26.95194],[110.07591,26.94168],[110.07214,26.93203],[110.09741,26.90638],[110.09325,26.89116],[110.06355,26.88205],[110.04867,26.86075],[110.0421,26.83503],[110.05742,26.82272],[110.05655,26.80886],[110.06858,26.78462],[110.06169,26.76032],[110.04927,26.74756],[110.04747,26.72468],[110.06732,26.71838],[110.07208,26.70015],[110.04418,26.6981],[110.02033,26.66289],[110.00201,26.66659],[109.98762,26.68533],[109.9636,26.69186],[109.93406,26.67372],[109.91404,26.67621],[109.89894,26.65559],[109.85824,26.64343],[109.85146,26.6218],[109.83067,26.62153],[109.82684,26.60582],[109.87208,26.57102],[109.86267,26.53987],[109.89254,26.52548],[109.87969,26.5174],[109.87936,26.49702],[109.86234,26.48683],[109.87542,26.46817],[109.89139,26.45937],[109.91902,26.47465],[109.93488,26.45699],[109.95501,26.44691],[109.96683,26.42802],[109.98729,26.43245],[109.97865,26.38801],[110.01224,26.37249],[110.01771,26.34755],[110.00928,26.30402],[109.98428,26.27912],[109.99533,26.2587],[109.99276,26.23862],[109.97438,26.21836],[109.96623,26.19549],[109.98439,26.17995],[110.01672,26.18423],[110.03023,26.16613],[110.08401,26.17151],[110.09872,26.16912],[110.0944,26.14713],[110.10047,26.13303],[110.07443,26.08309],[110.06492,26.05002],[110.10102,26.02017],[110.11251,26.03479],[110.14046,26.02039],[110.16585,26.02384],[110.18166,26.06047],[110.20119,26.06614],[110.21213,26.04307],[110.24522,26.02228],[110.2513,26.00372],[110.24582,25.96857],[110.26169,25.9614],[110.30512,25.96735],[110.32553,25.97563],[110.35797,26.04647],[110.35327,26.05469],[110.37323,26.07853],[110.37712,26.09442],[110.42717,26.13803],[110.43795,26.15397],[110.47411,26.18017],[110.49052,26.16557],[110.51754,26.18683],[110.54665,26.23357],[110.5461,26.25726],[110.55524,26.28638],[110.58406,26.29692],[110.59511,26.31838],[110.61235,26.33369],[110.6258,26.31567],[110.64375,26.30846],[110.66722,26.31761],[110.6978,26.30874],[110.72094,26.29421],[110.74178,26.31389],[110.75004,26.29049],[110.73521,26.27102],[110.75819,26.25521],[110.81465,26.25881],[110.84118,26.25732],[110.85562,26.26813],[110.91492,26.27634],[110.9304,26.26436],[110.93976,26.28666],[110.92542,26.31872],[110.94391,26.3267],[110.95053,26.35697],[110.94484,26.3736],[110.97455,26.38557],[110.99189,26.36357],[111.00857,26.35886]]]}},{"type":"Feature","id":"datav:430600","properties":{"boundaryId":"datav:430600","nodeId":"geo:cn-hn-yyg","parentNodeId":"geo:cn-hn","bounds":[112.31574,28.42219,114.15711,29.84891]},"geometry":{"type":"MultiPolygon","coordinates":[[[[112.31574,29.5243],[112.33112,29.51057],[112.32444,29.48042],[112.32827,29.45009],[112.36678,29.44255],[112.38615,29.42687],[112.39206,29.39648],[112.43992,29.36063],[112.46427,29.35351],[112.49096,29.3376],[112.50207,29.3122],[112.54736,29.30179],[112.57942,29.30367],[112.61181,29.33329],[112.63445,29.33598],[112.65256,29.32142],[112.66476,29.30038],[112.69988,29.28738],[112.68331,29.27497],[112.6937,29.25398],[112.67909,29.2448],[112.67756,29.20539],[112.68243,29.19227],[112.71126,29.18535],[112.74195,29.16828],[112.77559,29.1766],[112.79386,29.19092],[112.81345,29.17865],[112.79851,29.1598],[112.8129,29.1524],[112.88161,29.16277],[112.92466,29.14943],[112.92707,29.10906],[112.93905,29.06554],[112.94939,29.06078],[112.92795,29.02303],[112.8914,28.99939],[112.87609,28.98408],[112.87242,28.96297],[112.83812,28.9293],[112.78418,28.91197],[112.77319,28.90276],[112.72291,28.88348],[112.68517,28.87974],[112.65984,28.84084],[112.67297,28.81152],[112.67171,28.79157],[112.64178,28.78945],[112.61914,28.77856],[112.60376,28.74688],[112.56908,28.73164],[112.55223,28.72958],[112.54824,28.71233],[112.52641,28.70256],[112.52532,28.67836],[112.5106,28.6548],[112.5338,28.64041],[112.55256,28.6441],[112.56367,28.62939],[112.585,28.62092],[112.59014,28.60169],[112.56372,28.57095],[112.59195,28.54296],[112.62937,28.5472],[112.65869,28.58051],[112.67515,28.58121],[112.68402,28.59637],[112.70535,28.59957],[112.7361,28.56823],[112.72652,28.5572],[112.68828,28.54432],[112.68538,28.52541],[112.71454,28.51062],[112.74687,28.51046],[112.77269,28.54639],[112.79206,28.52302],[112.82253,28.5128],[112.85262,28.51252],[112.89129,28.52475],[112.92127,28.5203],[112.93982,28.5085],[112.97866,28.52345],[112.97773,28.49855],[112.96077,28.47708],[112.99184,28.46092],[113.0414,28.48491],[113.06372,28.50529],[113.085,28.50823],[113.13046,28.4985],[113.12866,28.47398],[113.15431,28.47088],[113.1699,28.48045],[113.18544,28.50339],[113.18593,28.52921],[113.20076,28.55557],[113.18325,28.59686],[113.21547,28.62081],[113.21646,28.63808],[113.23473,28.64644],[113.2518,28.62972],[113.28364,28.63873],[113.31,28.63314],[113.32034,28.61576],[113.34923,28.61657],[113.36011,28.63145],[113.38479,28.64454],[113.41181,28.63227],[113.4245,28.63607],[113.4146,28.59088],[113.46274,28.59653],[113.47439,28.5798],[113.50092,28.55916],[113.50738,28.53693],[113.54726,28.52508],[113.57592,28.53639],[113.61531,28.49573],[113.63583,28.48262],[113.66143,28.45445],[113.70464,28.42219],[113.71777,28.42404],[113.7297,28.44129],[113.81755,28.46685],[113.84441,28.52389],[113.85847,28.53226],[113.88955,28.51562],[113.90322,28.52861],[113.94124,28.52639],[113.96247,28.54231],[113.97598,28.56475],[113.99578,28.56492],[114.02543,28.5428],[114.05175,28.54437],[114.08676,28.5559],[114.10454,28.58312],[114.1187,28.58686],[114.13211,28.60718],[114.12226,28.62325],[114.13309,28.67168],[114.1233,28.68221],[114.13998,28.70294],[114.15711,28.76147],[114.13747,28.77975],[114.15196,28.8016],[114.15393,28.82935],[114.13446,28.82697],[114.12489,28.84328],[114.08041,28.83325],[114.0564,28.87053],[114.06684,28.88451],[114.06017,28.90238],[114.02396,28.90769],[114.00393,28.92648],[114.00886,28.95539],[113.96673,28.94429],[113.95568,28.97839],[113.96148,28.99695],[113.94622,29.01795],[113.946,29.04478],[113.93336,29.04597],[113.9117,29.03077],[113.87658,29.03823],[113.86865,29.06581],[113.85262,29.05867],[113.83156,29.06933],[113.83703,29.08679],[113.81597,29.10533],[113.7756,29.09522],[113.74945,29.06095],[113.73418,29.06446],[113.72275,29.10474],[113.69633,29.07765],[113.68561,29.0823],[113.69058,29.11452],[113.66799,29.14376],[113.66203,29.16726],[113.69381,29.20182],[113.69009,29.23082],[113.64644,29.23141],[113.63522,29.25063],[113.60962,29.25155],[113.61362,29.27243],[113.63304,29.3184],[113.66104,29.33345],[113.66093,29.36823],[113.67002,29.38456],[113.6919,29.3927],[113.73189,29.39481],[113.74173,29.41286],[113.73697,29.42628],[113.75492,29.44756],[113.73774,29.47035],[113.70727,29.48575],[113.68856,29.50966],[113.64337,29.50782],[113.63139,29.52349],[113.68085,29.53937],[113.71394,29.57058],[113.73566,29.5765],[113.74102,29.59156],[113.72292,29.61082],[113.70842,29.60899],[113.70278,29.63475],[113.68035,29.64137],[113.66236,29.68453],[113.63785,29.66986],[113.54715,29.6754],[113.54015,29.69963],[113.56115,29.73907],[113.55098,29.76818],[113.57724,29.81854],[113.5809,29.83566],[113.57155,29.84891],[113.51788,29.81242],[113.4931,29.7866],[113.45667,29.75921],[113.43861,29.75164],[113.37735,29.70318],[113.3262,29.64782],[113.29808,29.61383],[113.27729,29.59511],[113.27226,29.58086],[113.22242,29.54373],[113.1821,29.48559],[113.14534,29.44934],[113.13254,29.45736],[113.09999,29.45968],[113.10267,29.44303],[113.08074,29.43409],[113.0728,29.48279],[113.05765,29.52247],[113.0344,29.5236],[112.99031,29.49797],[112.96919,29.46905],[112.95016,29.47288],[112.93741,29.5271],[112.91186,29.60684],[112.91203,29.61615],[112.9454,29.6475],[113.00497,29.69378],[113.01525,29.71092],[113.0309,29.76227],[113.01181,29.7677],[112.97926,29.73762],[112.95781,29.69415],[112.94479,29.68276],[112.92702,29.69216],[112.93205,29.73993],[112.92275,29.76732],[112.88943,29.78574],[112.87001,29.78601],[112.84365,29.77108],[112.81542,29.74664],[112.79179,29.71371],[112.78856,29.67991],[112.73544,29.64626],[112.71897,29.65255],[112.69901,29.61077],[112.65065,29.59248],[112.62472,29.61652],[112.60716,29.61227],[112.5722,29.62389],[112.5408,29.60082],[112.50524,29.61098],[112.49911,29.62927],[112.45666,29.63594],[112.43965,29.63378],[112.42729,29.61695],[112.42483,29.59867],[112.39184,29.56784],[112.37028,29.54222],[112.33205,29.54475],[112.31574,29.5243]]],[[[112.92937,29.77409],[112.91969,29.7997],[112.89873,29.79326],[112.92937,29.77409]]]]}},{"type":"Feature","id":"datav:430700","properties":{"boundaryId":"datav:430700","nodeId":"geo:cn-hn-cde","parentNodeId":"geo:cn-hn","bounds":[110.49156,28.40489,112.30469,30.12599]},"geometry":{"type":"Polygon","coordinates":[[[112.28341,29.49523],[112.27822,29.50987],[112.28199,29.53711],[112.30272,29.56601],[112.30322,29.58549],[112.25196,29.61152],[112.2344,29.61582],[112.22045,29.63723],[112.18582,29.63432],[112.17816,29.65664],[112.15054,29.65454],[112.11153,29.65965],[112.08746,29.68174],[112.06547,29.68179],[112.05994,29.69577],[112.074,29.7171],[112.07641,29.74347],[112.06591,29.75465],[112.03122,29.76227],[112.00978,29.77806],[111.95486,29.79674],[111.95157,29.81424],[111.96093,29.83743],[111.9362,29.83249],[111.91459,29.85267],[111.88062,29.86002],[111.86339,29.85653],[111.83068,29.88791],[111.80962,29.90229],[111.75743,29.92009],[111.72488,29.91553],[111.70507,29.89006],[111.68177,29.88454],[111.65146,29.89296],[111.6217,29.89494],[111.59796,29.88936],[111.58401,29.89805],[111.55141,29.89521],[111.52745,29.92567],[111.51448,29.9277],[111.48347,29.91816],[111.43779,29.93001],[111.40535,29.91114],[111.38281,29.92363],[111.39014,29.93752],[111.37515,29.9544],[111.35168,29.9514],[111.29725,29.9902],[111.29769,30.00461],[111.267,30.01142],[111.25562,30.03456],[111.24222,30.04039],[111.17898,30.0405],[111.10666,30.04773],[111.03155,30.04885],[110.9984,30.05935],[110.92991,30.06342],[110.92302,30.07573],[110.92427,30.11133],[110.89791,30.10983],[110.81437,30.12599],[110.80299,30.11443],[110.76957,30.12021],[110.74637,30.11261],[110.756,30.08301],[110.75529,30.05282],[110.74211,30.04179],[110.71235,30.03316],[110.69408,30.04152],[110.68636,30.05914],[110.65097,30.07761],[110.59763,30.05442],[110.56475,30.05437],[110.53133,30.06112],[110.49599,30.04023],[110.49156,30.01972],[110.52011,30.00177],[110.54725,29.99958],[110.5572,29.98693],[110.51732,29.96137],[110.50808,29.94411],[110.50786,29.90894],[110.53784,29.89676],[110.53571,29.88035],[110.54998,29.848],[110.5978,29.84001],[110.61842,29.82659],[110.64003,29.78246],[110.63182,29.75776],[110.66109,29.73579],[110.66076,29.71962],[110.67258,29.70684],[110.72143,29.68749],[110.74769,29.70705],[110.76497,29.7099],[110.76656,29.6805],[110.81448,29.68056],[110.85442,29.69625],[110.87498,29.68491],[110.89036,29.6869],[110.94249,29.66803],[110.96508,29.67749],[110.99856,29.66717],[111.0321,29.66905],[111.04971,29.63696],[111.05332,29.61905],[111.07701,29.61932],[111.17345,29.60055],[111.25228,29.60055],[111.25458,29.58705],[111.27378,29.58086],[111.30092,29.5384],[111.32045,29.52085],[111.33751,29.49345],[111.3176,29.46437],[111.32969,29.44368],[111.31126,29.41927],[111.29173,29.40785],[111.3007,29.39599],[111.25923,29.38063],[111.23472,29.33264],[111.24555,29.32104],[111.25097,29.29461],[111.22017,29.25743],[111.23275,29.23989],[111.22318,29.22369],[111.20644,29.21754],[111.17788,29.22342],[111.15387,29.23773],[111.09282,29.20415],[111.07187,29.16985],[111.04348,29.13927],[111.02581,29.1377],[111.0223,29.12047],[110.98532,29.11101],[110.95846,29.13387],[110.92974,29.13084],[110.91311,29.11133],[110.86869,29.10809],[110.85256,29.09425],[110.86098,29.07306],[110.88215,29.05473],[110.90972,29.04872],[110.9147,29.03574],[110.91908,29.02254],[110.97072,28.99273],[110.98702,28.9884],[110.96536,28.96519],[110.95015,28.93731],[110.96284,28.91792],[110.9583,28.90639],[110.9897,28.89729],[111.01311,28.8513],[111.0403,28.82268],[111.06443,28.82344],[111.07876,28.79368],[111.11514,28.74336],[111.09632,28.7005],[111.06574,28.69659],[111.04665,28.68471],[111.06465,28.65974],[111.05168,28.6523],[111.01525,28.64986],[110.99534,28.63786],[110.99172,28.62],[110.93472,28.61755],[110.94594,28.60142],[110.9507,28.56823],[110.97838,28.58551],[111.00573,28.5836],[111.04977,28.60816],[111.06448,28.58279],[111.05474,28.57062],[111.07931,28.53769],[111.06755,28.53014],[111.01317,28.54579],[110.98166,28.51198],[110.9699,28.51252],[110.9438,28.47843],[110.92974,28.4848],[110.90535,28.4551],[110.86213,28.41882],[110.86043,28.40603],[110.88948,28.40489],[110.9787,28.43949],[111.00141,28.44015],[111.0502,28.45891],[111.06169,28.45168],[111.09353,28.45695],[111.10934,28.46816],[111.14495,28.4737],[111.15436,28.49654],[111.15217,28.51432],[111.19222,28.51883],[111.21519,28.53622],[111.22865,28.52247],[111.25261,28.53155],[111.28106,28.51791],[111.33379,28.52013],[111.37389,28.55182],[111.39659,28.54079],[111.43139,28.54742],[111.44337,28.55731],[111.46782,28.55693],[111.49145,28.57165],[111.53921,28.60973],[111.56722,28.63878],[111.62439,28.61831],[111.63609,28.62847],[111.66284,28.62467],[111.67351,28.59143],[111.7089,28.59425],[111.7234,28.60984],[111.71908,28.63645],[111.73068,28.65219],[111.75907,28.65344],[111.77619,28.63411],[111.79134,28.64313],[111.8106,28.64096],[111.82849,28.61576],[111.84403,28.61668],[111.85475,28.63699],[111.87307,28.63096],[111.90119,28.63596],[111.9182,28.6554],[111.92324,28.67695],[111.95152,28.6744],[111.98412,28.66386],[111.99846,28.64676],[112.03462,28.64003],[112.04074,28.65773],[112.03341,28.67342],[112.07045,28.67233],[112.09435,28.64199],[112.10737,28.6523],[112.13976,28.64932],[112.16903,28.6783],[112.18276,28.66837],[112.19972,28.67407],[112.20798,28.691],[112.23101,28.71184],[112.26492,28.71916],[112.28319,28.72844],[112.28341,28.77687],[112.29961,28.78485],[112.30469,28.82301],[112.27647,28.84073],[112.25699,28.86148],[112.25956,28.92274],[112.25732,28.96773],[112.24687,28.98083],[112.25404,29.04975],[112.24146,29.06792],[112.24528,29.10068],[112.23571,29.11441],[112.2112,29.11728],[112.18774,29.13452],[112.20163,29.17925],[112.22849,29.21608],[112.22876,29.25176],[112.2222,29.28733],[112.23423,29.29866],[112.26367,29.29871],[112.25119,29.31894],[112.25262,29.35195],[112.2617,29.37562],[112.2943,29.40612],[112.30032,29.44821],[112.28341,29.49523]]]}},{"type":"Feature","id":"datav:430800","properties":{"boundaryId":"datav:430800","nodeId":"geo:cn-hn-zjj","parentNodeId":"geo:cn-hn","bounds":[109.70124,28.88023,111.33751,29.78966]},"geometry":{"type":"Polygon","coordinates":[[[110.39041,28.88115],[110.4002,28.89572],[110.42312,28.90059],[110.43281,28.89079],[110.46804,28.88023],[110.49019,28.91126],[110.52438,28.88613],[110.54397,28.88933],[110.53899,28.90845],[110.52104,28.93276],[110.55354,28.96335],[110.54178,28.98229],[110.57258,29.00058],[110.59331,28.96935],[110.62072,28.96519],[110.65699,28.93503],[110.6705,28.91083],[110.6909,28.92399],[110.71694,28.91343],[110.73937,28.92448],[110.76366,28.90585],[110.78888,28.91381],[110.81142,28.95528],[110.8368,28.94186],[110.85184,28.95203],[110.84047,28.99257],[110.86071,28.99896],[110.88915,28.99246],[110.91514,29.00853],[110.9031,29.0213],[110.9147,29.03574],[110.90972,29.04872],[110.88215,29.05473],[110.86098,29.07306],[110.85256,29.09425],[110.86869,29.10809],[110.91311,29.11133],[110.92974,29.13084],[110.95846,29.13387],[110.98532,29.11101],[111.0223,29.12047],[111.02581,29.1377],[111.04348,29.13927],[111.07187,29.16985],[111.09282,29.20415],[111.15387,29.23773],[111.17788,29.22342],[111.20644,29.21754],[111.22318,29.22369],[111.23275,29.23989],[111.22017,29.25743],[111.25097,29.29461],[111.24555,29.32104],[111.23472,29.33264],[111.25923,29.38063],[111.3007,29.39599],[111.29173,29.40785],[111.31126,29.41927],[111.32969,29.44368],[111.3176,29.46437],[111.33751,29.49345],[111.32045,29.52085],[111.30092,29.5384],[111.27378,29.58086],[111.25458,29.58705],[111.25228,29.60055],[111.17345,29.60055],[111.07701,29.61932],[111.05332,29.61905],[111.04971,29.63696],[111.0321,29.66905],[110.99856,29.66717],[110.96508,29.67749],[110.94249,29.66803],[110.89036,29.6869],[110.87498,29.68491],[110.85442,29.69625],[110.81448,29.68056],[110.76656,29.6805],[110.76497,29.7099],[110.74769,29.70705],[110.72143,29.68749],[110.67258,29.70684],[110.66076,29.71962],[110.66109,29.73579],[110.63182,29.75776],[110.60206,29.74202],[110.56284,29.71258],[110.52526,29.69351],[110.5071,29.69211],[110.46519,29.71307],[110.44938,29.69082],[110.44703,29.66465],[110.41388,29.65465],[110.37258,29.63352],[110.35584,29.63884],[110.33948,29.66814],[110.31568,29.66115],[110.29205,29.67185],[110.28992,29.69641],[110.27821,29.70909],[110.21989,29.74664],[110.18817,29.75449],[110.16081,29.75379],[110.14489,29.77113],[110.11349,29.78966],[110.06415,29.78284],[110.02416,29.76963],[109.9403,29.77414],[109.90791,29.76421],[109.86978,29.77468],[109.82088,29.7699],[109.79188,29.7634],[109.75594,29.74326],[109.76858,29.72784],[109.76021,29.71339],[109.7601,29.6891],[109.71497,29.67335],[109.71579,29.64949],[109.70124,29.63631],[109.71557,29.61313],[109.74571,29.61534],[109.76957,29.60652],[109.76853,29.58731],[109.78237,29.57661],[109.7601,29.56165],[109.74095,29.53426],[109.75293,29.50906],[109.77876,29.48688],[109.8019,29.44885],[109.80824,29.42709],[109.79451,29.41168],[109.82121,29.38866],[109.82892,29.3733],[109.90841,29.44174],[109.93587,29.43441],[109.95266,29.38349],[109.94517,29.3699],[109.96038,29.34127],[109.93614,29.32514],[109.97553,29.29914],[110.01634,29.2883],[110.04922,29.31457],[110.06842,29.3238],[110.09719,29.30885],[110.11256,29.2897],[110.10354,29.25344],[110.08286,29.25122],[110.07006,29.21187],[110.09987,29.1396],[110.12843,29.13641],[110.15819,29.1652],[110.17909,29.15397],[110.20392,29.16104],[110.21672,29.12911],[110.26163,29.1196],[110.24965,29.0769],[110.26196,29.06954],[110.28445,29.08544],[110.30419,29.09133],[110.2996,29.05716],[110.30529,29.03861],[110.34035,29.04131],[110.34621,29.01113],[110.31918,28.9673],[110.30649,28.95826],[110.31459,28.93834],[110.331,28.94115],[110.36109,28.92745],[110.35874,28.89122],[110.39041,28.88115]]]}},{"type":"Feature","id":"datav:430900","properties":{"boundaryId":"datav:430900","nodeId":"geo:cn-hn-yys","parentNodeId":"geo:cn-hn","bounds":[110.7211,27.97484,112.94939,29.5243]},"geometry":{"type":"Polygon","coordinates":[[[112.68538,28.52541],[112.68828,28.54432],[112.72652,28.5572],[112.7361,28.56823],[112.70535,28.59957],[112.68402,28.59637],[112.67515,28.58121],[112.65869,28.58051],[112.62937,28.5472],[112.59195,28.54296],[112.56372,28.57095],[112.59014,28.60169],[112.585,28.62092],[112.56367,28.62939],[112.55256,28.6441],[112.5338,28.64041],[112.5106,28.6548],[112.52532,28.67836],[112.52641,28.70256],[112.54824,28.71233],[112.55223,28.72958],[112.56908,28.73164],[112.60376,28.74688],[112.61914,28.77856],[112.64178,28.78945],[112.67171,28.79157],[112.67297,28.81152],[112.65984,28.84084],[112.68517,28.87974],[112.72291,28.88348],[112.77319,28.90276],[112.78418,28.91197],[112.83812,28.9293],[112.87242,28.96297],[112.87609,28.98408],[112.8914,28.99939],[112.92795,29.02303],[112.94939,29.06078],[112.93905,29.06554],[112.92707,29.10906],[112.92466,29.14943],[112.88161,29.16277],[112.8129,29.1524],[112.79851,29.1598],[112.81345,29.17865],[112.79386,29.19092],[112.77559,29.1766],[112.74195,29.16828],[112.71126,29.18535],[112.68243,29.19227],[112.67756,29.20539],[112.67909,29.2448],[112.6937,29.25398],[112.68331,29.27497],[112.69988,29.28738],[112.66476,29.30038],[112.65256,29.32142],[112.63445,29.33598],[112.61181,29.33329],[112.57942,29.30367],[112.54736,29.30179],[112.50207,29.3122],[112.49096,29.3376],[112.46427,29.35351],[112.43992,29.36063],[112.39206,29.39648],[112.38615,29.42687],[112.36678,29.44255],[112.32827,29.45009],[112.32444,29.48042],[112.33112,29.51057],[112.31574,29.5243],[112.29074,29.51692],[112.28341,29.49523],[112.30032,29.44821],[112.2943,29.40612],[112.2617,29.37562],[112.25262,29.35195],[112.25119,29.31894],[112.26367,29.29871],[112.23423,29.29866],[112.2222,29.28733],[112.22876,29.25176],[112.22849,29.21608],[112.20163,29.17925],[112.18774,29.13452],[112.2112,29.11728],[112.23571,29.11441],[112.24528,29.10068],[112.24146,29.06792],[112.25404,29.04975],[112.24687,28.98083],[112.25732,28.96773],[112.25956,28.92274],[112.25699,28.86148],[112.27647,28.84073],[112.30469,28.82301],[112.29961,28.78485],[112.28341,28.77687],[112.28319,28.72844],[112.26492,28.71916],[112.23101,28.71184],[112.20798,28.691],[112.19972,28.67407],[112.18276,28.66837],[112.16903,28.6783],[112.13976,28.64932],[112.10737,28.6523],[112.09435,28.64199],[112.07045,28.67233],[112.03341,28.67342],[112.04074,28.65773],[112.03462,28.64003],[111.99846,28.64676],[111.98412,28.66386],[111.95152,28.6744],[111.92324,28.67695],[111.9182,28.6554],[111.90119,28.63596],[111.87307,28.63096],[111.85475,28.63699],[111.84403,28.61668],[111.82849,28.61576],[111.8106,28.64096],[111.79134,28.64313],[111.77619,28.63411],[111.75907,28.65344],[111.73068,28.65219],[111.71908,28.63645],[111.7234,28.60984],[111.7089,28.59425],[111.67351,28.59143],[111.66284,28.62467],[111.63609,28.62847],[111.62439,28.61831],[111.56722,28.63878],[111.53921,28.60973],[111.49145,28.57165],[111.46782,28.55693],[111.44337,28.55731],[111.43139,28.54742],[111.39659,28.54079],[111.37389,28.55182],[111.33379,28.52013],[111.28106,28.51791],[111.25261,28.53155],[111.22865,28.52247],[111.21519,28.53622],[111.19222,28.51883],[111.15217,28.51432],[111.15436,28.49654],[111.14495,28.4737],[111.10934,28.46816],[111.09353,28.45695],[111.06169,28.45168],[111.0502,28.45891],[111.00141,28.44015],[110.9787,28.43949],[110.88948,28.40489],[110.86043,28.40603],[110.83587,28.3939],[110.82591,28.37169],[110.79397,28.35438],[110.75327,28.3387],[110.7211,28.30079],[110.73954,28.28162],[110.7746,28.27312],[110.79304,28.2759],[110.80628,28.25301],[110.78784,28.23127],[110.80458,28.21323],[110.8246,28.20379],[110.84008,28.21464],[110.86049,28.19861],[110.84916,28.17228],[110.81864,28.13966],[110.83303,28.11887],[110.84435,28.11636],[110.83319,28.0875],[110.85885,28.07636],[110.87635,28.08182],[110.89616,28.05878],[110.86645,28.02548],[110.88959,28.00095],[110.92203,28.00063],[110.93806,28.01849],[110.94298,28.03836],[110.96268,28.05813],[110.99216,28.05403],[111.02203,28.04153],[111.01322,28.02892],[111.03505,28.03372],[111.04156,28.02231],[111.08199,27.9956],[111.09791,28.0068],[111.0938,28.02717],[111.11848,28.05016],[111.11421,28.06413],[111.1379,28.08597],[111.15157,28.12297],[111.16093,28.12286],[111.18954,28.15499],[111.22515,28.16148],[111.23565,28.15412],[111.25775,28.16753],[111.27903,28.19104],[111.28522,28.21481],[111.31437,28.23421],[111.32597,28.22653],[111.34184,28.19316],[111.35206,28.19905],[111.38292,28.19632],[111.39802,28.18002],[111.43483,28.2081],[111.4501,28.18738],[111.48314,28.20418],[111.49572,28.18995],[111.48139,28.13835],[111.48265,28.1204],[111.51098,28.09028],[111.49331,28.07489],[111.49479,28.03787],[111.51788,28.03099],[111.52203,28.04448],[111.54391,28.04754],[111.54386,28.0204],[111.56426,28.0181],[111.55141,27.99189],[111.55026,27.97484],[111.58379,27.99445],[111.59277,28.00647],[111.58981,28.02712],[111.60168,28.03454],[111.6217,28.01608],[111.68347,28.0145],[111.6885,27.99063],[111.71514,27.99336],[111.72679,27.98347],[111.74796,28.0039],[111.7961,28.00516],[111.8234,28.02258],[111.83834,28.01996],[111.85819,28.03094],[111.90261,28.02198],[111.91312,28.02799],[111.91104,28.05229],[111.92625,28.0655],[111.89917,28.09983],[111.90885,28.11604],[111.93188,28.13333],[111.93325,28.16813],[111.96213,28.20886],[111.98659,28.22418],[112.00349,28.22451],[112.00967,28.24402],[112.03314,28.25247],[112.05168,28.25127],[112.11629,28.2717],[112.1373,28.26664],[112.14621,28.25454],[112.178,28.23574],[112.21011,28.23923],[112.22329,28.23394],[112.23795,28.21045],[112.28068,28.25263],[112.29414,28.24707],[112.30644,28.26135],[112.32247,28.26326],[112.31667,28.28298],[112.35278,28.29126],[112.40847,28.29437],[112.45125,28.31784],[112.48692,28.30924],[112.52597,28.32596],[112.55393,28.31893],[112.56246,28.34474],[112.57521,28.3546],[112.58424,28.40244],[112.61213,28.42453],[112.62428,28.44607],[112.62729,28.46827],[112.65442,28.48452],[112.67258,28.51753],[112.68538,28.52541]]]}},{"type":"Feature","id":"datav:431000","properties":{"boundaryId":"datav:431000","nodeId":"geo:cn-hn-cnz","parentNodeId":"geo:cn-hn","bounds":[112.23243,24.89052,114.23725,26.83448]},"geometry":{"type":"Polygon","coordinates":[[[112.36421,25.19173],[112.39315,25.16015],[112.3995,25.14066],[112.41334,25.14133],[112.43008,25.17409],[112.45486,25.17353],[112.45825,25.15208],[112.47745,25.15141],[112.5077,25.13674],[112.53703,25.13422],[112.56268,25.12453],[112.59654,25.12627],[112.62822,25.1406],[112.65978,25.13276],[112.66985,25.11305],[112.71564,25.07837],[112.71919,25.04822],[112.71514,25.02602],[112.74184,24.99861],[112.74315,24.96031],[112.77346,24.94999],[112.78467,24.93664],[112.78073,24.89731],[112.80382,24.89052],[112.84397,24.89736],[112.87351,24.89669],[112.90437,24.92183],[112.94179,24.91594],[112.95924,24.92345],[112.98363,24.92093],[112.99168,24.93849],[113.01192,24.94612],[113.01,24.97736],[112.99053,24.99541],[112.99206,25.01795],[112.97942,25.03393],[113.00229,25.05797],[113.00453,25.08918],[112.96799,25.14161],[112.97434,25.16827],[113.00858,25.1901],[113.03052,25.19447],[112.99901,25.24406],[112.95956,25.25407],[112.89693,25.2393],[112.86832,25.24881],[112.86646,25.27656],[112.85639,25.29161],[112.8588,25.32024],[112.89485,25.33758],[112.90059,25.31135],[112.92784,25.29989],[112.93183,25.32282],[112.9681,25.34982],[113.00924,25.3529],[113.0646,25.3818],[113.08013,25.38336],[113.09239,25.41751],[113.13074,25.42712],[113.11843,25.44729],[113.13462,25.46767],[113.14999,25.46801],[113.15202,25.49225],[113.16936,25.48806],[113.17707,25.47158],[113.20081,25.4794],[113.2262,25.50967],[113.24906,25.51408],[113.2826,25.4942],[113.29682,25.50838],[113.31137,25.49046],[113.31394,25.44293],[113.34009,25.44991],[113.36695,25.4312],[113.37187,25.40683],[113.39359,25.39756],[113.42412,25.3927],[113.42773,25.37325],[113.44983,25.35955],[113.48003,25.3752],[113.50415,25.37498],[113.5443,25.36659],[113.55453,25.35184],[113.58145,25.34272],[113.58599,25.30733],[113.61077,25.32701],[113.65804,25.32925],[113.68019,25.3345],[113.68714,25.35206],[113.70793,25.35262],[113.74398,25.36397],[113.7541,25.36117],[113.76416,25.33361],[113.82127,25.33076],[113.83976,25.36346],[113.87691,25.38034],[113.88687,25.43662],[113.9134,25.44282],[113.94348,25.43885],[113.93993,25.45941],[113.95897,25.48365],[113.95328,25.50503],[113.96285,25.52826],[113.98408,25.53859],[113.99239,25.56515],[113.97948,25.57324],[113.98309,25.59936],[113.95711,25.61191],[113.91383,25.70375],[113.91892,25.73948],[113.9617,25.77731],[113.96066,25.79686],[113.97133,25.81474],[113.97007,25.83395],[113.99135,25.86057],[114.01028,25.87109],[114.02828,25.89335],[114.02182,25.91923],[114.03145,25.93892],[114.02111,25.95561],[114.02713,25.99104],[114.00908,26.00416],[114.00847,26.01567],[114.02811,26.03118],[114.04381,26.0767],[114.06985,26.07853],[114.08561,26.06636],[114.10689,26.06947],[114.12018,26.0842],[114.10875,26.10031],[114.17106,26.12325],[114.18769,26.12098],[114.23725,26.15219],[114.21849,26.16851],[114.23222,26.17995],[114.21679,26.20315],[114.19228,26.19672],[114.18129,26.21448],[114.14195,26.20338],[114.10279,26.18783],[114.08856,26.1684],[114.05913,26.16618],[114.04097,26.1774],[114.0134,26.18406],[113.96269,26.15086],[113.94452,26.16374],[113.94611,26.1845],[113.91449,26.15874],[113.89644,26.13553],[113.86028,26.11931],[113.84507,26.0957],[113.82478,26.08409],[113.79162,26.10431],[113.78079,26.0937],[113.78096,26.06614],[113.75071,26.04163],[113.73643,26.04113],[113.70907,26.06581],[113.69327,26.09581],[113.70246,26.12442],[113.72926,26.13925],[113.73872,26.18317],[113.72516,26.22375],[113.67833,26.24727],[113.65546,26.27058],[113.64414,26.26797],[113.6152,26.2789],[113.61706,26.30824],[113.59895,26.32665],[113.5925,26.36019],[113.58353,26.37033],[113.5832,26.39466],[113.60771,26.4191],[113.60328,26.44835],[113.589,26.46712],[113.6036,26.50765],[113.57297,26.51911],[113.55869,26.5495],[113.56219,26.57517],[113.5413,26.59271],[113.52346,26.59548],[113.49578,26.58419],[113.47707,26.56267],[113.42948,26.55874],[113.4146,26.5874],[113.39912,26.59697],[113.41805,26.62938],[113.41547,26.64569],[113.40098,26.65825],[113.38145,26.6939],[113.40076,26.70694],[113.42811,26.76976],[113.3943,26.80477],[113.38446,26.7971],[113.33812,26.81024],[113.31509,26.79616],[113.29928,26.7681],[113.27811,26.77772],[113.28533,26.79969],[113.25978,26.8278],[113.25853,26.81549],[113.23807,26.80522],[113.22368,26.8209],[113.20634,26.82548],[113.1605,26.82752],[113.14414,26.83448],[113.14906,26.79213],[113.09726,26.78164],[113.09556,26.75993],[113.12904,26.74413],[113.12231,26.72319],[113.15229,26.70053],[113.16088,26.68788],[113.18298,26.68777],[113.18818,26.66245],[113.17959,26.63834],[113.1867,26.60809],[113.17915,26.56444],[113.15918,26.54164],[113.17166,26.52121],[113.18965,26.50616],[113.21432,26.50245],[113.23008,26.48207],[113.22685,26.46707],[113.21011,26.46518],[113.19228,26.44552],[113.21219,26.42525],[113.19124,26.40619],[113.16356,26.40957],[113.16044,26.38773],[113.16711,26.37427],[113.15656,26.36246],[113.17379,26.3297],[113.14206,26.32587],[113.12734,26.31356],[113.12882,26.29304],[113.10355,26.29054],[113.08714,26.27363],[113.09168,26.2501],[113.02587,26.24528],[113.03993,26.21359],[113.03566,26.17284],[113.00864,26.15563],[112.99299,26.16235],[112.96865,26.15424],[112.94261,26.17079],[112.92105,26.1744],[112.921,26.15796],[112.9036,26.14847],[112.89107,26.15652],[112.83856,26.15574],[112.81875,26.16179],[112.81854,26.18667],[112.78604,26.19699],[112.78812,26.17534],[112.78216,26.14602],[112.74622,26.1438],[112.7204,26.12547],[112.67379,26.11103],[112.6373,26.13892],[112.6234,26.19211],[112.60896,26.19844],[112.60283,26.21709],[112.58106,26.21908],[112.57231,26.19338],[112.57838,26.15363],[112.52909,26.14758],[112.5129,26.13558],[112.50781,26.15957],[112.48872,26.15091],[112.47953,26.17579],[112.42926,26.18972],[112.39507,26.18617],[112.38664,26.20521],[112.36432,26.18128],[112.35705,26.16129],[112.33779,26.16757],[112.31044,26.15857],[112.30426,26.13292],[112.28445,26.14364],[112.2577,26.12331],[112.23243,26.11787],[112.24058,26.09331],[112.27116,26.08903],[112.28259,26.1017],[112.29972,26.09037],[112.32182,26.09376],[112.33582,26.07664],[112.32855,26.03907],[112.30644,26.00694],[112.30043,25.97875],[112.31153,25.9624],[112.3152,25.93581],[112.29682,25.93147],[112.26553,25.89669],[112.27209,25.88634],[112.31241,25.89057],[112.33686,25.88573],[112.34972,25.9066],[112.38702,25.84626],[112.35929,25.8344],[112.3617,25.80912],[112.38538,25.80555],[112.38686,25.78934],[112.37756,25.75079],[112.38352,25.73062],[112.35207,25.71239],[112.34332,25.69428],[112.32143,25.69846],[112.317,25.72326],[112.29736,25.73028],[112.27811,25.71117],[112.24736,25.70392],[112.24304,25.68486],[112.25792,25.65045],[112.25743,25.63406],[112.23883,25.60388],[112.24364,25.58993],[112.26049,25.58234],[112.25097,25.55901],[112.28577,25.55578],[112.32559,25.52999],[112.35781,25.54166],[112.36793,25.52044],[112.392,25.49096],[112.39999,25.45717],[112.43992,25.40829],[112.42132,25.39359],[112.43287,25.36838],[112.40951,25.32578],[112.37493,25.30084],[112.34518,25.28926],[112.35759,25.27863],[112.35759,25.24428],[112.36815,25.2327],[112.36186,25.21199],[112.36421,25.19173]]]}},{"type":"Feature","id":"datav:431100","properties":{"boundaryId":"datav:431100","nodeId":"geo:cn-hn-yzs","parentNodeId":"geo:cn-hn","bounds":[110.9519,24.63655,112.43992,26.86781]},"geometry":{"type":"Polygon","coordinates":[[[112.36421,25.19173],[112.36186,25.21199],[112.36815,25.2327],[112.35759,25.24428],[112.35759,25.27863],[112.34518,25.28926],[112.37493,25.30084],[112.40951,25.32578],[112.43287,25.36838],[112.42132,25.39359],[112.43992,25.40829],[112.39999,25.45717],[112.392,25.49096],[112.36793,25.52044],[112.35781,25.54166],[112.32559,25.52999],[112.28577,25.55578],[112.25097,25.55901],[112.26049,25.58234],[112.24364,25.58993],[112.23883,25.60388],[112.25743,25.63406],[112.25792,25.65045],[112.24304,25.68486],[112.24736,25.70392],[112.27811,25.71117],[112.29736,25.73028],[112.317,25.72326],[112.32143,25.69846],[112.34332,25.69428],[112.35207,25.71239],[112.38352,25.73062],[112.37756,25.75079],[112.38686,25.78934],[112.38538,25.80555],[112.3617,25.80912],[112.35929,25.8344],[112.38702,25.84626],[112.34972,25.9066],[112.33686,25.88573],[112.31241,25.89057],[112.27209,25.88634],[112.26553,25.89669],[112.29682,25.93147],[112.3152,25.93581],[112.31153,25.9624],[112.30043,25.97875],[112.30644,26.00694],[112.32855,26.03907],[112.33582,26.07664],[112.32182,26.09376],[112.29972,26.09037],[112.28259,26.1017],[112.27116,26.08903],[112.24058,26.09331],[112.23243,26.11787],[112.23139,26.13442],[112.21722,26.16546],[112.19545,26.17201],[112.18593,26.18567],[112.1949,26.20687],[112.20081,26.26237],[112.19731,26.27729],[112.21246,26.30563],[112.19042,26.31223],[112.1815,26.34339],[112.14818,26.35736],[112.15015,26.38463],[112.14063,26.40796],[112.16191,26.45073],[112.16651,26.47703],[112.16,26.49387],[112.1757,26.50018],[112.19534,26.48661],[112.21126,26.50273],[112.2367,26.50538],[112.24271,26.53505],[112.21312,26.54856],[112.19047,26.53688],[112.15245,26.50273],[112.14736,26.52747],[112.16274,26.53931],[112.17472,26.57119],[112.17056,26.58535],[112.14392,26.59343],[112.15108,26.62573],[112.12636,26.63574],[112.10978,26.65404],[112.09419,26.64514],[112.02849,26.65183],[111.99567,26.63939],[112.01974,26.61921],[112.00601,26.59691],[111.9902,26.62418],[111.96098,26.64531],[111.94036,26.69943],[111.92707,26.71103],[111.90333,26.75175],[111.85918,26.79958],[111.85021,26.78981],[111.81706,26.78401],[111.82056,26.8045],[111.78128,26.78915],[111.77214,26.80875],[111.75371,26.80704],[111.74501,26.82553],[111.71924,26.84728],[111.68462,26.83354],[111.66596,26.84331],[111.65086,26.84044],[111.62964,26.78931],[111.60125,26.78589],[111.57537,26.80936],[111.55808,26.80864],[111.54594,26.82172],[111.54359,26.84094],[111.52827,26.865],[111.48254,26.85678],[111.46011,26.8671],[111.41963,26.86781],[111.40644,26.85821],[111.3664,26.86494],[111.32985,26.83669],[111.31514,26.80257],[111.32411,26.78832],[111.32942,26.75761],[111.31722,26.73319],[111.32143,26.71424],[111.27624,26.68887],[111.29369,26.67284],[111.30606,26.61976],[111.30458,26.58336],[111.2885,26.55708],[111.29692,26.51175],[111.28877,26.49232],[111.27187,26.4994],[111.25135,26.48384],[111.22964,26.48113],[111.20332,26.46286],[111.18106,26.46336],[111.15551,26.48246],[111.15442,26.5004],[111.16596,26.51175],[111.14227,26.54131],[111.12586,26.55392],[111.12712,26.5775],[111.13713,26.61063],[111.11388,26.60925],[111.10474,26.58591],[111.07356,26.58784],[111.06393,26.55841],[111.06722,26.50555],[111.05644,26.48661],[111.06027,26.47377],[111.04495,26.44092],[111.03177,26.4325],[111.01919,26.40103],[111.02509,26.38458],[111.00857,26.35886],[111.00261,26.34012],[111.0432,26.33247],[111.05349,26.31949],[111.07936,26.31822],[111.0926,26.30668],[111.13582,26.30652],[111.16891,26.31051],[111.20475,26.30785],[111.20332,26.28067],[111.21284,26.26913],[111.24052,26.26708],[111.28128,26.27113],[111.29534,26.24034],[111.29145,26.2208],[111.2717,26.2172],[111.26651,26.19133],[111.27438,26.18256],[111.25814,26.15202],[111.26864,26.12931],[111.26596,26.09603],[111.24462,26.07798],[111.26492,26.06125],[111.2368,26.04886],[111.21536,26.01178],[111.1961,25.96089],[111.20655,25.93965],[111.23226,25.91105],[111.25163,25.86469],[111.29189,25.85444],[111.30529,25.88367],[111.34621,25.90632],[111.35502,25.89213],[111.37843,25.90476],[111.38549,25.88211],[111.45425,25.88845],[111.4862,25.85934],[111.45688,25.8481],[111.43325,25.84626],[111.42504,25.82627],[111.43609,25.81357],[111.44227,25.77809],[111.41607,25.76817],[111.3996,25.74461],[111.34681,25.72967],[111.32728,25.73274],[111.30754,25.71635],[111.31394,25.68263],[111.31,25.64493],[111.34315,25.60276],[111.32493,25.56415],[111.3281,25.52145],[111.32061,25.49554],[111.30086,25.46974],[111.30124,25.45108],[111.27898,25.42332],[111.26585,25.42544],[111.25748,25.39594],[111.21054,25.36352],[111.18182,25.36659],[111.15546,25.32438],[111.13844,25.30358],[111.10332,25.28506],[111.11782,25.2393],[111.11279,25.21708],[111.07788,25.20107],[111.06547,25.18747],[111.00272,25.16575],[111.00053,25.15001],[110.98281,25.12666],[110.98396,25.10168],[110.96142,25.07786],[110.9519,25.04116],[110.96076,25.00152],[110.97548,24.98779],[110.96875,24.97551],[110.99211,24.95902],[110.98724,24.94253],[111.00343,24.92143],[111.03035,24.93198],[111.05026,24.92828],[111.10042,24.94572],[111.09698,24.97489],[111.10792,25.00971],[111.10185,25.03522],[111.14003,25.04239],[111.16716,25.06061],[111.20075,25.07467],[111.2193,25.09355],[111.22203,25.10644],[111.24949,25.12868],[111.26372,25.1336],[111.27477,25.15113],[111.2891,25.14245],[111.2967,25.12207],[111.32181,25.10493],[111.34714,25.10112],[111.36787,25.10885],[111.37515,25.12851],[111.39977,25.12459],[111.41268,25.10072],[111.43669,25.09843],[111.4188,25.06559],[111.41656,25.04766],[111.43932,25.02748],[111.4653,25.02378],[111.46733,25.00248],[111.43839,24.98431],[111.43139,24.95969],[111.44019,24.94455],[111.47023,24.92895],[111.46394,24.90898],[111.44709,24.8931],[111.46049,24.87222],[111.44944,24.85707],[111.4711,24.82063],[111.47942,24.79755],[111.46716,24.75806],[111.46416,24.73385],[111.43111,24.68585],[111.44676,24.68254],[111.45179,24.66579],[111.47159,24.67467],[111.50414,24.66489],[111.52991,24.63655],[111.54988,24.64858],[111.57072,24.6447],[111.58035,24.67472],[111.59769,24.69389],[111.6193,24.68372],[111.64167,24.68467],[111.63779,24.71553],[111.64233,24.73003],[111.66645,24.76082],[111.70841,24.78885],[111.73325,24.78025],[111.78347,24.78576],[111.79424,24.7743],[111.8141,24.77031],[111.83527,24.77694],[111.8687,24.77183],[111.87521,24.75666],[111.90371,24.76346],[111.93823,24.757],[111.95097,24.76964],[111.99769,24.75891],[112.02411,24.74014],[112.0338,24.77115],[112.05923,24.79952],[112.0838,24.80485],[112.09725,24.82636],[112.12406,24.84112],[112.16109,24.84421],[112.17105,24.86274],[112.16531,24.88249],[112.17521,24.92749],[112.14211,24.93793],[112.12001,24.96373],[112.12203,24.98953],[112.13467,24.99586],[112.15573,25.02698],[112.15218,25.05595],[112.16427,25.0717],[112.17712,25.10739],[112.17417,25.12952],[112.20174,25.18579],[112.24654,25.18495],[112.25606,25.15936],[112.28199,25.16474],[112.30256,25.15718],[112.31596,25.17521],[112.33243,25.17454],[112.36421,25.19173]]]}},{"type":"Feature","id":"datav:431200","properties":{"boundaryId":"datav:431200","nodeId":"geo:cn-hn-hhs","parentNodeId":"geo:cn-hn","bounds":[108.80381,25.86597,111.11514,29.03574]},"geometry":{"type":"MultiPolygon","coordinates":[[[[109.41842,27.72136],[109.42996,27.70356],[109.45687,27.69354],[109.47044,27.68028],[109.45616,27.66944],[109.46918,27.62094],[109.45124,27.58596],[109.46196,27.56562],[109.43362,27.54839],[109.40496,27.55048],[109.37914,27.53583],[109.30299,27.47564],[109.30693,27.43441],[109.28647,27.42464],[109.24555,27.41816],[109.24325,27.42963],[109.20211,27.45006],[109.16699,27.41783],[109.15944,27.44232],[109.14041,27.44709],[109.14221,27.41821],[109.1159,27.40009],[109.12476,27.3879],[109.10375,27.33713],[109.05955,27.32685],[109.0444,27.33108],[109.05392,27.29486],[109.04139,27.27661],[109.02388,27.28221],[109.01059,27.2705],[108.98718,27.27056],[108.98466,27.25626],[108.96344,27.23552],[108.91426,27.21462],[108.90868,27.20433],[108.92979,27.18007],[108.92678,27.16091],[108.87875,27.1063],[108.80381,27.07887],[108.84396,27.04796],[108.85474,27.03198],[108.86852,27.03105],[108.88411,27.00239],[108.90063,27.01694],[108.92137,27.00977],[108.95195,27.01876],[108.95096,27.03694],[108.96426,27.05446],[108.98964,27.07408],[109.00758,27.08025],[109.01885,27.09583],[109.05375,27.09831],[109.08039,27.11648],[109.11136,27.12315],[109.13395,27.11775],[109.10917,27.09253],[109.10113,27.06895],[109.13056,27.06504],[109.14106,27.07358],[109.16355,27.06581],[109.18548,27.08228],[109.21825,27.11643],[109.23893,27.14913],[109.25742,27.15062],[109.26426,27.1319],[109.28056,27.12711],[109.29894,27.13526],[109.33505,27.13906],[109.35873,27.15288],[109.38455,27.1439],[109.41464,27.15414],[109.42793,27.12601],[109.4409,27.11819],[109.45758,27.13333],[109.46825,27.06477],[109.48707,27.05397],[109.4985,27.07936],[109.51885,27.06003],[109.5258,27.02653],[109.54134,27.01286],[109.55501,26.94692],[109.51409,26.93076],[109.43641,26.89265],[109.43855,26.87742],[109.45676,26.87322],[109.4868,26.89529],[109.49084,26.88365],[109.51382,26.87427],[109.51311,26.84027],[109.49735,26.82311],[109.51754,26.77992],[109.52224,26.74938],[109.52865,26.74402],[109.52854,26.74391],[109.52214,26.74921],[109.50463,26.74463],[109.49768,26.76015],[109.45397,26.7612],[109.41776,26.73977],[109.40709,26.71982],[109.35501,26.69324],[109.31913,26.70175],[109.28701,26.6897],[109.30419,26.66311],[109.33406,26.64625],[109.35512,26.65902],[109.36437,26.63347],[109.39128,26.60051],[109.38548,26.57102],[109.40397,26.56018],[109.40873,26.5371],[109.38171,26.5185],[109.38554,26.49353],[109.36404,26.47593],[109.381,26.46175],[109.32678,26.42796],[109.29905,26.36823],[109.29259,26.34533],[109.27142,26.32776],[109.28587,26.29581],[109.32575,26.28988],[109.3398,26.26408],[109.37323,26.27818],[109.39117,26.27712],[109.42104,26.28871],[109.44265,26.28988],[109.44445,26.30308],[109.46656,26.31406],[109.47689,26.29925],[109.45884,26.28417],[109.43964,26.23884],[109.47,26.17701],[109.47618,26.14808],[109.4932,26.14402],[109.51409,26.12825],[109.50408,26.09681],[109.45042,26.10192],[109.45479,26.05308],[109.47914,26.04774],[109.48264,26.02962],[109.49642,26.02379],[109.51316,25.9981],[109.5403,26.00005],[109.55977,26.02145],[109.58827,26.01973],[109.63499,26.0473],[109.64604,26.04196],[109.64927,26.01678],[109.67547,26.01511],[109.69807,25.99893],[109.70824,26.01356],[109.72969,25.99154],[109.70999,25.95405],[109.69347,25.95917],[109.6903,25.93764],[109.6793,25.92307],[109.69254,25.90993],[109.68056,25.89513],[109.70211,25.88227],[109.76836,25.89035],[109.76475,25.87621],[109.77952,25.86597],[109.81322,25.87983],[109.82597,25.91144],[109.81043,25.94565],[109.80649,25.97363],[109.78466,25.98575],[109.78248,25.99721],[109.80195,26.0344],[109.81459,26.04096],[109.85627,26.02629],[109.87088,26.03335],[109.88817,26.08798],[109.899,26.0952],[109.9072,26.14486],[109.93122,26.16124],[109.96623,26.19549],[109.97438,26.21836],[109.99276,26.23862],[109.99533,26.2587],[109.98428,26.27912],[110.00928,26.30402],[110.01771,26.34755],[110.01224,26.37249],[109.97865,26.38801],[109.98729,26.43245],[109.96683,26.42802],[109.95501,26.44691],[109.93488,26.45699],[109.91902,26.47465],[109.89139,26.45937],[109.87542,26.46817],[109.86234,26.48683],[109.87936,26.49702],[109.87969,26.5174],[109.89254,26.52548],[109.86267,26.53987],[109.87208,26.57102],[109.82684,26.60582],[109.83067,26.62153],[109.85146,26.6218],[109.85824,26.64343],[109.89894,26.65559],[109.91404,26.67621],[109.93406,26.67372],[109.9636,26.69186],[109.98762,26.68533],[110.00201,26.66659],[110.02033,26.66289],[110.04418,26.6981],[110.07208,26.70015],[110.06732,26.71838],[110.04747,26.72468],[110.04927,26.74756],[110.06169,26.76032],[110.06858,26.78462],[110.05655,26.80886],[110.05742,26.82272],[110.0421,26.83503],[110.04867,26.86075],[110.06355,26.88205],[110.09325,26.89116],[110.09741,26.90638],[110.07214,26.93203],[110.07591,26.94168],[110.1048,26.95194],[110.11628,26.97802],[110.14626,26.9869],[110.15365,26.99842],[110.15031,27.02289],[110.16262,27.04642],[110.2014,27.0619],[110.20835,27.08129],[110.19418,27.10211],[110.20047,27.11819],[110.22651,27.13036],[110.24949,27.15106],[110.30463,27.16697],[110.34271,27.15051],[110.35589,27.17528],[110.35212,27.19905],[110.37558,27.22304],[110.42405,27.19949],[110.44304,27.20125],[110.45627,27.2133],[110.46213,27.24708],[110.48352,27.26214],[110.51164,27.27375],[110.54085,27.30519],[110.55392,27.30822],[110.574,27.28106],[110.60906,27.28898],[110.60655,27.32108],[110.61486,27.3241],[110.64922,27.36521],[110.66311,27.42068],[110.68822,27.44385],[110.68029,27.49704],[110.64823,27.52958],[110.63264,27.53611],[110.63811,27.55591],[110.67405,27.60005],[110.71054,27.60696],[110.71443,27.616],[110.74369,27.61732],[110.74665,27.60383],[110.7868,27.56052],[110.80868,27.56337],[110.82433,27.57883],[110.85349,27.59205],[110.84566,27.62428],[110.85556,27.64735],[110.86919,27.65546],[110.86831,27.67289],[110.83751,27.68149],[110.83035,27.71496],[110.81147,27.75778],[110.79572,27.75816],[110.78571,27.78268],[110.76776,27.79543],[110.78587,27.83291],[110.79161,27.85567],[110.80655,27.86426],[110.83718,27.84922],[110.87668,27.84637],[110.89451,27.84987],[110.94479,27.89625],[110.97395,27.9109],[110.96667,27.94927],[111.00053,27.99221],[110.97116,28.00276],[110.9804,28.02908],[111.01322,28.02892],[111.02203,28.04153],[110.99216,28.05403],[110.96268,28.05813],[110.94298,28.03836],[110.93806,28.01849],[110.92203,28.00063],[110.88959,28.00095],[110.86645,28.02548],[110.89616,28.05878],[110.87635,28.08182],[110.85885,28.07636],[110.83319,28.0875],[110.84435,28.11636],[110.83303,28.11887],[110.81864,28.13966],[110.84916,28.17228],[110.86049,28.19861],[110.84008,28.21464],[110.8246,28.20379],[110.80458,28.21323],[110.78784,28.23127],[110.80628,28.25301],[110.79304,28.2759],[110.7746,28.27312],[110.73954,28.28162],[110.7211,28.30079],[110.75327,28.3387],[110.79397,28.35438],[110.82591,28.37169],[110.83587,28.3939],[110.86043,28.40603],[110.86213,28.41882],[110.90535,28.4551],[110.92974,28.4848],[110.9438,28.47843],[110.9699,28.51252],[110.98166,28.51198],[111.01317,28.54579],[111.06755,28.53014],[111.07931,28.53769],[111.05474,28.57062],[111.06448,28.58279],[111.04977,28.60816],[111.00573,28.5836],[110.97838,28.58551],[110.9507,28.56823],[110.94594,28.60142],[110.93472,28.61755],[110.99172,28.62],[110.99534,28.63786],[111.01525,28.64986],[111.05168,28.6523],[111.06465,28.65974],[111.04665,28.68471],[111.06574,28.69659],[111.09632,28.7005],[111.11514,28.74336],[111.07876,28.79368],[111.06443,28.82344],[111.0403,28.82268],[111.01311,28.8513],[110.9897,28.89729],[110.9583,28.90639],[110.96284,28.91792],[110.95015,28.93731],[110.96536,28.96519],[110.98702,28.9884],[110.97072,28.99273],[110.91908,29.02254],[110.9147,29.03574],[110.9031,29.0213],[110.91514,29.00853],[110.88915,28.99246],[110.86071,28.99896],[110.84047,28.99257],[110.85184,28.95203],[110.8368,28.94186],[110.81142,28.95528],[110.78888,28.91381],[110.76366,28.90585],[110.73937,28.92448],[110.71694,28.91343],[110.6909,28.92399],[110.6705,28.91083],[110.65699,28.93503],[110.62072,28.96519],[110.59331,28.96935],[110.57258,29.00058],[110.54178,28.98229],[110.55354,28.96335],[110.52104,28.93276],[110.53899,28.90845],[110.54397,28.88933],[110.52438,28.88613],[110.49019,28.91126],[110.46804,28.88023],[110.43281,28.89079],[110.42312,28.90059],[110.4002,28.89572],[110.39041,28.88115],[110.39632,28.86419],[110.3659,28.8461],[110.34479,28.82073],[110.34041,28.76983],[110.31087,28.75714],[110.28828,28.76744],[110.28554,28.74352],[110.27154,28.70072],[110.27028,28.67141],[110.21858,28.64416],[110.21207,28.6257],[110.22454,28.61207],[110.23663,28.57339],[110.22422,28.56329],[110.20753,28.57513],[110.17247,28.58426],[110.16546,28.55698],[110.1671,28.53503],[110.15086,28.5278],[110.14861,28.48365],[110.1636,28.46756],[110.11421,28.44254],[110.11174,28.41594],[110.14145,28.38334],[110.15206,28.39172],[110.20584,28.3626],[110.21153,28.34697],[110.18505,28.33314],[110.1781,28.31643],[110.18576,28.28571],[110.17504,28.28053],[110.18653,28.25939],[110.206,28.25252],[110.2403,28.23083],[110.24298,28.20723],[110.21667,28.20439],[110.19429,28.17348],[110.17454,28.16573],[110.17788,28.13399],[110.15179,28.12089],[110.16678,28.1031],[110.1473,28.09219],[110.11174,28.09093],[110.11628,28.07554],[110.13745,28.0578],[110.12859,28.02482],[110.11114,28.00554],[110.09927,27.97708],[110.06962,27.96834],[110.04785,27.95003],[110.05398,27.93315],[110.04429,27.91866],[110.02252,27.908],[110.00036,27.91976],[110.00173,27.93615],[109.95841,27.96118],[109.91437,27.95124],[109.90934,27.93741],[109.88259,27.94692],[109.85715,27.97091],[109.83319,27.98621],[109.79785,27.97932],[109.77591,27.9991],[109.79013,28.02974],[109.75244,28.02149],[109.7322,28.02362],[109.73308,27.98741],[109.71338,27.96752],[109.71913,27.95266],[109.6961,27.93697],[109.68198,27.93593],[109.64987,27.90396],[109.63045,27.90997],[109.62252,27.87886],[109.63696,27.87602],[109.64741,27.83499],[109.62668,27.8171],[109.61338,27.81563],[109.60337,27.79817],[109.57378,27.8089],[109.54976,27.78618],[109.52126,27.81251],[109.47673,27.7887],[109.4427,27.74918],[109.4264,27.73894],[109.41842,27.72136]]],[[[109.52854,26.74391],[109.52865,26.74402],[109.52224,26.74938],[109.52214,26.74921],[109.52854,26.74391]]]]}},{"type":"Feature","id":"datav:431300","properties":{"boundaryId":"datav:431300","nodeId":"geo:cn-hn-ldi","parentNodeId":"geo:cn-hn","bounds":[110.76776,27.20565,112.52198,28.23421]},"geometry":{"type":"Polygon","coordinates":[[[112.09217,27.20565],[112.1379,27.23701],[112.15409,27.23938],[112.15054,27.26583],[112.16306,27.27732],[112.15365,27.30569],[112.16388,27.32454],[112.19063,27.31179],[112.21394,27.26891],[112.23309,27.26539],[112.23905,27.28782],[112.27986,27.31223],[112.28259,27.33707],[112.29972,27.35872],[112.33106,27.37021],[112.36815,27.35609],[112.40852,27.36147],[112.43237,27.35422],[112.45989,27.35515],[112.47187,27.3724],[112.49988,27.37493],[112.49901,27.39773],[112.52198,27.42919],[112.47023,27.46192],[112.46016,27.49046],[112.42964,27.49979],[112.42712,27.52607],[112.40601,27.52409],[112.39348,27.49254],[112.3658,27.48091],[112.34611,27.49627],[112.30639,27.49282],[112.30141,27.50319],[112.30858,27.53457],[112.32532,27.55618],[112.33429,27.58141],[112.33079,27.60252],[112.28391,27.63365],[112.28888,27.64692],[112.3135,27.65103],[112.32061,27.6753],[112.3042,27.69787],[112.29053,27.7057],[112.26853,27.70094],[112.24337,27.70773],[112.24085,27.69108],[112.22264,27.67152],[112.2071,27.67053],[112.19939,27.65431],[112.15486,27.64949],[112.14578,27.66516],[112.12488,27.64615],[112.10426,27.65338],[112.09124,27.64237],[112.067,27.65848],[112.07094,27.6696],[112.04879,27.68834],[112.05349,27.71414],[112.08183,27.72175],[112.09911,27.73467],[112.13062,27.74743],[112.09868,27.765],[112.1065,27.79062],[112.10125,27.80736],[112.08702,27.81382],[112.0699,27.80397],[112.04687,27.81705],[112.04052,27.83953],[112.01481,27.84708],[112.0123,27.87864],[111.99971,27.90784],[111.98226,27.95435],[111.96416,27.96517],[111.95125,27.98708],[111.93631,27.99123],[111.91262,27.9738],[111.9001,27.98134],[111.9083,28.00019],[111.90261,28.02198],[111.85819,28.03094],[111.83834,28.01996],[111.8234,28.02258],[111.7961,28.00516],[111.74796,28.0039],[111.72679,27.98347],[111.71514,27.99336],[111.6885,27.99063],[111.68347,28.0145],[111.6217,28.01608],[111.60168,28.03454],[111.58981,28.02712],[111.59277,28.00647],[111.58379,27.99445],[111.55026,27.97484],[111.55141,27.99189],[111.56426,28.0181],[111.54386,28.0204],[111.54391,28.04754],[111.52203,28.04448],[111.51788,28.03099],[111.49479,28.03787],[111.49331,28.07489],[111.51098,28.09028],[111.48265,28.1204],[111.48139,28.13835],[111.49572,28.18995],[111.48314,28.20418],[111.4501,28.18738],[111.43483,28.2081],[111.39802,28.18002],[111.38292,28.19632],[111.35206,28.19905],[111.34184,28.19316],[111.32597,28.22653],[111.31437,28.23421],[111.28522,28.21481],[111.27903,28.19104],[111.25775,28.16753],[111.23565,28.15412],[111.22515,28.16148],[111.18954,28.15499],[111.16093,28.12286],[111.15157,28.12297],[111.1379,28.08597],[111.11421,28.06413],[111.11848,28.05016],[111.0938,28.02717],[111.09791,28.0068],[111.08199,27.9956],[111.04156,28.02231],[111.03505,28.03372],[111.01322,28.02892],[110.9804,28.02908],[110.97116,28.00276],[111.00053,27.99221],[110.96667,27.94927],[110.97395,27.9109],[110.94479,27.89625],[110.89451,27.84987],[110.87668,27.84637],[110.83718,27.84922],[110.80655,27.86426],[110.79161,27.85567],[110.78587,27.83291],[110.76776,27.79543],[110.78571,27.78268],[110.79572,27.75816],[110.81147,27.75778],[110.83035,27.71496],[110.83751,27.68149],[110.86831,27.67289],[110.86919,27.65546],[110.88292,27.6507],[110.91749,27.6564],[110.94572,27.65382],[110.98379,27.66012],[110.99473,27.6524],[111.00808,27.62587],[111.02575,27.63568],[111.05994,27.6313],[111.07083,27.62061],[111.07411,27.59144],[111.10693,27.59073],[111.11629,27.57719],[111.15009,27.58218],[111.16952,27.56265],[111.19741,27.54916],[111.22077,27.55174],[111.22378,27.53616],[111.24462,27.52508],[111.25611,27.5428],[111.30086,27.5671],[111.32214,27.54686],[111.34982,27.53704],[111.3571,27.52289],[111.37652,27.53282],[111.40398,27.55739],[111.41437,27.57521],[111.44194,27.59747],[111.45792,27.59545],[111.47783,27.57867],[111.48937,27.59424],[111.54266,27.60964],[111.5536,27.62603],[111.56798,27.62708],[111.57406,27.60773],[111.58905,27.60657],[111.59463,27.58294],[111.61558,27.56616],[111.6414,27.57466],[111.63866,27.53792],[111.65404,27.51477],[111.66892,27.53715],[111.69299,27.53386],[111.71777,27.51658],[111.73095,27.51822],[111.74408,27.4994],[111.78746,27.49463],[111.7902,27.47048],[111.81076,27.47136],[111.81361,27.45434],[111.83516,27.44605],[111.85529,27.46115],[111.91284,27.4103],[111.90945,27.38894],[111.94085,27.36922],[111.9705,27.35751],[111.99031,27.34158],[111.9908,27.31734],[112.01804,27.31756],[112.04107,27.28914],[112.06241,27.28584],[112.06842,27.21864],[112.09217,27.20565]]]}},{"type":"Feature","id":"datav:433100","properties":{"boundaryId":"datav:433100","nodeId":"geo:cn-hn-xxz","parentNodeId":"geo:cn-hn","bounds":[109.18143,27.72136,110.39632,29.63448]},"geometry":{"type":"Polygon","coordinates":[[[109.41842,27.72136],[109.4264,27.73894],[109.4427,27.74918],[109.47673,27.7887],[109.52126,27.81251],[109.54976,27.78618],[109.57378,27.8089],[109.60337,27.79817],[109.61338,27.81563],[109.62668,27.8171],[109.64741,27.83499],[109.63696,27.87602],[109.62252,27.87886],[109.63045,27.90997],[109.64987,27.90396],[109.68198,27.93593],[109.6961,27.93697],[109.71913,27.95266],[109.71338,27.96752],[109.73308,27.98741],[109.7322,28.02362],[109.75244,28.02149],[109.79013,28.02974],[109.77591,27.9991],[109.79785,27.97932],[109.83319,27.98621],[109.85715,27.97091],[109.88259,27.94692],[109.90934,27.93741],[109.91437,27.95124],[109.95841,27.96118],[110.00173,27.93615],[110.00036,27.91976],[110.02252,27.908],[110.04429,27.91866],[110.05398,27.93315],[110.04785,27.95003],[110.06962,27.96834],[110.09927,27.97708],[110.11114,28.00554],[110.12859,28.02482],[110.13745,28.0578],[110.11628,28.07554],[110.11174,28.09093],[110.1473,28.09219],[110.16678,28.1031],[110.15179,28.12089],[110.17788,28.13399],[110.17454,28.16573],[110.19429,28.17348],[110.21667,28.20439],[110.24298,28.20723],[110.2403,28.23083],[110.206,28.25252],[110.18653,28.25939],[110.17504,28.28053],[110.18576,28.28571],[110.1781,28.31643],[110.18505,28.33314],[110.21153,28.34697],[110.20584,28.3626],[110.15206,28.39172],[110.14145,28.38334],[110.11174,28.41594],[110.11421,28.44254],[110.1636,28.46756],[110.14861,28.48365],[110.15086,28.5278],[110.1671,28.53503],[110.16546,28.55698],[110.17247,28.58426],[110.20753,28.57513],[110.22422,28.56329],[110.23663,28.57339],[110.22454,28.61207],[110.21207,28.6257],[110.21858,28.64416],[110.27028,28.67141],[110.27154,28.70072],[110.28554,28.74352],[110.28828,28.76744],[110.31087,28.75714],[110.34041,28.76983],[110.34479,28.82073],[110.3659,28.8461],[110.39632,28.86419],[110.39041,28.88115],[110.35874,28.89122],[110.36109,28.92745],[110.331,28.94115],[110.31459,28.93834],[110.30649,28.95826],[110.31918,28.9673],[110.34621,29.01113],[110.34035,29.04131],[110.30529,29.03861],[110.2996,29.05716],[110.30419,29.09133],[110.28445,29.08544],[110.26196,29.06954],[110.24965,29.0769],[110.26163,29.1196],[110.21672,29.12911],[110.20392,29.16104],[110.17909,29.15397],[110.15819,29.1652],[110.12843,29.13641],[110.09987,29.1396],[110.07006,29.21187],[110.08286,29.25122],[110.10354,29.25344],[110.11256,29.2897],[110.09719,29.30885],[110.06842,29.3238],[110.04922,29.31457],[110.01634,29.2883],[109.97553,29.29914],[109.93614,29.32514],[109.96038,29.34127],[109.94517,29.3699],[109.95266,29.38349],[109.93587,29.43441],[109.90841,29.44174],[109.82892,29.3733],[109.82121,29.38866],[109.79451,29.41168],[109.80824,29.42709],[109.8019,29.44885],[109.77876,29.48688],[109.75293,29.50906],[109.74095,29.53426],[109.7601,29.56165],[109.78237,29.57661],[109.76853,29.58731],[109.76957,29.60652],[109.74571,29.61534],[109.71557,29.61313],[109.67876,29.60797],[109.66349,29.59969],[109.65211,29.62378],[109.60944,29.63448],[109.57542,29.62787],[109.55868,29.60706],[109.53111,29.61561],[109.50403,29.58861],[109.48866,29.5532],[109.46705,29.55998],[109.45862,29.53054],[109.431,29.52904],[109.43133,29.50529],[109.41831,29.49803],[109.40512,29.46873],[109.4171,29.45478],[109.3729,29.42499],[109.36858,29.41135],[109.38526,29.39357],[109.34396,29.36942],[109.34013,29.33598],[109.35217,29.28463],[109.31508,29.25209],[109.28608,29.24205],[109.25786,29.22261],[109.27607,29.20031],[109.27389,29.17255],[109.26147,29.16104],[109.26404,29.14403],[109.27717,29.13408],[109.22596,29.11328],[109.23504,29.08884],[109.25611,29.08717],[109.28783,29.071],[109.31223,29.06635],[109.31962,29.04256],[109.29429,29.01454],[109.29243,28.98765],[109.27235,28.97092],[109.26174,28.95301],[109.25687,28.90774],[109.24041,28.89274],[109.23406,28.86381],[109.24265,28.85108],[109.24582,28.81298],[109.24128,28.7765],[109.29998,28.74493],[109.28494,28.71385],[109.25293,28.69155],[109.27088,28.67179],[109.19314,28.63623],[109.18143,28.62173],[109.20146,28.59843],[109.23548,28.61962],[109.2589,28.6056],[109.27804,28.61234],[109.28701,28.62684],[109.30665,28.62065],[109.30474,28.57904],[109.28893,28.54633],[109.27416,28.53889],[109.27399,28.48811],[109.26081,28.46473],[109.25829,28.42899],[109.26469,28.39248],[109.28778,28.36445],[109.26858,28.3381],[109.27509,28.31267],[109.31491,28.27639],[109.34095,28.29371],[109.388,28.26811],[109.35676,28.2335],[109.35955,28.22042],[109.34577,28.20668],[109.33816,28.14179],[109.31437,28.10392],[109.30496,28.07642],[109.29872,28.03252],[109.32525,28.04279],[109.33455,28.06222],[109.37055,28.04606],[109.37914,28.03307],[109.36486,28.00882],[109.34467,28.0062],[109.32159,27.99178],[109.32017,27.97096],[109.30178,27.95834],[109.31382,27.93331],[109.31191,27.90778],[109.32684,27.85862],[109.34555,27.84074],[109.34265,27.80074],[109.33122,27.7916],[109.33816,27.77589],[109.36431,27.7598],[109.363,27.74502],[109.39238,27.72635],[109.41842,27.72136]]]}}]}