{"type":"FeatureCollection","features":[{"type":"Feature","id":"datav:610100","properties":{"boundaryId":"datav:610100","nodeId":"geo:cn-sn-sia","parentNodeId":"geo:cn-sn","bounds":[107.66582,33.69408,109.78098,34.74312]},"geometry":{"type":"Polygon","coordinates":[[[109.7545,34.21224],[109.73107,34.23634],[109.65912,34.24589],[109.62775,34.24003],[109.57583,34.26252],[109.52362,34.25585],[109.45058,34.32672],[109.46186,34.39417],[109.42375,34.42351],[109.41328,34.46068],[109.39135,34.46853],[109.39135,34.52914],[109.44977,34.55362],[109.42335,34.67955],[109.42985,34.71381],[109.41086,34.74312],[109.3651,34.73929],[109.34075,34.69872],[109.24387,34.6873],[109.17307,34.69193],[109.15603,34.64471],[109.13905,34.63951],[109.13882,34.58882],[109.10889,34.57771],[109.06123,34.59354],[109.01184,34.58618],[108.9552,34.56587],[108.97408,34.54138],[108.97644,34.44594],[108.96102,34.42479],[108.89292,34.3908],[108.85988,34.38864],[108.80324,34.35953],[108.79679,34.29671],[108.75028,34.29615],[108.74476,34.27689],[108.70095,34.27367],[108.69209,34.23899],[108.65013,34.26581],[108.56407,34.22959],[108.52971,34.23216],[108.46812,34.20573],[108.42592,34.20035],[108.37452,34.20766],[108.32859,34.19593],[108.29319,34.20999],[108.23764,34.19962],[108.20195,34.22172],[108.14393,34.21858],[108.08677,34.23104],[108.02794,34.22814],[108.03001,34.20862],[108.00307,34.15574],[108.00106,34.10395],[107.97257,34.06211],[107.94304,34.04231],[107.94989,33.98538],[107.87759,33.99392],[107.84656,33.97515],[107.8103,33.99504],[107.76736,33.95452],[107.71377,33.92736],[107.71763,33.91043],[107.69742,33.8179],[107.66582,33.76001],[107.69587,33.72366],[107.7635,33.71978],[107.85428,33.69408],[107.90309,33.74895],[107.93158,33.73125],[108.00831,33.72899],[108.05425,33.70984],[108.07382,33.72342],[108.11382,33.71259],[108.18019,33.71186],[108.23315,33.72665],[108.25928,33.75476],[108.307,33.76292],[108.34597,33.79385],[108.36945,33.7932],[108.40486,33.76332],[108.48441,33.80426],[108.54456,33.78844],[108.58427,33.76454],[108.61772,33.82597],[108.65007,33.84155],[108.69784,33.82832],[108.74101,33.84147],[108.77849,33.79805],[108.80577,33.81718],[108.84002,33.81597],[108.87479,33.82452],[108.94427,33.86664],[109.00799,33.88326],[109.0515,33.92317],[109.10768,33.90761],[109.12058,33.87648],[109.16421,33.87132],[109.20738,33.86704],[109.25187,33.88067],[109.31692,33.85462],[109.35595,33.86761],[109.39906,33.84542],[109.50854,33.848],[109.57612,33.89769],[109.60363,33.94098],[109.53324,33.98208],[109.55281,34.04473],[109.58424,34.07209],[109.63431,34.07563],[109.65884,34.10548],[109.73982,34.09792],[109.78098,34.16008],[109.7545,34.21224]]]}},{"type":"Feature","id":"datav:610200","properties":{"boundaryId":"datav:610200","nodeId":"geo:cn-sn-tcn","parentNodeId":"geo:cn-sn","bounds":[108.58353,34.82171,109.49565,35.58014]},"geometry":{"type":"Polygon","coordinates":[[[108.86863,35.34465],[108.87335,35.32611],[108.75063,35.29337],[108.73992,35.26846],[108.69687,35.22276],[108.67067,35.21046],[108.65473,35.17847],[108.66267,35.12859],[108.62681,35.0999],[108.58353,35.04352],[108.62048,35.01178],[108.68904,34.88071],[108.72651,34.86684],[108.7664,34.87202],[108.81383,34.83064],[108.8555,34.82219],[108.91819,34.83455],[108.97374,34.82171],[108.96735,34.88007],[109.09548,34.91927],[109.08454,34.95591],[109.14418,34.99173],[109.20663,35.01863],[109.22373,35.04758],[109.26166,35.05076],[109.29666,35.08615],[109.35951,35.10101],[109.44419,35.08885],[109.44482,35.14868],[109.43354,35.16743],[109.38173,35.15718],[109.31928,35.20014],[109.30356,35.24665],[109.3187,35.27425],[109.3689,35.28607],[109.38271,35.31406],[109.44448,35.34339],[109.49565,35.35725],[109.49358,35.39599],[109.4671,35.42188],[109.47838,35.4738],[109.46669,35.50907],[109.43129,35.50085],[109.40591,35.52078],[109.26649,35.51951],[109.24376,35.5237],[109.20358,35.58014],[109.11609,35.5656],[109.09162,35.54363],[109.05156,35.54876],[108.9792,35.44832],[108.98715,35.43644],[108.92314,35.36311],[108.86863,35.34465]]]}},{"type":"Feature","id":"datav:610300","properties":{"boundaryId":"datav:610300","nodeId":"geo:cn-sn-bji","parentNodeId":"geo:cn-sn","bounds":[106.32314,33.59064,108.0531,35.10562]},"geometry":{"type":"Polygon","coordinates":[[[108.02794,34.22814],[107.99018,34.22212],[107.99513,34.26565],[107.95081,34.2878],[107.95374,34.32183],[107.98788,34.31349],[108.0531,34.32576],[108.02944,34.37084],[108.0417,34.39],[107.99761,34.48719],[108.00244,34.5521],[107.98045,34.57587],[107.99582,34.61257],[108.03214,34.62664],[108.01534,34.72603],[107.99202,34.78278],[107.94983,34.82155],[107.95179,34.86333],[107.90804,34.84268],[107.85796,34.84444],[107.84973,34.89147],[107.82003,34.97374],[107.74157,34.95352],[107.63341,34.95392],[107.57217,34.97135],[107.52405,34.90987],[107.45555,34.9168],[107.39292,34.93241],[107.28672,34.93186],[107.25253,34.88119],[107.18956,34.8933],[107.16239,34.94412],[107.10304,34.96005],[107.08261,35.02404],[107.01244,35.02937],[106.9908,35.0685],[106.95016,35.06691],[106.90169,35.09449],[106.83843,35.07979],[106.7145,35.10562],[106.70644,35.08185],[106.6616,35.06969],[106.61538,35.07112],[106.57583,35.08933],[106.54596,35.07056],[106.50216,34.99555],[106.48316,34.98011],[106.528,34.87648],[106.55592,34.86134],[106.55431,34.81374],[106.57503,34.7701],[106.53963,34.74567],[106.50584,34.74687],[106.4869,34.71517],[106.44137,34.68171],[106.47078,34.65374],[106.4195,34.64343],[106.32314,34.58986],[106.34098,34.56803],[106.33442,34.51785],[106.45386,34.5313],[106.59943,34.46597],[106.63725,34.392],[106.71738,34.36923],[106.69032,34.33402],[106.70512,34.29952],[106.6639,34.24316],[106.63363,34.25987],[106.58925,34.25376],[106.5771,34.2809],[106.52645,34.29198],[106.53209,34.25409],[106.55857,34.22742],[106.58487,34.14947],[106.56081,34.1132],[106.50187,34.10492],[106.50549,34.05648],[106.47159,34.02404],[106.47602,33.97378],[106.41092,33.90922],[106.42825,33.86648],[106.47533,33.87576],[106.49341,33.84615],[106.4618,33.78965],[106.48811,33.75824],[106.48264,33.70734],[106.53485,33.69513],[106.57555,33.63166],[106.58148,33.59064],[106.61791,33.59193],[106.64733,33.63481],[106.64226,33.65899],[106.68704,33.66554],[106.71427,33.70136],[106.78922,33.67751],[106.80384,33.72366],[106.80585,33.80983],[106.83941,33.82702],[106.85558,33.87438],[106.88868,33.86099],[106.97825,33.80095],[107.04323,33.80507],[107.03851,33.85462],[107.08048,33.8221],[107.13695,33.81411],[107.14523,33.79425],[107.21258,33.74927],[107.27279,33.7907],[107.30554,33.76688],[107.3056,33.71017],[107.33617,33.68907],[107.37652,33.68285],[107.40035,33.65131],[107.46769,33.66061],[107.56256,33.70273],[107.58685,33.69772],[107.62869,33.71445],[107.67376,33.6995],[107.69587,33.72366],[107.66582,33.76001],[107.69742,33.8179],[107.71763,33.91043],[107.71377,33.92736],[107.76736,33.95452],[107.8103,33.99504],[107.84656,33.97515],[107.87759,33.99392],[107.94989,33.98538],[107.94304,34.04231],[107.97257,34.06211],[108.00106,34.10395],[108.00307,34.15574],[108.03001,34.20862],[108.02794,34.22814]]]}},{"type":"Feature","id":"datav:610400","properties":{"boundaryId":"datav:610400","nodeId":"geo:cn-sn-xys","parentNodeId":"geo:cn-sn","bounds":[107.65195,34.19593,109.17319,35.54078]},"geometry":{"type":"Polygon","coordinates":[[[107.82003,34.97374],[107.84973,34.89147],[107.85796,34.84444],[107.90804,34.84268],[107.95179,34.86333],[107.94983,34.82155],[107.99202,34.78278],[108.01534,34.72603],[108.03214,34.62664],[107.99582,34.61257],[107.98045,34.57587],[108.00244,34.5521],[107.99761,34.48719],[108.0417,34.39],[108.02944,34.37084],[108.0531,34.32576],[107.98788,34.31349],[107.95374,34.32183],[107.95081,34.2878],[107.99513,34.26565],[107.99018,34.22212],[108.02794,34.22814],[108.08677,34.23104],[108.14393,34.21858],[108.20195,34.22172],[108.23764,34.19962],[108.29319,34.20999],[108.32859,34.19593],[108.37452,34.20766],[108.42592,34.20035],[108.46812,34.20573],[108.52971,34.23216],[108.56407,34.22959],[108.65013,34.26581],[108.69209,34.23899],[108.70095,34.27367],[108.74476,34.27689],[108.75028,34.29615],[108.79679,34.29671],[108.80324,34.35953],[108.85988,34.38864],[108.89292,34.3908],[108.96102,34.42479],[108.97644,34.44594],[108.97408,34.54138],[108.9552,34.56587],[109.01184,34.58618],[109.06123,34.59354],[109.10889,34.57771],[109.13882,34.58882],[109.13905,34.63951],[109.15603,34.64471],[109.17307,34.69193],[109.17319,34.70559],[109.09036,34.70088],[109.06866,34.71318],[109.02905,34.70503],[109.04517,34.7523],[108.99768,34.80855],[108.97374,34.82171],[108.91819,34.83455],[108.8555,34.82219],[108.81383,34.83064],[108.7664,34.87202],[108.72651,34.86684],[108.68904,34.88071],[108.62048,35.01178],[108.58353,35.04352],[108.62681,35.0999],[108.66267,35.12859],[108.65473,35.17847],[108.67067,35.21046],[108.69687,35.22276],[108.73992,35.26846],[108.75063,35.29337],[108.87335,35.32611],[108.86863,35.34465],[108.80825,35.3929],[108.76738,35.48677],[108.72708,35.50583],[108.6903,35.50544],[108.65916,35.53778],[108.6229,35.54078],[108.60598,35.50283],[108.63113,35.41863],[108.60298,35.31232],[108.56827,35.29091],[108.54346,35.30391],[108.48913,35.27528],[108.44906,35.2737],[108.35282,35.28575],[108.23937,35.25625],[108.22146,35.29686],[108.17467,35.3051],[108.12395,35.28179],[108.09489,35.28004],[108.04866,35.25379],[107.94977,35.2453],[107.9047,35.26117],[107.86619,35.25641],[107.79142,35.2959],[107.75176,35.3051],[107.72016,35.26926],[107.65195,35.23975],[107.68729,35.21665],[107.71578,35.16814],[107.72252,35.11492],[107.80207,35.03239],[107.8586,34.98687],[107.82003,34.97374]]]}},{"type":"Feature","id":"datav:610500","properties":{"boundaryId":"datav:610500","nodeId":"geo:cn-sn-wna","parentNodeId":"geo:cn-sn","bounds":[108.96735,34.20975,110.60935,35.85407]},"geometry":{"type":"Polygon","coordinates":[[[110.43097,34.40948],[110.4095,34.42158],[110.39269,34.46605],[110.36063,34.51729],[110.37916,34.6005],[110.29552,34.61105],[110.26905,34.62944],[110.22962,34.69265],[110.2432,34.72579],[110.24688,34.78885],[110.23094,34.88071],[110.30151,34.98862],[110.32085,35.00518],[110.36471,35.14026],[110.36437,35.198],[110.37484,35.25196],[110.45002,35.32777],[110.47759,35.41388],[110.5317,35.51145],[110.5675,35.53951],[110.58909,35.6021],[110.60935,35.63219],[110.57763,35.70149],[110.56733,35.81934],[110.54937,35.85407],[110.48663,35.8284],[110.41111,35.80997],[110.3703,35.7574],[110.32897,35.75259],[110.28223,35.71174],[110.22202,35.72105],[110.16279,35.71001],[110.1332,35.67513],[110.19393,35.65635],[110.22956,35.63472],[110.25132,35.58646],[110.28303,35.56702],[110.27377,35.5388],[110.22248,35.54663],[110.23042,35.5105],[110.18449,35.46929],[110.13861,35.45607],[110.08738,35.40668],[110.05198,35.41673],[110.01411,35.40866],[109.90186,35.41182],[109.87573,35.43542],[109.85299,35.4222],[109.81379,35.44341],[109.75278,35.43454],[109.69803,35.40905],[109.61618,35.44278],[109.54694,35.4438],[109.52115,35.42544],[109.49565,35.35725],[109.44448,35.34339],[109.38271,35.31406],[109.3689,35.28607],[109.3187,35.27425],[109.30356,35.24665],[109.31928,35.20014],[109.38173,35.15718],[109.43354,35.16743],[109.44482,35.14868],[109.44419,35.08885],[109.35951,35.10101],[109.29666,35.08615],[109.26166,35.05076],[109.22373,35.04758],[109.20663,35.01863],[109.14418,34.99173],[109.08454,34.95591],[109.09548,34.91927],[108.96735,34.88007],[108.97374,34.82171],[108.99768,34.80855],[109.04517,34.7523],[109.02905,34.70503],[109.06866,34.71318],[109.09036,34.70088],[109.17319,34.70559],[109.17307,34.69193],[109.24387,34.6873],[109.34075,34.69872],[109.3651,34.73929],[109.41086,34.74312],[109.42985,34.71381],[109.42335,34.67955],[109.44977,34.55362],[109.39135,34.52914],[109.39135,34.46853],[109.41328,34.46068],[109.42375,34.42351],[109.46186,34.39417],[109.45058,34.32672],[109.52362,34.25585],[109.57583,34.26252],[109.62775,34.24003],[109.65912,34.24589],[109.73107,34.23634],[109.7545,34.21224],[109.74357,34.24035],[109.77597,34.252],[109.82559,34.28821],[109.88356,34.24742],[109.96437,34.20975],[110.02406,34.24035],[110.00726,34.30321],[110.04053,34.32416],[110.0072,34.36859],[110.03736,34.37781],[110.10338,34.42887],[110.16233,34.43216],[110.19422,34.41477],[110.25183,34.40675],[110.28436,34.39136],[110.37755,34.39834],[110.43097,34.40948]]]}},{"type":"Feature","id":"datav:610600","properties":{"boundaryId":"datav:610600","nodeId":"geo:cn-sn-yna","parentNodeId":"geo:cn-sn","bounds":[107.6721,35.34465,110.54937,37.49845]},"geometry":{"type":"Polygon","coordinates":[[[110.54937,35.85407],[110.51167,35.87974],[110.51668,35.92168],[110.50321,35.94324],[110.51426,35.97571],[110.49296,35.99592],[110.49221,36.03466],[110.46798,36.07463],[110.44708,36.16433],[110.45416,36.22368],[110.47391,36.24813],[110.47356,36.31055],[110.45998,36.32785],[110.49215,36.42312],[110.47316,36.45321],[110.50338,36.48821],[110.49826,36.57806],[110.44743,36.62111],[110.42239,36.6618],[110.39447,36.67684],[110.4518,36.72653],[110.4061,36.77448],[110.41957,36.79829],[110.42452,36.85552],[110.3829,36.87045],[110.40875,36.89236],[110.42573,36.95721],[110.41871,36.97359],[110.38831,36.95861],[110.32425,36.98492],[110.29472,36.96559],[110.24286,37.00362],[110.19111,37.01339],[110.17056,36.98857],[110.11582,36.9732],[110.03247,37.0296],[110.01111,37.09535],[109.97807,37.15166],[109.98838,37.19965],[110.01313,37.20491],[110.02832,37.26524],[109.98786,37.26965],[109.92678,37.29284],[109.87935,37.27089],[109.84102,37.27955],[109.81195,37.25782],[109.76204,37.27073],[109.80366,37.34731],[109.77344,37.36376],[109.77281,37.39325],[109.73476,37.4005],[109.71778,37.43538],[109.63466,37.41941],[109.57629,37.438],[109.56409,37.46014],[109.49254,37.49845],[109.4534,37.46021],[109.38588,37.43815],[109.34979,37.37982],[109.30765,37.35464],[109.20525,37.32089],[109.17394,37.30451],[109.11787,37.32244],[109.04903,37.29547],[109.01368,37.30389],[108.95088,37.23338],[108.85999,37.23655],[108.8532,37.1546],[108.81953,37.13973],[108.79754,37.11169],[108.74125,37.08124],[108.80905,37.04341],[108.80485,37.003],[108.76824,36.97483],[108.68817,36.99664],[108.65122,37.03961],[108.55849,36.98655],[108.5175,37.00331],[108.54225,37.03984],[108.5521,37.08829],[108.53633,37.11712],[108.54784,37.16358],[108.48665,37.23307],[108.47427,37.26161],[108.48642,37.28542],[108.4387,37.3144],[108.42874,37.35696],[108.40745,37.38113],[108.3614,37.38846],[108.31955,37.35881],[108.21657,37.32514],[108.28225,37.26161],[108.27557,37.23524],[108.21335,37.17187],[108.17472,37.16467],[108.17375,37.1957],[108.13662,37.19114],[108.1022,37.13005],[108.03232,37.12719],[107.98253,37.1103],[107.9591,37.08178],[107.93084,37.09403],[107.88858,37.08395],[107.88715,37.1323],[107.86694,37.16397],[107.85865,37.21234],[107.82009,37.2207],[107.79769,37.24614],[107.74762,37.2077],[107.73438,37.13695],[107.69247,37.12386],[107.72022,37.07349],[107.67486,37.02992],[107.72528,37.01626],[107.70629,36.96303],[107.72327,36.92009],[107.7231,36.8591],[107.6721,36.8329],[107.72079,36.80234],[107.86625,36.76709],[107.90551,36.74063],[107.94097,36.69483],[107.93745,36.65822],[108.00474,36.68315],[108.02316,36.64808],[108.0021,36.6374],[108.04619,36.59623],[108.11561,36.58664],[108.16361,36.5637],[108.19786,36.62992],[108.21663,36.57135],[108.34062,36.55886],[108.36543,36.51968],[108.39162,36.50539],[108.40802,36.45962],[108.46057,36.42312],[108.49684,36.42273],[108.53304,36.45462],[108.56263,36.4386],[108.61893,36.43391],[108.65128,36.38473],[108.64218,36.31118],[108.6461,36.25416],[108.71235,36.13876],[108.69767,36.11734],[108.68253,36.055],[108.68863,36.02106],[108.66175,35.99387],[108.65651,35.95299],[108.58876,35.95039],[108.56303,35.92129],[108.51865,35.90548],[108.49954,35.87226],[108.52786,35.82423],[108.51704,35.716],[108.53972,35.60558],[108.61847,35.55698],[108.6229,35.54078],[108.65916,35.53778],[108.6903,35.50544],[108.72708,35.50583],[108.76738,35.48677],[108.80825,35.3929],[108.86863,35.34465],[108.92314,35.36311],[108.98715,35.43644],[108.9792,35.44832],[109.05156,35.54876],[109.09162,35.54363],[109.11609,35.5656],[109.20358,35.58014],[109.24376,35.5237],[109.26649,35.51951],[109.40591,35.52078],[109.43129,35.50085],[109.46669,35.50907],[109.47838,35.4738],[109.4671,35.42188],[109.49358,35.39599],[109.49565,35.35725],[109.52115,35.42544],[109.54694,35.4438],[109.61618,35.44278],[109.69803,35.40905],[109.75278,35.43454],[109.81379,35.44341],[109.85299,35.4222],[109.87573,35.43542],[109.90186,35.41182],[110.01411,35.40866],[110.05198,35.41673],[110.08738,35.40668],[110.13861,35.45607],[110.18449,35.46929],[110.23042,35.5105],[110.22248,35.54663],[110.27377,35.5388],[110.28303,35.56702],[110.25132,35.58646],[110.22956,35.63472],[110.19393,35.65635],[110.1332,35.67513],[110.16279,35.71001],[110.22202,35.72105],[110.28223,35.71174],[110.32897,35.75259],[110.3703,35.7574],[110.41111,35.80997],[110.48663,35.8284],[110.54937,35.85407]]]}},{"type":"Feature","id":"datav:610700","properties":{"boundaryId":"datav:610700","nodeId":"geo:cn-sn-hzj","parentNodeId":"geo:cn-sn","bounds":[105.4935,32.14602,108.27914,33.87438]},"geometry":{"type":"Polygon","coordinates":[[[108.05425,33.70984],[108.00831,33.72899],[107.93158,33.73125],[107.90309,33.74895],[107.85428,33.69408],[107.7635,33.71978],[107.69587,33.72366],[107.67376,33.6995],[107.62869,33.71445],[107.58685,33.69772],[107.56256,33.70273],[107.46769,33.66061],[107.40035,33.65131],[107.37652,33.68285],[107.33617,33.68907],[107.3056,33.71017],[107.30554,33.76688],[107.27279,33.7907],[107.21258,33.74927],[107.14523,33.79425],[107.13695,33.81411],[107.08048,33.8221],[107.03851,33.85462],[107.04323,33.80507],[106.97825,33.80095],[106.88868,33.86099],[106.85558,33.87438],[106.83941,33.82702],[106.80585,33.80983],[106.80384,33.72366],[106.78922,33.67751],[106.71427,33.70136],[106.68704,33.66554],[106.64226,33.65899],[106.64733,33.63481],[106.61791,33.59193],[106.58148,33.59064],[106.55977,33.57089],[106.56306,33.54304],[106.54112,33.51308],[106.45605,33.53794],[106.4469,33.61321],[106.3849,33.61208],[106.3514,33.58724],[106.3034,33.60439],[106.23743,33.56409],[106.18718,33.54652],[106.1333,33.57186],[106.08668,33.6171],[106.06388,33.60415],[105.96211,33.6065],[105.91946,33.55478],[105.90271,33.55616],[105.86834,33.50927],[105.84198,33.49007],[105.83099,33.45644],[105.83795,33.4108],[105.82966,33.38281],[105.70896,33.3807],[105.75524,33.32885],[105.74775,33.29889],[105.79282,33.26275],[105.86259,33.23432],[105.9213,33.23627],[105.92775,33.19847],[105.91871,33.10542],[105.93327,33.07702],[105.91744,32.99378],[105.86172,32.93893],[105.82696,32.95075],[105.73543,32.90533],[105.65658,32.89538],[105.59061,32.87678],[105.56557,32.9068],[105.514,32.91912],[105.4935,32.9055],[105.49552,32.87319],[105.52453,32.84773],[105.53587,32.78984],[105.55469,32.774],[105.56379,32.72489],[105.59637,32.69923],[105.62538,32.70209],[105.67805,32.72653],[105.7192,32.7597],[105.81142,32.77228],[105.83116,32.8261],[105.88688,32.83516],[105.94093,32.82977],[105.96931,32.84904],[106.01156,32.82969],[106.04667,32.8523],[106.09468,32.79597],[106.07269,32.76387],[106.07165,32.75815],[106.12,32.71966],[106.17434,32.69759],[106.25642,32.69326],[106.35117,32.67183],[106.38905,32.62668],[106.42053,32.61662],[106.46198,32.6531],[106.49807,32.64934],[106.51873,32.66865],[106.58861,32.6886],[106.62873,32.68124],[106.66344,32.69072],[106.73206,32.73854],[106.77943,32.73748],[106.79324,32.71263],[106.90342,32.7213],[106.917,32.70331],[107.01255,32.72154],[107.06684,32.70887],[107.0597,32.68614],[107.09907,32.64951],[107.10776,32.60074],[107.08013,32.54237],[107.1271,32.48248],[107.18961,32.46806],[107.21005,32.43199],[107.26393,32.40328],[107.28609,32.45453],[107.31389,32.49018],[107.35689,32.50641],[107.3779,32.53893],[107.43632,32.52976],[107.43874,32.46584],[107.45779,32.45871],[107.45722,32.41772],[107.48974,32.42526],[107.52526,32.38245],[107.59824,32.41157],[107.65045,32.41288],[107.67946,32.39828],[107.71676,32.32886],[107.75458,32.33822],[107.78872,32.27984],[107.8358,32.22306],[107.86752,32.20243],[107.89054,32.21443],[107.92473,32.19701],[107.97936,32.14602],[108.02437,32.17727],[108.01862,32.2118],[108.08821,32.23342],[108.14168,32.21887],[108.15665,32.23901],[108.18083,32.25905],[108.16713,32.29174],[108.13679,32.3181],[108.10945,32.37203],[108.13593,32.38269],[108.11555,32.43322],[108.18612,32.43871],[108.27914,32.49707],[108.25163,32.54507],[108.2495,32.57127],[108.21168,32.60058],[108.26596,32.61531],[108.25307,32.67363],[108.2286,32.69399],[108.24057,32.71615],[108.18929,32.76673],[108.12896,32.77702],[108.1026,32.85034],[108.07819,32.87751],[108.07842,32.90231],[108.12545,32.9439],[108.13224,33.02311],[108.09512,33.07205],[108.1045,33.13415],[108.09799,33.19059],[108.04659,33.22668],[108.03324,33.26097],[108.05292,33.29703],[108.04273,33.32406],[108.05643,33.34922],[108.09552,33.37348],[108.09293,33.4009],[108.15861,33.43236],[108.15164,33.46398],[108.06046,33.52004],[108.05839,33.6188],[108.06507,33.65164],[108.05425,33.70984]]]}},{"type":"Feature","id":"datav:610800","properties":{"boundaryId":"datav:610800","nodeId":"geo:cn-sn-yln","parentNodeId":"geo:cn-sn","bounds":[107.25794,36.81851,111.22716,39.58701]},"geometry":{"type":"Polygon","coordinates":[[[110.41871,36.97359],[110.37715,37.01029],[110.41283,37.01921],[110.42596,37.04085],[110.4605,37.04473],[110.49578,37.08674],[110.53556,37.1151],[110.54028,37.14461],[110.58454,37.18069],[110.65016,37.25434],[110.69506,37.34963],[110.63404,37.36615],[110.6318,37.3988],[110.64815,37.43815],[110.74497,37.45073],[110.75838,37.47116],[110.7711,37.53837],[110.79493,37.56617],[110.77225,37.59266],[110.76373,37.6396],[110.79332,37.65075],[110.77536,37.6809],[110.70657,37.70534],[110.71665,37.7287],[110.75072,37.73616],[110.73576,37.77042],[110.68038,37.79007],[110.58794,37.9266],[110.52249,37.95495],[110.52836,37.99064],[110.5081,38.01284],[110.50188,38.09813],[110.52117,38.12443],[110.50787,38.18493],[110.52393,38.21051],[110.56727,38.21753],[110.57746,38.29725],[110.60129,38.30823],[110.66858,38.31364],[110.70162,38.35334],[110.75032,38.36949],[110.77766,38.4409],[110.79683,38.45345],[110.84069,38.43999],[110.87425,38.45368],[110.87016,38.50889],[110.90769,38.52106],[110.90942,38.56315],[110.88081,38.62693],[110.91621,38.67397],[110.91541,38.70431],[110.96502,38.75569],[111.01009,38.84162],[111.00992,38.93259],[110.97999,38.97226],[110.99841,38.99854],[111.03824,39.02013],[111.08895,39.02707],[111.13834,39.06427],[111.14732,39.10054],[111.17414,39.13514],[111.16309,39.15247],[111.21899,39.24567],[111.22716,39.28441],[111.16171,39.33552],[111.15503,39.36827],[111.10812,39.35656],[111.06437,39.40094],[111.05833,39.44769],[111.08688,39.45669],[111.10714,39.49921],[111.14888,39.53263],[111.15498,39.56866],[111.13679,39.58701],[111.10098,39.55945],[111.01723,39.55204],[110.95915,39.51944],[110.89083,39.50895],[110.80661,39.4113],[110.73829,39.34852],[110.73288,39.30846],[110.70283,39.27388],[110.62627,39.26681],[110.56693,39.31846],[110.55916,39.35212],[110.52174,39.38322],[110.49918,39.36069],[110.435,39.38089],[110.38521,39.31049],[110.25765,39.40709],[110.20619,39.43749],[110.15248,39.45399],[110.12641,39.41685],[110.18529,39.3531],[110.21085,39.28147],[110.11081,39.24973],[110.011,39.20857],[109.9627,39.21188],[109.90272,39.27192],[109.86899,39.24973],[109.96046,39.18674],[109.86013,39.12444],[109.76239,39.05748],[109.69124,38.99265],[109.68376,38.93554],[109.62441,38.85448],[109.54976,38.80567],[109.51119,38.83375],[109.45086,38.78886],[109.41253,38.74758],[109.40395,38.7206],[109.33873,38.7015],[109.32889,38.66047],[109.36654,38.63111],[109.33137,38.59794],[109.27674,38.62299],[109.19685,38.55267],[109.17866,38.52083],[109.12863,38.48053],[109.05427,38.43397],[109.05127,38.38526],[109.00781,38.35913],[108.96188,38.26507],[108.97656,38.2495],[108.93851,38.20745],[108.96447,38.15476],[109.06883,38.09117],[109.01748,37.96996],[108.97955,37.95932],[108.9742,37.93189],[108.9358,37.92162],[108.89384,37.97816],[108.88296,38.01383],[108.83064,38.0498],[108.79766,38.04789],[108.82667,37.99515],[108.79823,37.93365],[108.79322,37.81586],[108.7847,37.76465],[108.79201,37.70027],[108.62837,37.65221],[108.53264,37.69058],[108.42241,37.64883],[108.30113,37.64075],[108.2465,37.66575],[108.19366,37.63829],[108.13391,37.62198],[108.01321,37.66552],[108.02443,37.69866],[107.99369,37.73508],[107.98195,37.78723],[107.8849,37.80834],[107.84271,37.82899],[107.74117,37.84533],[107.68344,37.88774],[107.65022,37.86458],[107.65926,37.8441],[107.64614,37.80519],[107.62069,37.77594],[107.57131,37.77671],[107.49918,37.76565],[107.48508,37.70649],[107.43057,37.6842],[107.38688,37.69112],[107.39672,37.65244],[107.33047,37.58403],[107.3722,37.58003],[107.34566,37.51887],[107.2843,37.48196],[107.28361,37.44078],[107.25794,37.33696],[107.27314,37.29114],[107.30934,37.23887],[107.33784,37.15398],[107.30704,37.10046],[107.2687,37.09945],[107.28522,37.05644],[107.28741,36.99237],[107.30428,36.9517],[107.37065,36.90479],[107.4472,36.89943],[107.47794,36.90844],[107.53372,36.86718],[107.54011,36.82862],[107.59082,36.83624],[107.63952,36.81851],[107.6721,36.8329],[107.7231,36.8591],[107.72327,36.92009],[107.70629,36.96303],[107.72528,37.01626],[107.67486,37.02992],[107.72022,37.07349],[107.69247,37.12386],[107.73438,37.13695],[107.74762,37.2077],[107.79769,37.24614],[107.82009,37.2207],[107.85865,37.21234],[107.86694,37.16397],[107.88715,37.1323],[107.88858,37.08395],[107.93084,37.09403],[107.9591,37.08178],[107.98253,37.1103],[108.03232,37.12719],[108.1022,37.13005],[108.13662,37.19114],[108.17375,37.1957],[108.17472,37.16467],[108.21335,37.17187],[108.27557,37.23524],[108.28225,37.26161],[108.21657,37.32514],[108.31955,37.35881],[108.3614,37.38846],[108.40745,37.38113],[108.42874,37.35696],[108.4387,37.3144],[108.48642,37.28542],[108.47427,37.26161],[108.48665,37.23307],[108.54784,37.16358],[108.53633,37.11712],[108.5521,37.08829],[108.54225,37.03984],[108.5175,37.00331],[108.55849,36.98655],[108.65122,37.03961],[108.68817,36.99664],[108.76824,36.97483],[108.80485,37.003],[108.80905,37.04341],[108.74125,37.08124],[108.79754,37.11169],[108.81953,37.13973],[108.8532,37.1546],[108.85999,37.23655],[108.95088,37.23338],[109.01368,37.30389],[109.04903,37.29547],[109.11787,37.32244],[109.17394,37.30451],[109.20525,37.32089],[109.30765,37.35464],[109.34979,37.37982],[109.38588,37.43815],[109.4534,37.46021],[109.49254,37.49845],[109.56409,37.46014],[109.57629,37.438],[109.63466,37.41941],[109.71778,37.43538],[109.73476,37.4005],[109.77281,37.39325],[109.77344,37.36376],[109.80366,37.34731],[109.76204,37.27073],[109.81195,37.25782],[109.84102,37.27955],[109.87935,37.27089],[109.92678,37.29284],[109.98786,37.26965],[110.02832,37.26524],[110.01313,37.20491],[109.98838,37.19965],[109.97807,37.15166],[110.01111,37.09535],[110.03247,37.0296],[110.11582,36.9732],[110.17056,36.98857],[110.19111,37.01339],[110.24286,37.00362],[110.29472,36.96559],[110.32425,36.98492],[110.38831,36.95861],[110.41871,36.97359]]]}},{"type":"Feature","id":"datav:610900","properties":{"boundaryId":"datav:610900","nodeId":"geo:cn-sn-ank","parentNodeId":"geo:cn-sn","bounds":[108.03324,31.70522,110.20642,33.84155]},"geometry":{"type":"Polygon","coordinates":[[[109.43889,33.15212],[109.37379,33.14724],[109.3392,33.13586],[109.31324,33.16758],[109.25821,33.16774],[109.21855,33.19335],[109.17457,33.16156],[109.1242,33.15985],[109.05962,33.21424],[109.00511,33.1688],[108.97057,33.16034],[108.97322,33.13732],[108.93108,33.12503],[108.86385,33.19278],[108.81694,33.22578],[108.80698,33.24496],[108.74084,33.28379],[108.71051,33.27006],[108.66227,33.32357],[108.58347,33.29849],[108.56988,33.31887],[108.5742,33.37389],[108.59746,33.40723],[108.58819,33.45968],[108.63309,33.50117],[108.62514,33.53316],[108.65381,33.54798],[108.7249,33.53065],[108.75069,33.5364],[108.82851,33.61783],[108.82649,33.64937],[108.87934,33.69853],[108.92291,33.68454],[108.94547,33.72657],[108.92337,33.77471],[108.84699,33.7777],[108.84002,33.81597],[108.80577,33.81718],[108.77849,33.79805],[108.74101,33.84147],[108.69784,33.82832],[108.65007,33.84155],[108.61772,33.82597],[108.58427,33.76454],[108.54456,33.78844],[108.48441,33.80426],[108.40486,33.76332],[108.36945,33.7932],[108.34597,33.79385],[108.307,33.76292],[108.25928,33.75476],[108.23315,33.72665],[108.18019,33.71186],[108.11382,33.71259],[108.07382,33.72342],[108.05425,33.70984],[108.06507,33.65164],[108.05839,33.6188],[108.06046,33.52004],[108.15164,33.46398],[108.15861,33.43236],[108.09293,33.4009],[108.09552,33.37348],[108.05643,33.34922],[108.04273,33.32406],[108.05292,33.29703],[108.03324,33.26097],[108.04659,33.22668],[108.09799,33.19059],[108.1045,33.13415],[108.09512,33.07205],[108.13224,33.02311],[108.12545,32.9439],[108.07842,32.90231],[108.07819,32.87751],[108.1026,32.85034],[108.12896,32.77702],[108.18929,32.76673],[108.24057,32.71615],[108.2286,32.69399],[108.25307,32.67363],[108.26596,32.61531],[108.21168,32.60058],[108.2495,32.57127],[108.25163,32.54507],[108.27914,32.49707],[108.18612,32.43871],[108.11555,32.43322],[108.13593,32.38269],[108.10945,32.37203],[108.13679,32.3181],[108.16713,32.29174],[108.18083,32.25905],[108.15665,32.23901],[108.17933,32.22199],[108.24719,32.27483],[108.31207,32.23219],[108.34798,32.25396],[108.38764,32.26226],[108.41499,32.25248],[108.47174,32.27064],[108.50714,32.24566],[108.5106,32.20021],[108.55106,32.17612],[108.58399,32.17226],[108.67977,32.10299],[108.73405,32.10645],[108.75172,32.07418],[108.78868,32.04833],[108.83789,32.03886],[108.86777,32.0041],[108.90242,31.98491],[108.98675,31.97996],[109.08782,31.92737],[109.12461,31.89216],[109.16703,31.87533],[109.19828,31.84579],[109.19621,31.81756],[109.27358,31.80105],[109.28158,31.71688],[109.39025,31.70522],[109.41788,31.71886],[109.50112,31.71713],[109.54976,31.73002],[109.58573,31.72671],[109.59183,31.78891],[109.63823,31.81104],[109.60755,31.88168],[109.58498,31.90049],[109.62061,31.92861],[109.63126,31.96224],[109.58757,32.02527],[109.62165,32.10678],[109.58711,32.16148],[109.60432,32.19923],[109.59275,32.21936],[109.55045,32.22487],[109.52869,32.27031],[109.49542,32.30037],[109.5132,32.34232],[109.50043,32.37892],[109.52961,32.40574],[109.5269,32.43338],[109.58752,32.51608],[109.63679,32.54106],[109.62004,32.56743],[109.63184,32.60009],[109.7267,32.60827],[109.75819,32.58986],[109.81707,32.57741],[109.91055,32.59272],[109.97116,32.57758],[109.99574,32.55072],[110.02821,32.54843],[110.08819,32.58543],[110.08537,32.6131],[110.13343,32.6122],[110.16515,32.59387],[110.20642,32.63298],[110.1545,32.69007],[110.15962,32.76722],[110.14218,32.80283],[110.0841,32.843],[109.98872,32.88624],[109.93127,32.88535],[109.91596,32.90101],[109.85708,32.91031],[109.80838,32.87898],[109.76435,32.90933],[109.78461,32.98596],[109.79451,33.06692],[109.68808,33.11657],[109.57618,33.11023],[109.51401,33.14025],[109.43889,33.15212]]]}},{"type":"Feature","id":"datav:611000","properties":{"boundaryId":"datav:611000","nodeId":"geo:cn-sn-slh","parentNodeId":"geo:cn-sn","bounds":[108.56988,33.09712,111.02679,34.43216]},"geometry":{"type":"MultiPolygon","coordinates":[[[[109.20738,33.86704],[109.17417,33.8087],[109.16237,33.81266],[109.16421,33.87132],[109.12058,33.87648],[109.10768,33.90761],[109.0515,33.92317],[109.00799,33.88326],[108.94427,33.86664],[108.87479,33.82452],[108.84002,33.81597],[108.84699,33.7777],[108.92337,33.77471],[108.94547,33.72657],[108.92291,33.68454],[108.87934,33.69853],[108.82649,33.64937],[108.82851,33.61783],[108.75069,33.5364],[108.7249,33.53065],[108.65381,33.54798],[108.62514,33.53316],[108.63309,33.50117],[108.58819,33.45968],[108.59746,33.40723],[108.5742,33.37389],[108.56988,33.31887],[108.58347,33.29849],[108.66227,33.32357],[108.71051,33.27006],[108.74084,33.28379],[108.80698,33.24496],[108.81694,33.22578],[108.86385,33.19278],[108.93108,33.12503],[108.97322,33.13732],[108.97057,33.16034],[109.00511,33.1688],[109.05962,33.21424],[109.1242,33.15985],[109.17457,33.16156],[109.21855,33.19335],[109.25821,33.16774],[109.31324,33.16758],[109.3392,33.13586],[109.37379,33.14724],[109.43889,33.15212],[109.4983,33.20733],[109.51424,33.23773],[109.60686,33.23602],[109.6163,33.27412],[109.6498,33.2517],[109.69297,33.2543],[109.73246,33.23131],[109.81316,33.23635],[109.84522,33.24699],[109.9166,33.22968],[109.97364,33.20392],[109.99914,33.21262],[110.04041,33.19124],[110.0776,33.20205],[110.16503,33.20928],[110.21828,33.16319],[110.29731,33.17059],[110.33398,33.15977],[110.36166,33.18173],[110.42233,33.17026],[110.47051,33.18506],[110.54097,33.2556],[110.57769,33.25057],[110.59392,33.20709],[110.59415,33.16855],[110.61637,33.14562],[110.65108,33.15749],[110.70248,33.09712],[110.72781,33.1339],[110.76592,33.15245],[110.7951,33.14993],[110.83056,33.20254],[110.86533,33.21408],[110.92162,33.204],[110.94298,33.23635],[110.98287,33.27006],[111.02604,33.33039],[111.02615,33.37535],[110.99674,33.43593],[111.02679,33.46771],[111.0265,33.47856],[111.00353,33.53308],[111.0037,33.57866],[110.96658,33.60917],[110.87885,33.63465],[110.84184,33.6632],[110.82319,33.69287],[110.83223,33.71283],[110.81594,33.75307],[110.78221,33.79603],[110.74134,33.79877],[110.71262,33.83356],[110.66789,33.85212],[110.61275,33.85107],[110.59151,33.90019],[110.6756,33.94662],[110.62777,34.01953],[110.58661,34.02404],[110.59179,34.1017],[110.61401,34.11369],[110.64199,34.16089],[110.62178,34.17745],[110.55714,34.19336],[110.55144,34.2128],[110.50787,34.21762],[110.44139,34.24244],[110.42648,34.27608],[110.47466,34.32351],[110.49814,34.32006],[110.47373,34.39321],[110.43097,34.40948],[110.37755,34.39834],[110.28436,34.39136],[110.25183,34.40675],[110.19422,34.41477],[110.16233,34.43216],[110.10338,34.42887],[110.03736,34.37781],[110.0072,34.36859],[110.04053,34.32416],[110.00726,34.30321],[110.02406,34.24035],[109.96437,34.20975],[109.88356,34.24742],[109.82559,34.28821],[109.77597,34.252],[109.74357,34.24035],[109.7545,34.21224],[109.78098,34.16008],[109.73982,34.09792],[109.65884,34.10548],[109.63431,34.07563],[109.58424,34.07209],[109.55281,34.04473],[109.53324,33.98208],[109.60363,33.94098],[109.57612,33.89769],[109.50854,33.848],[109.39906,33.84542],[109.35595,33.86761],[109.31692,33.85462],[109.25187,33.88067],[109.20738,33.86704]]],[[[109.17417,33.8087],[109.20738,33.86704],[109.16421,33.87132],[109.16237,33.81266],[109.17417,33.8087]]]]}}]}