{"type":"FeatureCollection","features":[{"type":"Feature","id":"datav:650100","properties":{"boundaryId":"datav:650100","nodeId":"geo:cn-xj-urc","parentNodeId":"geo:cn-xj","bounds":[86.798,42.89895,88.97427,45.00202]},"geometry":{"type":"Polygon","coordinates":[[[87.50466,44.06642],[87.38314,44.04423],[87.26255,43.92376],[87.27856,43.80045],[87.10281,43.59619],[86.99732,43.53095],[86.97123,43.47423],[86.90098,43.4294],[86.94011,43.36719],[86.89594,43.30273],[86.84468,43.1597],[86.798,43.11244],[86.92638,43.05152],[87.05453,43.02294],[87.11128,43.06309],[87.2701,43.03232],[87.53807,42.9082],[87.75821,42.89895],[87.75593,42.9612],[87.63807,42.99816],[87.48795,43.10278],[87.3852,43.12357],[87.3939,43.18412],[87.36804,43.28127],[87.58773,43.26098],[87.75249,43.29806],[87.88614,43.29864],[88.16463,43.33103],[88.22505,43.32519],[88.24793,43.22461],[88.3516,43.22709],[88.43078,43.19743],[88.52346,43.26259],[88.55504,43.34255],[88.64154,43.35392],[88.7539,43.39663],[88.84269,43.38847],[88.93148,43.43537],[88.97427,43.55101],[88.93629,43.63248],[88.83514,43.7208],[88.75848,43.70645],[88.60012,43.80392],[88.33924,43.80146],[88.28249,43.83097],[88.21086,43.7589],[88.13283,43.81709],[88.09072,43.81318],[88.01841,43.8745],[87.99689,43.99463],[87.86623,44.06398],[87.82435,44.12331],[87.80215,44.37824],[88.00445,45.00202],[87.33623,45.00187],[87.55546,44.66587],[87.59116,44.53338],[87.59871,44.47776],[87.69345,44.41663],[87.71611,44.35688],[87.69116,44.22196],[87.58407,44.23935],[87.57674,44.11654],[87.50466,44.06642]]]}},{"type":"Feature","id":"datav:650200","properties":{"boundaryId":"datav:650200","nodeId":"geo:cn-xj-kar","parentNodeId":"geo:cn-xj","bounds":[84.57939,44.16144,86.02429,46.19806]},"geometry":{"type":"MultiPolygon","coordinates":[[[[85.0103,44.75522],[85.02723,44.88621],[85.05149,44.93179],[85.15607,44.97096],[85.17163,45.02271],[85.25836,45.03164],[85.25035,45.15861],[85.20183,45.24422],[85.24577,45.32901],[85.28353,45.42141],[85.38811,45.43618],[85.49178,45.51267],[85.59155,45.6544],[85.64235,45.78921],[85.93184,45.97527],[85.9625,46.04476],[86.02429,46.068],[85.99317,46.1239],[85.903,46.18182],[85.55745,46.19806],[85.3801,46.14363],[85.28284,46.09081],[85.29314,45.99325],[85.22838,45.85014],[85.12998,45.74543],[85.05995,45.7131],[84.95675,45.70778],[84.91029,45.64894],[84.78351,45.59761],[84.71074,45.4518],[84.57939,45.31068],[84.58877,45.2414],[84.66886,45.15861],[84.66154,45.10287],[84.80525,45.02569],[84.86155,44.89942],[85.0103,44.75522]]],[[[85.11327,44.34369],[84.9746,44.38469],[84.77825,44.39085],[84.79724,44.16144],[84.91739,44.17927],[84.9691,44.29735],[85.11327,44.34369]]]]}},{"type":"Feature","id":"datav:650400","properties":{"boundaryId":"datav:650400","nodeId":null,"bounds":[87.36804,41.19769,91.9103,43.63248]},"geometry":{"type":"Polygon","coordinates":[[[91.9103,41.27142],[91.90526,41.39969],[91.78444,41.55878],[91.82128,41.57393],[91.85538,41.74336],[91.73707,42.01105],[91.6961,42.06451],[91.63272,42.07523],[91.63752,42.14053],[91.50365,42.2028],[91.47298,42.29541],[91.44735,42.49443],[91.40731,42.6713],[91.42905,42.7273],[91.41623,42.83546],[91.34735,43.10205],[91.31303,43.13513],[91.25513,43.29514],[91.25902,43.33424],[91.16908,43.49518],[91.01759,43.49533],[90.8812,43.53284],[90.68692,43.5231],[90.5551,43.50143],[90.42055,43.52688],[90.31803,43.50493],[90.17294,43.55348],[90.05715,43.5199],[89.92007,43.45284],[89.75874,43.4639],[89.67956,43.41032],[89.51914,43.44978],[89.39809,43.44934],[89.28023,43.55275],[89.22691,43.52645],[89.13812,43.60025],[88.9999,43.60708],[88.93629,43.63248],[88.97427,43.55101],[88.93148,43.43537],[88.84269,43.38847],[88.7539,43.39663],[88.64154,43.35392],[88.55504,43.34255],[88.52346,43.26259],[88.43078,43.19743],[88.3516,43.22709],[88.24793,43.22461],[88.22505,43.32519],[88.16463,43.33103],[87.88614,43.29864],[87.75249,43.29806],[87.58773,43.26098],[87.36804,43.28127],[87.3939,43.18412],[87.3852,43.12357],[87.48795,43.10278],[87.63807,42.99816],[87.75593,42.9612],[87.75821,42.89895],[87.53807,42.9082],[87.5431,42.8459],[87.50924,42.7956],[87.69139,42.76072],[87.84105,42.76823],[87.9049,42.70402],[87.91314,42.65936],[88.12894,42.5723],[88.20239,42.50167],[88.1223,42.3713],[88.00353,42.32922],[87.89826,42.24868],[87.92344,42.17799],[87.99758,42.06987],[88.13878,42.00419],[88.21544,41.8713],[88.34199,41.76804],[88.34748,41.53357],[88.31887,41.49318],[88.40652,41.45983],[88.56328,41.47786],[88.73536,41.475],[88.85962,41.42195],[89.08206,41.40992],[89.20403,41.36118],[89.33882,41.40481],[89.46079,41.35982],[89.6981,41.3666],[89.74364,41.34462],[89.83426,41.37713],[89.96035,41.35742],[90.10864,41.25288],[90.39972,41.23419],[90.54023,41.25002],[90.78051,41.22574],[90.90592,41.22755],[91.09265,41.25138],[91.19449,41.2265],[91.44667,41.19769],[91.64118,41.22695],[91.84027,41.28107],[91.9103,41.27142]]]}},{"type":"Feature","id":"datav:650500","properties":{"boundaryId":"datav:650500","nodeId":null,"bounds":[91.16908,40.87539,96.38619,45.09693]},"geometry":{"type":"Polygon","coordinates":[[[91.51875,45.09693],[91.50182,45.03093],[91.54393,44.98145],[91.5691,44.89487],[91.38717,44.73656],[91.4025,44.62479],[91.34895,44.54996],[91.34438,44.4716],[91.28762,44.37552],[91.33293,44.28013],[91.33499,44.17467],[91.30708,44.00891],[91.43591,43.90946],[91.51143,43.87088],[91.56383,43.74557],[91.36634,43.70514],[91.47093,43.67528],[91.47482,43.60534],[91.31714,43.58631],[91.29586,43.5465],[91.17481,43.52499],[91.16908,43.49518],[91.25902,43.33424],[91.25513,43.29514],[91.31303,43.13513],[91.34735,43.10205],[91.41623,42.83546],[91.42905,42.7273],[91.40731,42.6713],[91.44735,42.49443],[91.47298,42.29541],[91.50365,42.2028],[91.63752,42.14053],[91.63272,42.07523],[91.6961,42.06451],[91.73707,42.01105],[91.85538,41.74336],[91.82128,41.57393],[91.78444,41.55878],[91.90526,41.39969],[91.9103,41.27142],[92.07003,41.26419],[92.37324,41.16554],[92.53595,41.12085],[92.74282,41.12523],[92.86319,41.11299],[92.99569,41.07975],[93.20073,40.99097],[93.34833,40.994],[93.55681,40.95751],[93.69663,40.87539],[93.80991,40.87933],[93.90831,40.9834],[94.01083,41.1148],[94.18406,41.26856],[94.53419,41.50594],[94.75021,41.53837],[94.86189,41.66851],[94.96875,41.71882],[95.13627,41.77283],[95.25023,41.60902],[95.30675,41.57168],[95.33536,41.64424],[95.3944,41.69352],[95.57152,41.796],[95.67725,41.83097],[95.85574,41.84964],[96.03836,41.92473],[96.11593,41.98482],[96.13905,42.05424],[96.07726,42.1496],[96.17841,42.21794],[96.0411,42.32655],[96.06605,42.41454],[95.97863,42.43674],[96.02371,42.54246],[96.10358,42.60418],[96.16628,42.62337],[96.38619,42.72774],[96.36354,42.90056],[95.92142,43.22972],[95.87977,43.2801],[95.85803,43.4176],[95.7356,43.5975],[95.62301,43.8557],[95.5269,44.00747],[95.32666,44.02881],[95.37609,44.22742],[95.41362,44.29865],[94.99873,44.25314],[94.94541,44.29276],[94.72275,44.34082],[94.60604,44.44828],[94.4708,44.50951],[94.35889,44.51566],[94.32983,44.58267],[94.21541,44.66816],[93.72386,44.86532],[93.71608,44.89445],[93.50944,44.96826],[93.43438,44.95521],[93.17396,45.0152],[92.93299,45.01733],[92.88425,45.0468],[92.77944,45.05062],[92.50094,45.00117],[92.31535,45.02895],[92.24029,45.01591],[92.10024,45.0815],[91.8032,45.08277],[91.69496,45.06536],[91.56155,45.07555],[91.51875,45.09693]]]}},{"type":"Feature","id":"datav:652300","properties":{"boundaryId":"datav:652300","nodeId":"geo:cn-xj-cjz","parentNodeId":"geo:cn-xj","bounds":[85.5975,43.11244,91.5691,45.48765]},"geometry":{"type":"MultiPolygon","coordinates":[[[[90.67136,45.48765],[90.49492,45.42028],[90.29217,45.17727],[90.22237,45.06436],[90.23816,45.00173],[88.00445,45.00202],[87.80215,44.37824],[87.82435,44.12331],[87.86623,44.06398],[87.99689,43.99463],[88.01841,43.8745],[88.09072,43.81318],[88.13283,43.81709],[88.21086,43.7589],[88.28249,43.83097],[88.33924,43.80146],[88.60012,43.80392],[88.75848,43.70645],[88.83514,43.7208],[88.93629,43.63248],[88.9999,43.60708],[89.13812,43.60025],[89.22691,43.52645],[89.28023,43.55275],[89.39809,43.44934],[89.51914,43.44978],[89.67956,43.41032],[89.75874,43.4639],[89.92007,43.45284],[90.05715,43.5199],[90.17294,43.55348],[90.31803,43.50493],[90.42055,43.52688],[90.5551,43.50143],[90.68692,43.5231],[90.8812,43.53284],[91.01759,43.49533],[91.16908,43.49518],[91.17481,43.52499],[91.29586,43.5465],[91.31714,43.58631],[91.47482,43.60534],[91.47093,43.67528],[91.36634,43.70514],[91.56383,43.74557],[91.51143,43.87088],[91.43591,43.90946],[91.30708,44.00891],[91.33499,44.17467],[91.33293,44.28013],[91.28762,44.37552],[91.34438,44.4716],[91.34895,44.54996],[91.4025,44.62479],[91.38717,44.73656],[91.5691,44.89487],[91.54393,44.98145],[91.50182,45.03093],[91.51875,45.09693],[91.44919,45.15663],[91.37733,45.11108],[91.24208,45.13739],[91.12972,45.21598],[91.00798,45.21838],[90.88189,45.19182],[90.89745,45.24987],[90.83177,45.30039],[90.77227,45.43281],[90.67136,45.48765]]],[[[87.59116,44.53338],[87.55546,44.66587],[87.33623,45.00187],[87.33692,45.33056],[86.487,45.33253],[85.66684,45.33112],[85.6689,44.9193],[85.78149,44.92285],[85.86845,44.86589],[85.94213,44.75963],[85.90689,44.73656],[85.95564,44.63863],[86.06823,44.60181],[86.08402,44.49035],[86.12269,44.44899],[86.14168,44.32734],[86.12887,44.21147],[86.09614,44.1259],[85.96754,44.00358],[85.96502,43.93171],[85.88378,43.92059],[85.78629,43.83951],[85.7792,43.76368],[85.73915,43.73181],[85.7197,43.63858],[85.66501,43.6229],[85.5975,43.53081],[85.78721,43.45036],[85.86341,43.446],[85.98905,43.40304],[86.09042,43.43173],[86.16617,43.30681],[86.24375,43.28828],[86.29318,43.24433],[86.38036,43.22651],[86.48632,43.14215],[86.61607,43.1142],[86.798,43.11244],[86.84468,43.1597],[86.89594,43.30273],[86.94011,43.36719],[86.90098,43.4294],[86.97123,43.47423],[86.99732,43.53095],[87.10281,43.59619],[87.27856,43.80045],[87.26255,43.92376],[87.38314,44.04423],[87.50466,44.06642],[87.49367,44.10762],[87.52342,44.22728],[87.42388,44.35143],[87.44928,44.44355],[87.37056,44.56696],[87.59116,44.53338]]]]}},{"type":"Feature","id":"datav:652700","properties":{"boundaryId":"datav:652700","nodeId":"geo:cn-xj-bor","parentNodeId":"geo:cn-xj","bounds":[79.88793,44.00617,83.79584,45.38368]},"geometry":{"type":"MultiPolygon","coordinates":[[[[82.17221,44.71363],[82.13972,44.80133],[81.96854,44.72303],[82.01248,44.675],[81.96076,44.58482],[82.08251,44.57053],[82.08388,44.51466],[82.00218,44.45601],[81.83833,44.43826],[81.7516,44.34713],[82.03239,44.28544],[82.28366,44.24912],[82.36032,44.26534],[82.44499,44.18243],[82.67292,44.11424],[82.70541,44.07118],[82.78116,44.08587],[82.8997,44.05331],[82.94592,44.08357],[83.12671,44.09293],[83.24342,44.0732],[83.31047,44.00833],[83.42992,44.00617],[83.46882,44.03688],[83.41207,44.16892],[83.53153,44.41492],[83.51757,44.4676],[83.79332,44.46674],[83.74549,44.55296],[83.79584,44.75679],[83.73039,44.80105],[83.66631,44.88834],[83.60018,44.89416],[83.47409,44.97606],[83.26355,44.99833],[83.00268,45.05077],[82.85553,45.10089],[82.75782,45.1521],[82.68321,45.1538],[82.61548,45.1091],[82.58825,45.03858],[82.65644,44.94443],[82.67955,44.87143],[82.73585,44.82736],[82.59648,44.72289],[82.54316,44.70907],[82.39396,44.66972],[82.35895,44.66844],[82.23583,44.6817],[82.17221,44.71363]]],[[[82.14567,44.89672],[82.13056,44.92512],[81.99395,44.96117],[81.9404,45.01024],[82.05894,45.04127],[82.13377,45.03717],[82.20036,44.98429],[82.27519,45.03008],[82.29579,45.10669],[82.23514,45.12424],[82.16146,45.22629],[82.05299,45.2558],[81.92072,45.23335],[81.78799,45.38368],[81.58272,45.33662],[81.5754,45.30786],[81.44976,45.26568],[81.32779,45.26088],[81.11131,45.21838],[81.02458,45.16285],[80.90627,45.13117],[80.73166,45.1562],[80.59916,45.1057],[80.44584,45.09778],[80.40442,45.04949],[80.32821,45.07003],[80.25476,45.03518],[80.11196,45.05275],[79.88793,44.90922],[79.99937,44.79379],[80.18794,44.8258],[80.26277,44.84357],[80.48291,44.73941],[80.63829,44.71064],[80.66072,44.6372],[80.755,44.61023],[80.89002,44.52981],[80.99826,44.53553],[81.21131,44.46288],[81.35846,44.44255],[81.4596,44.451],[81.70011,44.39429],[81.7516,44.34713],[81.83833,44.43826],[82.00218,44.45601],[82.08388,44.51466],[82.08251,44.57053],[81.96076,44.58482],[82.01248,44.675],[81.96854,44.72303],[82.13972,44.80133],[82.17221,44.71363],[82.23926,44.72403],[82.27107,44.76632],[82.207,44.82125],[82.15002,44.83391],[82.14567,44.89672]]],[[[82.207,44.82125],[82.27107,44.76632],[82.23926,44.72403],[82.23583,44.6817],[82.35895,44.66844],[82.39396,44.66972],[82.54316,44.70907],[82.49991,44.74084],[82.2681,44.83263],[82.207,44.82125]]],[[[82.13056,44.92512],[82.14567,44.89672],[82.2784,44.86063],[82.3562,44.90183],[82.49648,44.88422],[82.65644,44.94443],[82.58825,45.03858],[82.52577,45.08532],[82.45414,45.0689],[82.43881,45.00698],[82.27519,45.03008],[82.20036,44.98429],[82.20059,44.91788],[82.13056,44.92512]]],[[[82.58275,45.21909],[82.48687,45.18108],[82.29441,45.24775],[82.16146,45.22629],[82.23514,45.12424],[82.29579,45.10669],[82.45414,45.0689],[82.52577,45.08532],[82.58825,45.03858],[82.61548,45.1091],[82.68321,45.1538],[82.58275,45.21909]]]]}},{"type":"Feature","id":"datav:652800","properties":{"boundaryId":"datav:652800","nodeId":"geo:cn-xj-bag","parentNodeId":"geo:cn-xj","bounds":[82.47039,35.65232,93.82112,43.56394]},"geometry":{"type":"MultiPolygon","coordinates":[[[[85.89499,41.82186],[85.7927,41.82589],[85.73961,41.75637],[85.78584,41.66447],[85.70368,41.68424],[85.70551,41.7459],[85.5261,41.74022],[85.35768,41.7474],[85.36797,41.82649],[85.49841,41.86637],[85.51214,41.91458],[85.43731,41.93204],[85.40871,41.94203],[85.26248,41.97111],[85.26385,42.03458],[85.34097,42.10945],[85.33571,42.17724],[85.26362,42.21126],[85.26522,42.28355],[85.15561,42.27895],[85.02082,42.29675],[84.89954,42.35678],[84.77367,42.30772],[84.75857,42.35945],[84.60159,42.38922],[84.49563,42.4329],[84.32469,42.4434],[84.23201,42.42491],[84.12148,42.48452],[84.00294,42.50123],[83.9471,42.53197],[83.93246,42.37382],[83.9741,42.29452],[83.88028,42.26174],[83.88074,42.18645],[83.92467,42.14603],[83.98761,41.93323],[83.96426,41.809],[83.92971,41.77492],[83.90065,41.59763],[84.0153,41.4454],[84.03452,41.16886],[84.08738,41.12085],[84.05878,41.08232],[84.07319,40.92404],[84.06747,40.77707],[84.01209,40.11314],[84.00957,40.03765],[83.95191,39.9564],[83.41482,39.48323],[83.39514,39.32163],[83.38781,38.98344],[83.38667,38.38822],[83.50269,38.28158],[83.74778,38.11534],[83.81918,38.0481],[83.88554,37.94729],[83.93841,37.83225],[83.93246,37.78552],[83.96358,37.6534],[83.98989,37.61227],[83.97571,37.41044],[83.89447,37.34973],[83.8622,37.29121],[83.79126,37.2502],[83.85534,37.11777],[83.86083,37.07011],[83.82101,36.96333],[83.85831,36.86746],[83.83314,36.83232],[83.91415,36.76697],[83.99104,36.76858],[84.08463,36.69498],[84.16793,36.69482],[84.30272,36.61117],[84.34643,36.54564],[84.30821,36.42263],[84.35581,36.39778],[84.36336,36.31122],[84.41668,36.27664],[84.53774,36.26936],[84.57046,36.2257],[84.67344,36.18283],[84.68122,36.14284],[84.77505,36.10235],[84.84347,36.09895],[84.87368,35.98449],[84.86132,35.94521],[84.91418,35.85442],[84.91761,35.77442],[84.98627,35.72511],[85.05309,35.75197],[85.15927,35.74546],[85.27117,35.78874],[85.3412,35.75343],[85.37415,35.70037],[85.61375,35.65232],[85.65334,35.7313],[85.80323,35.77833],[85.949,35.77881],[86.05999,35.84581],[86.12612,35.93174],[86.13276,35.97946],[86.20004,36.0479],[86.1902,36.13248],[86.28013,36.17085],[86.35817,36.16875],[86.39295,36.20694],[86.70005,36.24479],[86.74605,36.29199],[86.83621,36.29135],[86.93164,36.26549],[86.99617,36.30864],[87.1495,36.29749],[87.19344,36.34935],[87.29229,36.35904],[87.36186,36.41908],[87.46026,36.40988],[87.47033,36.35435],[87.57056,36.3424],[87.7319,36.38487],[87.76851,36.3747],[87.91955,36.39358],[87.98294,36.43779],[88.13466,36.42715],[88.24153,36.4686],[88.36556,36.45779],[88.47059,36.4823],[88.49874,36.44618],[88.57312,36.46118],[88.62369,36.38939],[88.69005,36.36808],[88.72507,36.31963],[88.92599,36.36436],[88.94887,36.32932],[89.19899,36.26031],[89.23218,36.29571],[89.29854,36.22862],[89.37543,36.22813],[89.49031,36.1511],[89.76171,36.07319],[89.91275,36.07934],[89.93723,36.13005],[90.00909,36.18429],[90.02808,36.25837],[90.25349,36.15742],[90.42398,36.13394],[90.52696,36.14851],[90.66289,36.13394],[90.77639,36.08631],[90.84688,36.01693],[90.92262,36.02893],[90.99494,36.10786],[91.09242,36.08874],[91.0986,36.21681],[91.05398,36.23541],[91.07412,36.29765],[91.02652,36.32366],[91.0526,36.4265],[91.0359,36.53001],[90.90683,36.55949],[90.83292,36.55804],[90.74092,36.5859],[90.70614,36.66105],[90.7336,36.82735],[90.78921,36.84564],[90.87365,36.92054],[90.98372,36.91364],[91.13361,37.00769],[91.3057,37.01282],[91.2803,37.16381],[91.19105,37.20582],[91.19449,37.27366],[91.13476,37.32422],[91.09746,37.4504],[91.05695,37.48382],[90.9407,37.48048],[90.86587,37.53059],[90.88258,37.57573],[90.77616,37.65054],[90.57936,37.72052],[90.51963,37.73083],[90.51643,38.20725],[90.53085,38.31982],[90.36173,38.30015],[90.35281,38.23356],[90.28072,38.23813],[90.1377,38.34058],[90.17912,38.39702],[90.11184,38.41902],[90.13083,38.49423],[90.31528,38.50191],[90.42695,38.49391],[90.46357,38.55666],[90.53565,38.56795],[90.64321,38.64081],[90.83109,38.66806],[91.30158,38.7477],[91.44644,38.8135],[91.61326,38.83896],[91.69244,38.86551],[91.77711,38.86254],[91.99039,38.93869],[92.17118,38.96052],[92.25676,39.00074],[92.41833,39.01305],[92.34441,39.14411],[92.34006,39.23813],[92.52542,39.36861],[92.63984,39.51433],[92.74557,39.86827],[92.7966,40.15392],[92.9069,40.31067],[92.92841,40.57269],[93.50646,40.64849],[93.7607,40.66492],[93.82112,40.79377],[93.80991,40.87933],[93.69663,40.87539],[93.55681,40.95751],[93.34833,40.994],[93.20073,40.99097],[92.99569,41.07975],[92.86319,41.11299],[92.74282,41.12523],[92.53595,41.12085],[92.37324,41.16554],[92.07003,41.26419],[91.9103,41.27142],[91.84027,41.28107],[91.64118,41.22695],[91.44667,41.19769],[91.19449,41.2265],[91.09265,41.25138],[90.90592,41.22755],[90.78051,41.22574],[90.54023,41.25002],[90.39972,41.23419],[90.10864,41.25288],[89.96035,41.35742],[89.83426,41.37713],[89.74364,41.34462],[89.6981,41.3666],[89.46079,41.35982],[89.33882,41.40481],[89.20403,41.36118],[89.08206,41.40992],[88.85962,41.42195],[88.73536,41.475],[88.56328,41.47786],[88.40652,41.45983],[88.31887,41.49318],[88.34748,41.53357],[88.34199,41.76804],[88.21544,41.8713],[88.13878,42.00419],[87.99758,42.06987],[87.92344,42.17799],[87.89826,42.24868],[88.00353,42.32922],[88.1223,42.3713],[88.20239,42.50167],[88.12894,42.5723],[87.91314,42.65936],[87.9049,42.70402],[87.84105,42.76823],[87.69139,42.76072],[87.50924,42.7956],[87.27559,42.77706],[87.22524,42.74762],[87.01563,42.74541],[87.00922,42.67823],[86.95361,42.57924],[87.02432,42.45006],[86.75109,42.41795],[86.6163,42.30209],[86.63506,42.2319],[86.73507,42.16966],[86.70463,42.10305],[86.57808,42.0316],[86.59547,41.96887],[86.52179,41.90608],[86.52293,41.85009],[86.36206,41.83052],[86.09958,41.79839],[86.09111,41.77118],[85.88859,41.76385],[85.89499,41.82186]]],[[[82.63813,42.59769],[82.72235,42.59592],[82.82647,42.6452],[82.84157,42.56801],[82.95874,42.63045],[83.07842,42.55369],[83.22786,42.58367],[83.35372,42.53906],[83.35074,42.50833],[83.48759,42.46988],[83.71391,42.54069],[83.9471,42.53197],[84.00294,42.50123],[84.12148,42.48452],[84.23201,42.42491],[84.32469,42.4434],[84.49563,42.4329],[84.60159,42.38922],[84.75857,42.35945],[84.77367,42.30772],[84.89954,42.35678],[85.02082,42.29675],[85.15561,42.27895],[85.26522,42.28355],[85.26362,42.21126],[85.33571,42.17724],[85.34097,42.10945],[85.26385,42.03458],[85.26248,41.97111],[85.40871,41.94203],[85.44395,41.93845],[85.48743,42.197],[85.76066,42.06972],[85.75174,42.03726],[85.85838,42.01462],[86.00049,42.01894],[86.01742,41.96499],[86.11399,41.89847],[86.22429,41.90802],[86.36206,41.83052],[86.52293,41.85009],[86.52179,41.90608],[86.59547,41.96887],[86.57808,42.0316],[86.70463,42.10305],[86.73507,42.16966],[86.63506,42.2319],[86.6163,42.30209],[86.75109,42.41795],[87.02432,42.45006],[86.95361,42.57924],[87.00922,42.67823],[87.01563,42.74541],[87.22524,42.74762],[87.27559,42.77706],[87.50924,42.7956],[87.5431,42.8459],[87.53807,42.9082],[87.2701,43.03232],[87.11128,43.06309],[87.05453,43.02294],[86.92638,43.05152],[86.798,43.11244],[86.61607,43.1142],[86.48632,43.14215],[86.38036,43.22651],[86.29318,43.24433],[86.24375,43.28828],[86.16617,43.30681],[86.09042,43.43173],[85.98905,43.40304],[85.86341,43.446],[85.78721,43.45036],[85.5975,43.53081],[85.51969,43.53619],[85.43411,43.47889],[85.32815,43.48674],[85.15698,43.5468],[85.05629,43.56394],[84.95057,43.48427],[84.92425,43.42518],[84.78672,43.46594],[84.63317,43.43275],[84.69289,43.40187],[84.62355,43.33803],[84.53225,43.2928],[84.56474,43.23104],[84.65376,43.17535],[84.42332,43.16175],[84.35901,43.1442],[84.27915,43.17491],[84.10431,43.14551],[83.96312,43.15619],[83.91255,43.1281],[83.71323,43.13747],[83.67982,43.09751],[83.50475,43.05885],[83.32511,43.04742],[83.2663,43.01796],[83.13563,42.99215],[83.01389,43.00711],[82.8926,42.9923],[82.7894,42.9339],[82.65324,42.93434],[82.64935,42.88367],[82.53264,42.90174],[82.47039,42.84325],[82.59923,42.71964],[82.63813,42.59769]]],[[[85.7927,41.82589],[85.89499,41.82186],[86.09958,41.79839],[86.36206,41.83052],[86.22429,41.90802],[86.11399,41.89847],[86.01742,41.96499],[86.00049,42.01894],[85.85838,42.01462],[85.75174,42.03726],[85.76066,42.06972],[85.48743,42.197],[85.44395,41.93845],[85.43731,41.93204],[85.51214,41.91458],[85.75448,41.85278],[85.7927,41.82589]]]]}},{"type":"Feature","id":"datav:652900","properties":{"boundaryId":"datav:652900","nodeId":"geo:cn-xj-akd","parentNodeId":"geo:cn-xj","bounds":[78.03134,39.46403,84.08738,42.6452]},"geometry":{"type":"MultiPolygon","coordinates":[[[[78.36499,40.00971],[78.54349,40.06145],[78.60596,40.13169],[78.75997,40.18701],[78.80734,40.22591],[78.90368,40.25713],[79.00391,40.21979],[79.14511,40.25652],[79.34306,40.24107],[79.49729,40.21182],[79.58723,40.17568],[79.83346,40.13139],[79.86916,40.14564],[79.91539,40.38662],[79.94102,40.44295],[80.03713,40.53689],[80.02294,40.59279],[80.08725,40.69457],[80.0504,40.82883],[80.13668,40.89191],[80.22455,40.88388],[80.24926,40.82473],[80.33188,40.85006],[80.45797,40.77388],[80.57971,40.66659],[80.5923,40.61988],[80.72594,40.70141],[80.79185,40.70324],[80.86736,40.65899],[80.99048,40.70248],[81.14083,40.69898],[81.32985,40.76295],[81.38569,40.82503],[81.45709,40.8047],[81.86351,40.94403],[81.8841,40.941],[81.99989,41.07673],[82.06145,41.12644],[82.18182,41.1666],[82.29464,41.23268],[82.45666,41.2559],[82.52051,41.32369],[82.57932,41.34206],[82.63584,41.50324],[82.72921,41.46388],[82.84889,41.47876],[83.01503,41.37788],[83.03082,41.28935],[83.06904,41.24323],[83.14639,41.22363],[83.30131,41.12402],[83.47889,41.13595],[83.58965,41.15724],[83.61665,41.10846],[83.74526,41.03106],[83.76998,40.97689],[83.84824,40.9563],[83.83726,40.91389],[83.88966,40.83368],[84.06747,40.77707],[84.07319,40.92404],[84.05878,41.08232],[84.08738,41.12085],[84.03452,41.16886],[84.0153,41.4454],[83.90065,41.59763],[83.92971,41.77492],[83.96426,41.809],[83.98761,41.93323],[83.92467,42.14603],[83.88074,42.18645],[83.88028,42.26174],[83.9741,42.29452],[83.93246,42.37382],[83.9471,42.53197],[83.71391,42.54069],[83.48759,42.46988],[83.35074,42.50833],[83.35372,42.53906],[83.22786,42.58367],[83.07842,42.55369],[82.95874,42.63045],[82.84157,42.56801],[82.82647,42.6452],[82.72235,42.59592],[82.63813,42.59769],[82.5855,42.54394],[82.40723,42.55162],[82.3665,42.50404],[82.23011,42.49458],[82.13354,42.44044],[81.95985,42.40226],[81.80515,42.40596],[81.75183,42.36553],[81.58203,42.37412],[81.50949,42.35204],[81.31864,42.35782],[81.19552,42.3436],[81.04815,42.28473],[81.02526,42.34285],[80.89803,42.36923],[80.80397,42.33974],[80.76164,42.36153],[80.53188,42.36093],[80.4154,42.30475],[80.28405,42.32062],[80.28657,42.23309],[80.16871,42.20027],[80.16803,42.0968],[80.08976,42.04754],[79.92362,42.04233],[79.85268,42.01537],[79.77671,41.89249],[79.64101,41.88473],[79.55107,41.83396],[79.45702,41.84785],[79.35656,41.7957],[79.32589,41.80945],[79.21902,41.72645],[79.13801,41.72301],[78.95769,41.65158],[78.82519,41.56028],[78.73892,41.55563],[78.65058,41.46734],[78.58056,41.48161],[78.4547,41.41233],[78.39177,41.40827],[78.5071,41.31044],[78.56591,41.28815],[78.71191,41.18562],[78.82633,40.99475],[78.87553,40.98522],[78.8618,40.89161],[78.72564,40.82291],[78.57049,40.76614],[78.58559,40.63784],[78.52358,40.55258],[78.20526,40.42036],[78.15858,40.38723],[78.15583,40.33116],[78.09107,40.27488],[78.03134,40.09382],[78.09267,40.06083],[78.31327,40.06605],[78.36499,40.00971]]],[[[80.5923,40.61988],[80.57971,40.66659],[80.45797,40.77388],[80.33188,40.85006],[80.24926,40.82473],[80.22455,40.88388],[80.13668,40.89191],[80.0504,40.82883],[80.08725,40.69457],[80.02294,40.59279],[80.03713,40.53689],[79.94102,40.44295],[79.91539,40.38662],[79.86916,40.14564],[79.83346,40.13139],[79.86298,39.95717],[79.78838,39.80191],[79.76435,39.62283],[80.16231,39.46403],[81.06234,39.48338],[81.95596,39.48369],[82.58504,39.484],[83.41482,39.48323],[83.95191,39.9564],[84.00957,40.03765],[84.01209,40.11314],[84.06747,40.77707],[83.88966,40.83368],[83.83726,40.91389],[83.84824,40.9563],[83.76998,40.97689],[83.74526,41.03106],[83.61665,41.10846],[83.58965,41.15724],[83.47889,41.13595],[83.30131,41.12402],[83.14639,41.22363],[83.06904,41.24323],[83.03082,41.28935],[83.01503,41.37788],[82.84889,41.47876],[82.72921,41.46388],[82.63584,41.50324],[82.57932,41.34206],[82.52051,41.32369],[82.45666,41.2559],[82.29464,41.23268],[82.18182,41.1666],[82.06145,41.12644],[81.99989,41.07673],[81.8841,40.941],[81.8127,40.8132],[81.74337,40.73333],[81.82254,40.68514],[81.94475,40.49436],[81.7603,40.43791],[81.28111,40.43593],[81.2104,40.39731],[81.00307,40.39685],[80.90787,40.42036],[80.74013,40.36936],[80.6058,40.42326],[80.67399,40.51158],[80.72937,40.45241],[80.7804,40.50594],[80.5923,40.61988]]]]}},{"type":"Feature","id":"datav:653000","properties":{"boundaryId":"datav:653000","nodeId":"geo:cn-xj-kiz","parentNodeId":"geo:cn-xj","bounds":[73.53943,37.65213,78.87553,41.40827]},"geometry":{"type":"Polygon","coordinates":[[[78.36499,40.00971],[78.31327,40.06605],[78.09267,40.06083],[78.03134,40.09382],[78.09107,40.27488],[78.15583,40.33116],[78.15858,40.38723],[78.20526,40.42036],[78.52358,40.55258],[78.58559,40.63784],[78.57049,40.76614],[78.72564,40.82291],[78.8618,40.89161],[78.87553,40.98522],[78.82633,40.99475],[78.71191,41.18562],[78.56591,41.28815],[78.5071,41.31044],[78.39177,41.40827],[78.3238,41.3842],[78.23226,41.39849],[78.16613,41.3842],[78.12905,41.22816],[77.97344,41.17339],[77.90479,41.18516],[77.80776,41.12342],[77.8295,41.05949],[77.59151,40.99233],[77.36313,41.04074],[77.2963,41.00504],[77.1693,41.00913],[77.09149,41.06267],[77.00224,41.0734],[76.94092,41.02879],[76.88576,41.02743],[76.8535,40.97644],[76.76196,40.95403],[76.73153,40.81912],[76.64663,40.76006],[76.67592,40.69427],[76.65738,40.62034],[76.55692,40.54268],[76.50909,40.42952],[76.33334,40.34369],[76.28323,40.41517],[75.98642,40.38188],[75.92143,40.29125],[75.83104,40.32733],[75.70907,40.28085],[75.66993,40.36386],[75.73447,40.46751],[75.64613,40.51662],[75.63698,40.62445],[75.56856,40.65701],[75.4324,40.5634],[75.35551,40.53795],[75.24246,40.4489],[75.13536,40.4634],[75.10287,40.4399],[74.96327,40.46462],[74.89188,40.50762],[74.81933,40.50579],[74.79508,40.44326],[74.90835,40.33895],[74.69805,40.34445],[74.66326,40.27136],[74.61841,40.27978],[74.43328,40.13169],[74.35662,40.08922],[74.26325,40.1251],[74.02343,40.08507],[73.9804,40.00479],[73.91106,39.93472],[73.90717,39.87381],[73.84539,39.83117],[73.84173,39.7563],[73.92434,39.72191],[73.95363,39.60028],[73.91633,39.58653],[73.86804,39.48292],[73.74538,39.46202],[73.6106,39.46589],[73.55407,39.34985],[73.53943,39.27244],[73.63943,39.22042],[73.65774,39.16619],[73.71975,39.10818],[73.74287,39.0294],[73.82021,39.04155],[73.8463,38.97206],[73.70923,38.89345],[73.77079,38.77115],[73.75705,38.71954],[73.80877,38.63423],[73.89916,38.57892],[73.92617,38.53596],[74.01175,38.52498],[74.0907,38.54223],[74.14814,38.67682],[74.22961,38.65616],[74.3779,38.6549],[74.50651,38.63768],[74.54678,38.6076],[74.64038,38.59961],[74.71773,38.54223],[74.78478,38.53815],[74.86281,38.48402],[74.86831,38.40393],[74.78958,38.3247],[74.80675,38.28552],[74.94565,38.27387],[74.98273,38.24301],[75.10859,38.27639],[75.19211,38.1989],[75.27816,38.20379],[75.36832,38.12433],[75.3896,38.03516],[75.46215,37.93686],[75.56146,37.9193],[75.66696,37.87547],[75.88047,37.92642],[75.88642,37.87658],[75.79351,37.73448],[75.80587,37.65213],[75.94088,37.73242],[76.0299,37.73226],[76.20817,37.81341],[76.26446,37.73146],[76.32716,37.81562],[76.49239,37.86566],[76.46927,37.92579],[76.54022,38.06074],[76.5393,38.12985],[76.6004,38.21954],[76.59765,38.42467],[76.45554,38.49784],[76.38369,38.48512],[76.40314,38.60619],[76.28895,38.62969],[76.14958,38.60932],[76.16217,38.64692],[75.9775,38.75927],[75.90816,38.87535],[75.75918,38.94711],[75.92761,39.03953],[75.94019,39.00713],[76.06377,39.00806],[76.14112,39.03968],[76.13151,39.07752],[76.04752,39.18064],[76.14592,39.20224],[75.95255,39.27368],[75.8823,39.26903],[75.70701,39.12731],[75.772,39.09573],[75.75758,38.99793],[75.66284,38.95569],[75.56558,38.97128],[75.60746,39.14224],[75.67108,39.2212],[75.63538,39.25847],[75.51249,39.22757],[75.47222,39.17007],[75.35001,39.14457],[75.30562,39.33419],[75.32072,39.46156],[75.38938,39.50597],[75.34132,39.62329],[75.36077,39.65402],[75.46627,39.67918],[75.64682,39.6534],[75.70129,39.59487],[75.85552,39.58575],[75.97612,39.61156],[76.21595,39.6253],[76.29627,39.59101],[76.44776,39.57586],[76.55303,39.589],[76.82924,39.79498],[76.83817,39.82686],[77.02261,39.84441],[77.05465,39.86258],[77.2114,39.84934],[77.51187,39.87843],[77.52926,39.9258],[77.76543,39.97007],[77.79815,39.98682],[78.07413,39.971],[78.30114,40.01171],[78.36499,40.00971]]]}},{"type":"Feature","id":"datav:653100","properties":{"boundaryId":"datav:653100","nodeId":null,"bounds":[74.46509,35.44823,79.86298,40.25713]},"geometry":{"type":"MultiPolygon","coordinates":[[[[74.80675,38.28552],[74.80469,38.16706],[74.82162,38.10303],[74.91133,37.96706],[74.93719,37.87595],[74.91751,37.84508],[75.00652,37.77094],[74.923,37.71719],[74.8921,37.66816],[74.93078,37.57176],[75.03536,37.50085],[75.07861,37.51103],[75.15321,37.4141],[75.12575,37.32231],[74.92712,37.27765],[74.9111,37.2336],[74.81613,37.21652],[74.72734,37.28292],[74.51108,37.23999],[74.46509,37.14687],[74.56807,37.03267],[74.70903,37.08451],[74.73924,37.02802],[74.84267,37.0205],[74.92735,36.9779],[75.06328,37.00625],[75.24475,36.96333],[75.28869,36.97454],[75.41363,36.95467],[75.42576,36.77886],[75.45849,36.72102],[75.53744,36.77308],[75.72371,36.75059],[75.87154,36.66652],[75.94683,36.59057],[76.03493,36.40924],[75.98962,36.34014],[76.0553,36.25271],[76.01159,36.2291],[76.0164,36.16551],[75.9363,36.13475],[75.94958,36.07027],[76.01457,36.01807],[76.09741,36.02261],[76.16469,35.90884],[76.14707,35.83345],[76.22144,35.82337],[76.29879,35.84158],[76.36584,35.82419],[76.54891,35.91924],[76.59743,35.89569],[76.5663,35.81931],[76.59353,35.77198],[76.69308,35.74757],[76.76128,35.6559],[76.83679,35.66209],[76.9178,35.60848],[77.06449,35.59576],[77.19584,35.51926],[77.30775,35.54047],[77.38006,35.47714],[77.45192,35.46048],[77.51874,35.48204],[77.6906,35.44823],[77.81646,35.5186],[77.78168,35.55401],[77.84415,35.61272],[77.8517,35.74823],[77.8787,35.81183],[77.8668,35.8809],[77.92378,35.93076],[77.87298,35.99471],[77.74254,36.03915],[77.73225,36.10025],[77.85468,36.1825],[77.91006,36.19852],[77.81097,36.29458],[77.72446,36.28262],[77.61005,36.35968],[77.57915,36.44892],[77.48487,36.4931],[77.42537,36.49214],[77.40775,36.54596],[77.50363,36.56126],[77.53476,36.61085],[77.64849,36.66925],[77.49265,36.79299],[77.52881,36.86505],[77.51897,36.93032],[77.60821,36.93528],[77.64231,36.97598],[77.66497,37.14463],[77.64277,37.26648],[77.60021,37.29759],[77.64254,37.35037],[77.66771,37.44404],[77.66405,37.58161],[77.69998,37.58876],[77.75216,37.67895],[77.87825,37.81166],[78.0064,37.96342],[78.24508,38.18834],[78.50687,38.42247],[79.00323,38.66712],[79.2387,38.79428],[79.3339,38.80225],[79.39042,38.83022],[79.56663,38.78444],[79.59981,38.8299],[79.73369,39.4775],[79.19065,39.72068],[79.00368,39.65927],[79.00025,39.62499],[78.84075,39.6131],[78.79658,39.6534],[78.70871,39.65047],[78.65745,39.73641],[78.75722,39.79667],[78.84052,39.71127],[78.90437,39.78142],[78.94281,39.90812],[78.98973,39.92949],[79.01536,40.02215],[79.21422,40.0596],[79.14511,40.25652],[79.00391,40.21979],[78.90368,40.25713],[78.80734,40.22591],[78.75997,40.18701],[78.60596,40.13169],[78.54349,40.06145],[78.36499,40.00971],[78.30114,40.01171],[78.07413,39.971],[77.79815,39.98682],[77.76543,39.97007],[77.52926,39.9258],[77.51187,39.87843],[77.2114,39.84934],[77.05465,39.86258],[77.02261,39.84441],[76.83817,39.82686],[76.82924,39.79498],[76.55303,39.589],[76.44776,39.57586],[76.29627,39.59101],[76.21595,39.6253],[75.97612,39.61156],[75.85552,39.58575],[75.70129,39.59487],[75.64682,39.6534],[75.46627,39.67918],[75.36077,39.65402],[75.34132,39.62329],[75.38938,39.50597],[75.32072,39.46156],[75.30562,39.33419],[75.35001,39.14457],[75.47222,39.17007],[75.51249,39.22757],[75.63538,39.25847],[75.67108,39.2212],[75.60746,39.14224],[75.56558,38.97128],[75.66284,38.95569],[75.75758,38.99793],[75.772,39.09573],[75.70701,39.12731],[75.8823,39.26903],[75.95255,39.27368],[76.14592,39.20224],[76.04752,39.18064],[76.13151,39.07752],[76.14112,39.03968],[76.06377,39.00806],[75.94019,39.00713],[75.92761,39.03953],[75.75918,38.94711],[75.90816,38.87535],[75.9775,38.75927],[76.16217,38.64692],[76.14958,38.60932],[76.28895,38.62969],[76.40314,38.60619],[76.38369,38.48512],[76.45554,38.49784],[76.59765,38.42467],[76.6004,38.21954],[76.5393,38.12985],[76.54022,38.06074],[76.46927,37.92579],[76.49239,37.86566],[76.32716,37.81562],[76.26446,37.73146],[76.20817,37.81341],[76.0299,37.73226],[75.94088,37.73242],[75.80587,37.65213],[75.79351,37.73448],[75.88642,37.87658],[75.88047,37.92642],[75.66696,37.87547],[75.56146,37.9193],[75.46215,37.93686],[75.3896,38.03516],[75.36832,38.12433],[75.27816,38.20379],[75.19211,38.1989],[75.10859,38.27639],[74.98273,38.24301],[74.94565,38.27387],[74.80675,38.28552]]],[[[79.19065,39.72068],[79.73369,39.4775],[79.76435,39.62283],[79.78838,39.80191],[79.86298,39.95717],[79.83346,40.13139],[79.58723,40.17568],[79.49729,40.21182],[79.34306,40.24107],[79.14511,40.25652],[79.21422,40.0596],[79.48265,40.09765],[79.57396,40.01201],[79.60622,39.91335],[79.53551,39.86288],[79.40622,39.89212],[79.27852,39.87766],[79.28882,39.81485],[79.24031,39.73302],[79.19065,39.72068]]]]}},{"type":"Feature","id":"datav:653200","properties":{"boundaryId":"datav:653200","nodeId":"geo:cn-xj-hod","parentNodeId":"geo:cn-xj","bounds":[77.40775,34.35586,84.98627,39.62283]},"geometry":{"type":"MultiPolygon","coordinates":[[[[79.88358,37.47141],[79.96024,37.56381],[80.02683,37.58114],[80.09709,37.63721],[80.19388,37.76476],[80.26986,37.802],[80.30647,37.89478],[80.3852,37.93417],[80.44492,38.03294],[80.58108,38.06958],[80.45591,37.86265],[80.48657,37.80469],[80.43554,37.60671],[80.01104,37.40104],[79.93072,37.26217],[80.01951,37.25292],[80.10326,37.28866],[80.1131,37.22674],[80.01699,37.15358],[79.97786,37.05267],[79.89136,36.90435],[79.97305,36.82863],[80.08793,36.8084],[80.12546,36.76569],[80.10487,36.71733],[80.28863,36.53259],[80.317,36.39407],[80.24492,36.30411],[80.41792,36.27826],[80.81473,36.29248],[81.03167,36.25934],[81.03373,36.27599],[81.03396,36.28003],[81.04746,36.25077],[81.27539,36.1422],[81.33008,36.40585],[81.4429,36.22813],[81.4294,36.15709],[81.47333,36.11693],[81.46052,36.05779],[81.49393,36.01661],[81.42253,35.87977],[81.37241,35.83654],[81.4104,35.76108],[81.39965,35.70737],[81.46349,35.65004],[81.56876,35.62918],[81.58455,35.46277],[81.52391,35.31271],[81.49416,35.29225],[81.51315,35.23495],[81.67494,35.23348],[81.73673,35.2623],[81.92804,35.27114],[82.05459,35.35524],[82.04429,35.45297],[82.32805,35.55939],[82.42508,35.71274],[82.62852,35.69223],[82.73127,35.63782],[82.78871,35.68457],[82.96103,35.67154],[82.97178,35.5483],[82.99901,35.48449],[83.06767,35.46261],[83.12671,35.39856],[83.28026,35.40118],[83.44892,35.38205],[83.54182,35.34166],[83.62238,35.33545],[83.68462,35.3626],[83.88509,35.36734],[83.90477,35.40183],[84.00591,35.42242],[84.09608,35.36276],[84.33293,35.41392],[84.45307,35.47339],[84.44895,35.55042],[84.57001,35.58826],[84.72905,35.61337],[84.98627,35.72511],[84.91761,35.77442],[84.91418,35.85442],[84.86132,35.94521],[84.87368,35.98449],[84.84347,36.09895],[84.77505,36.10235],[84.68122,36.14284],[84.67344,36.18283],[84.57046,36.2257],[84.53774,36.26936],[84.41668,36.27664],[84.36336,36.31122],[84.35581,36.39778],[84.30821,36.42263],[84.34643,36.54564],[84.30272,36.61117],[84.16793,36.69482],[84.08463,36.69498],[83.99104,36.76858],[83.91415,36.76697],[83.83314,36.83232],[83.85831,36.86746],[83.82101,36.96333],[83.86083,37.07011],[83.85534,37.11777],[83.79126,37.2502],[83.8622,37.29121],[83.89447,37.34973],[83.97571,37.41044],[83.98989,37.61227],[83.96358,37.6534],[83.93246,37.78552],[83.93841,37.83225],[83.88554,37.94729],[83.81918,38.0481],[83.74778,38.11534],[83.50269,38.28158],[83.38667,38.38822],[83.38781,38.98344],[83.39514,39.32163],[83.41482,39.48323],[82.58504,39.484],[81.95596,39.48369],[81.06234,39.48338],[80.16231,39.46403],[79.76435,39.62283],[79.73369,39.4775],[79.59981,38.8299],[79.56663,38.78444],[79.39042,38.83022],[79.3339,38.80225],[79.2387,38.79428],[79.00323,38.66712],[78.50687,38.42247],[78.24508,38.18834],[78.0064,37.96342],[77.87825,37.81166],[78.35034,37.68546],[78.35034,37.73115],[78.54463,37.79107],[78.54303,37.5743],[79.19751,37.2063],[79.25633,37.23632],[79.24992,37.4149],[79.37715,37.41649],[79.36708,37.32502],[79.63277,37.47428],[79.69433,37.51755],[79.78312,37.5805],[79.81859,37.53774],[79.88358,37.47141]]],[[[79.88358,37.47141],[79.81103,37.36455],[79.80669,37.29791],[79.76504,37.28132],[79.58974,37.32279],[79.58036,37.34001],[79.61812,37.39244],[79.64329,37.42429],[79.63277,37.47428],[79.36708,37.32502],[79.37441,37.17403],[79.25449,37.21428],[79.19751,37.2063],[78.54303,37.5743],[78.49108,37.61688],[78.41419,37.62117],[78.35034,37.68546],[77.87825,37.81166],[77.75216,37.67895],[77.69998,37.58876],[77.66405,37.58161],[77.66771,37.44404],[77.64254,37.35037],[77.60021,37.29759],[77.64277,37.26648],[77.66497,37.14463],[77.64231,36.97598],[77.60821,36.93528],[77.51897,36.93032],[77.52881,36.86505],[77.49265,36.79299],[77.64849,36.66925],[77.53476,36.61085],[77.50363,36.56126],[77.40775,36.54596],[77.42537,36.49214],[77.48487,36.4931],[77.57915,36.44892],[77.61005,36.35968],[77.72446,36.28262],[77.81097,36.29458],[77.91006,36.19852],[77.85468,36.1825],[77.73225,36.10025],[77.74254,36.03915],[77.87298,35.99471],[77.92378,35.93076],[77.8668,35.8809],[77.8787,35.81183],[77.8517,35.74823],[77.84415,35.61272],[77.78168,35.55401],[77.81646,35.5186],[77.91509,35.46489],[78.01006,35.49151],[78.1405,35.49477],[78.10709,35.43729],[78.01326,35.36587],[78.01692,35.22824],[78.06017,35.18023],[78.06269,35.11465],[78.12471,35.10825],[78.12288,35.03687],[78.18192,34.93699],[78.23753,34.8824],[78.21304,34.71792],[78.25995,34.71017],[78.28078,34.62309],[78.49291,34.57837],[78.61763,34.53626],[78.70848,34.52205],[78.74281,34.45446],[78.85585,34.41179],[78.89247,34.35586],[78.9586,34.38631],[79.16136,34.44139],[79.22955,34.41394],[79.32681,34.44305],[79.36296,34.428],[79.50462,34.45479],[79.67556,34.45115],[79.69982,34.47793],[79.80119,34.47892],[79.90715,34.68379],[79.89914,34.73357],[79.94628,34.82284],[80.03667,34.90312],[80.03095,35.03884],[80.11814,35.06609],[80.23645,35.14827],[80.25773,35.20334],[80.36277,35.20891],[80.26803,35.29585],[80.30442,35.37976],[80.44424,35.41719],[80.51655,35.39219],[80.59985,35.40968],[80.65637,35.39399],[80.68933,35.33905],[80.84448,35.34543],[80.96371,35.31107],[81.02618,35.31189],[81.03167,35.38058],[81.09918,35.40755],[81.21955,35.31909],[81.36395,35.35458],[81.4413,35.33349],[81.49416,35.29225],[81.52391,35.31271],[81.58455,35.46277],[81.56876,35.62918],[81.46349,35.65004],[81.39965,35.70737],[81.4104,35.76108],[81.37241,35.83654],[81.42253,35.87977],[81.49393,36.01661],[81.46052,36.05779],[81.47333,36.11693],[81.4294,36.15709],[81.4429,36.22813],[81.33008,36.40585],[81.27539,36.1422],[81.04746,36.25077],[81.03167,36.25934],[80.81473,36.29248],[80.41792,36.27826],[80.24492,36.30411],[80.317,36.39407],[80.28863,36.53259],[80.10487,36.71733],[80.12546,36.76569],[80.08793,36.8084],[79.97305,36.82863],[79.89136,36.90435],[79.97786,37.05267],[80.01699,37.15358],[80.1131,37.22674],[80.10326,37.28866],[80.01951,37.25292],[79.93072,37.26217],[80.01104,37.40104],[80.43554,37.60671],[80.48657,37.80469],[80.45591,37.86265],[80.58108,38.06958],[80.44492,38.03294],[80.3852,37.93417],[80.30647,37.89478],[80.26986,37.802],[80.19388,37.76476],[80.09709,37.63721],[80.02683,37.58114],[79.96024,37.56381],[79.88358,37.47141]]],[[[79.61034,37.3738],[79.72865,37.3832],[79.81103,37.36455],[79.88358,37.47141],[79.81859,37.53774],[79.78312,37.5805],[79.69433,37.51755],[79.68677,37.44754],[79.64329,37.42429],[79.61812,37.39244],[79.61034,37.3738]]],[[[79.58036,37.34001],[79.58974,37.32279],[79.76504,37.28132],[79.80669,37.29791],[79.81103,37.36455],[79.72865,37.3832],[79.61034,37.3738],[79.58036,37.34001]]]]}},{"type":"Feature","id":"datav:654000","properties":{"boundaryId":"datav:654000","nodeId":"geo:cn-xj-ild","parentNodeId":"geo:cn-xj","bounds":[80.16391,42.28473,85.23868,44.84357]},"geometry":{"type":"MultiPolygon","coordinates":[[[[84.95057,43.48427],[84.89908,43.5215],[84.89519,43.57716],[84.82104,43.58123],[84.78672,43.64191],[84.70845,43.63161],[84.5977,43.66948],[84.63477,43.71964],[84.5533,43.75093],[84.39517,43.72471],[84.28785,43.7308],[84.22949,43.77425],[84.08441,43.82548],[84.06427,43.88577],[83.93955,43.90166],[83.88623,43.95279],[83.7384,43.9473],[83.68668,43.98165],[83.621,43.96563],[83.5718,44.01035],[83.46882,44.03688],[83.42992,44.00617],[83.31047,44.00833],[83.24342,44.0732],[83.12671,44.09293],[82.94592,44.08357],[82.8997,44.05331],[82.78116,44.08587],[82.70541,44.07118],[82.67292,44.11424],[82.44499,44.18243],[82.36032,44.26534],[82.28366,44.24912],[82.03239,44.28544],[81.7516,44.34713],[81.70011,44.39429],[81.4596,44.451],[81.35846,44.44255],[81.33305,44.34814],[81.40148,44.28487],[81.32504,44.22642],[81.24198,44.20615],[81.20559,44.09826],[81.14335,44.05202],[81.07927,43.96592],[81.0763,43.96058],[81.08293,43.93098],[80.97812,43.90874],[80.9351,43.92969],[80.90558,43.94672],[80.7939,43.90643],[80.7399,43.88866],[80.71999,43.89097],[80.67239,43.84471],[80.75683,43.78496],[80.78246,43.69688],[80.63234,43.66338],[80.755,43.49416],[80.76095,43.44643],[80.68635,43.33365],[80.77697,43.30798],[80.80443,43.17842],[80.79459,43.13732],[80.66575,43.14756],[80.59344,43.13352],[80.48245,43.06954],[80.41678,43.05679],[80.39252,43.00212],[80.48726,42.94887],[80.59138,42.92318],[80.35613,42.82826],[80.26025,42.82487],[80.22821,42.69297],[80.16391,42.62794],[80.22158,42.5333],[80.21036,42.46959],[80.22867,42.3599],[80.28405,42.32062],[80.4154,42.30475],[80.53188,42.36093],[80.76164,42.36153],[80.80397,42.33974],[80.89803,42.36923],[81.02526,42.34285],[81.04815,42.28473],[81.19552,42.3436],[81.31864,42.35782],[81.50949,42.35204],[81.58203,42.37412],[81.75183,42.36553],[81.80515,42.40596],[81.95985,42.40226],[82.13354,42.44044],[82.23011,42.49458],[82.3665,42.50404],[82.40723,42.55162],[82.5855,42.54394],[82.63813,42.59769],[82.59923,42.71964],[82.47039,42.84325],[82.53264,42.90174],[82.64935,42.88367],[82.65324,42.93434],[82.7894,42.9339],[82.8926,42.9923],[83.01389,43.00711],[83.13563,42.99215],[83.2663,43.01796],[83.32511,43.04742],[83.50475,43.05885],[83.67982,43.09751],[83.71323,43.13747],[83.91255,43.1281],[83.96312,43.15619],[84.10431,43.14551],[84.27915,43.17491],[84.35901,43.1442],[84.42332,43.16175],[84.65376,43.17535],[84.56474,43.23104],[84.53225,43.2928],[84.62355,43.33803],[84.69289,43.40187],[84.63317,43.43275],[84.78672,43.46594],[84.92425,43.42518],[84.95057,43.48427]]],[[[81.07927,43.96592],[81.14335,44.05202],[81.20559,44.09826],[81.24198,44.20615],[81.32504,44.22642],[81.40148,44.28487],[81.33305,44.34814],[81.35846,44.44255],[81.21131,44.46288],[80.99826,44.53553],[80.89002,44.52981],[80.755,44.61023],[80.66072,44.6372],[80.63829,44.71064],[80.48291,44.73941],[80.26277,44.84357],[80.18794,44.8258],[80.22089,44.73329],[80.31494,44.70465],[80.41311,44.61094],[80.35064,44.48448],[80.41311,44.26463],[80.39412,44.12719],[80.4408,44.08385],[80.52136,44.07017],[80.5669,44.17323],[80.63761,44.18085],[80.70191,44.13309],[80.67926,44.06253],[80.74173,44.01684],[80.71999,43.89097],[80.7399,43.88866],[80.7939,43.90643],[80.90558,43.94672],[80.9351,43.92969],[80.98705,43.99002],[81.07927,43.96592]]],[[[85.11327,44.34369],[85.17735,44.3249],[85.23868,44.59881],[85.20298,44.63606],[85.06842,44.62636],[85.0103,44.57482],[84.85377,44.5521],[84.86109,44.49564],[84.77825,44.39085],[84.9746,44.38469],[85.11327,44.34369]]]]}},{"type":"Feature","id":"datav:654200","properties":{"boundaryId":"datav:654200","nodeId":null,"bounds":[82.26672,43.47889,87.33692,47.23605]},"geometry":{"type":"MultiPolygon","coordinates":[[[[84.66154,45.10287],[84.66886,45.15861],[84.58877,45.2414],[84.57939,45.31068],[84.71074,45.4518],[84.78351,45.59761],[84.91029,45.64894],[84.95675,45.70778],[85.05995,45.7131],[85.12998,45.74543],[85.22838,45.85014],[85.29314,45.99325],[85.28284,46.09081],[85.3801,46.14363],[85.26477,46.18224],[85.07757,46.21263],[84.91967,46.3202],[84.881,46.43183],[84.89382,46.49357],[84.71074,46.59907],[84.68626,46.63625],[84.76429,46.76043],[84.76132,46.79408],[84.881,46.85595],[84.9437,46.86198],[84.84942,46.95691],[84.74804,47.00985],[84.56314,46.99166],[84.50662,46.97306],[84.42538,47.00889],[84.3716,46.9933],[84.19516,47.00356],[84.08647,46.96526],[84.00271,46.99057],[83.93291,46.97005],[83.76655,47.02707],[83.57615,47.05918],[83.37042,47.17857],[83.25783,47.17325],[83.15485,47.23605],[83.02739,47.21549],[83.03174,47.16821],[82.98803,47.05877],[82.93791,47.01409],[82.87636,46.82386],[82.82967,46.77266],[82.77429,46.60017],[82.72715,46.4955],[82.51822,46.15377],[82.46147,45.98001],[82.3427,45.93513],[82.34018,45.77257],[82.29007,45.71646],[82.26672,45.6202],[82.28206,45.53894],[82.54683,45.42591],[82.60106,45.3462],[82.58275,45.21909],[82.68321,45.1538],[82.75782,45.1521],[82.85553,45.10089],[83.00268,45.05077],[83.26355,44.99833],[83.47409,44.97606],[83.60018,44.89416],[83.66631,44.88834],[83.73039,44.80105],[83.79584,44.75679],[83.74549,44.55296],[83.79332,44.46674],[83.51757,44.4676],[83.53153,44.41492],[83.41207,44.16892],[83.46882,44.03688],[83.5718,44.01035],[83.621,43.96563],[83.68668,43.98165],[83.7384,43.9473],[83.88623,43.95279],[83.93955,43.90166],[84.06427,43.88577],[84.08441,43.82548],[84.22949,43.77425],[84.28785,43.7308],[84.39517,43.72471],[84.5533,43.75093],[84.63477,43.71964],[84.5977,43.66948],[84.70845,43.63161],[84.78672,43.64191],[84.82104,43.58123],[84.89519,43.57716],[84.89908,43.5215],[84.95057,43.48427],[85.05629,43.56394],[85.15698,43.5468],[85.32815,43.48674],[85.43411,43.47889],[85.51969,43.53619],[85.5975,43.53081],[85.66501,43.6229],[85.7197,43.63858],[85.73915,43.73181],[85.7792,43.76368],[85.78629,43.83951],[85.88378,43.92059],[85.96502,43.93171],[85.96754,44.00358],[86.09614,44.1259],[86.06594,44.16029],[85.98584,44.15727],[85.95426,44.30955],[85.90483,44.33265],[85.91216,44.42652],[86.01102,44.41133],[86.04328,44.45214],[86.12269,44.44899],[86.08402,44.49035],[86.06823,44.60181],[85.95564,44.63863],[85.90689,44.73656],[85.94213,44.75963],[85.86845,44.86589],[85.78149,44.92285],[85.6689,44.9193],[85.66684,45.33112],[85.24577,45.32901],[85.20183,45.24422],[85.25035,45.15861],[85.25836,45.03164],[85.17163,45.02271],[85.15607,44.97096],[85.05149,44.93179],[85.02723,44.88621],[85.0103,44.75522],[85.04668,44.74027],[85.0183,44.61965],[85.06842,44.62636],[85.20298,44.63606],[85.23868,44.59881],[85.17735,44.3249],[85.11327,44.34369],[84.9691,44.29735],[84.91739,44.17927],[84.79724,44.16144],[84.77825,44.39085],[84.86109,44.49564],[84.85377,44.5521],[84.88008,44.62693],[84.7826,44.66915],[84.65239,44.79123],[84.63568,44.93023],[84.61005,44.99535],[84.5446,45.00995],[84.54117,45.15267],[84.65582,45.15224],[84.66154,45.10287]]],[[[85.24577,45.32901],[85.66684,45.33112],[86.487,45.33253],[87.33692,45.33056],[87.336,46.00509],[87.03714,46.50351],[87.20167,46.71577],[87.20373,46.84951],[87.02959,46.97087],[87.03737,47.11884],[86.58106,47.05194],[86.49272,47.08977],[86.37762,47.08731],[86.19775,47.04156],[86.08264,47.02557],[85.95335,47.07803],[85.79774,47.05385],[85.54006,47.05741],[85.4412,47.06342],[85.3261,47.04484],[85.27644,47.06888],[85.08192,46.9398],[84.98718,46.91816],[84.9437,46.86198],[84.881,46.85595],[84.76132,46.79408],[84.76429,46.76043],[84.68626,46.63625],[84.71074,46.59907],[84.89382,46.49357],[84.881,46.43183],[84.91967,46.3202],[85.07757,46.21263],[85.26477,46.18224],[85.3801,46.14363],[85.55745,46.19806],[85.903,46.18182],[85.99317,46.1239],[86.02429,46.068],[85.9625,46.04476],[85.93184,45.97527],[85.64235,45.78921],[85.59155,45.6544],[85.49178,45.51267],[85.38811,45.43618],[85.28353,45.42141],[85.24577,45.32901]]]]}},{"type":"Feature","id":"datav:654300","properties":{"boundaryId":"datav:654300","nodeId":"geo:cn-xj-ald","parentNodeId":"geo:cn-xj","bounds":[85.53182,45.00173,91.07915,49.17382]},"geometry":{"type":"MultiPolygon","coordinates":[[[[88.43009,47.25824],[88.3072,47.3155],[88.31659,47.45533],[88.40583,47.55786],[88.46167,47.68207],[88.51179,47.71324],[88.52506,47.77648],[88.57815,47.82981],[88.56396,47.88148],[88.38638,47.94343],[88.49188,48.00116],[88.47403,48.09351],[88.64131,48.18196],[88.57518,48.2776],[88.60607,48.33788],[88.50378,48.41299],[88.4381,48.39356],[88.36304,48.46049],[88.25754,48.4977],[88.19667,48.49398],[88.10102,48.54803],[88.04129,48.5483],[87.96165,48.59938],[88.08958,48.69489],[88.02916,48.75019],[87.939,48.75785],[87.82893,48.82562],[87.75982,48.92597],[87.87652,48.94916],[87.88316,49.02376],[87.83533,49.05426],[87.86714,49.10876],[87.82092,49.17382],[87.4955,49.13199],[87.38887,49.098],[87.23875,49.11454],[87.11265,49.1556],[86.88198,49.12949],[86.83621,49.0511],[86.73255,48.99535],[86.75818,48.89487],[86.82248,48.84581],[86.75429,48.78098],[86.78106,48.73207],[86.64262,48.6296],[86.58563,48.54219],[86.41263,48.48109],[86.3021,48.49079],[86.22613,48.43242],[86.05381,48.44107],[85.8387,48.42883],[85.71192,48.36146],[85.6618,48.24342],[85.59224,48.1964],[85.53182,48.04635],[85.54693,48.00827],[85.61764,47.55069],[85.61009,47.5113],[85.70139,47.38424],[85.67599,47.32162],[85.6824,47.22271],[85.58285,47.14285],[85.54006,47.05741],[85.79774,47.05385],[85.95335,47.07803],[86.08264,47.02557],[86.19775,47.04156],[86.37762,47.08731],[86.49272,47.08977],[86.58106,47.05194],[87.03737,47.11884],[87.01791,47.3034],[87.38566,47.39931],[87.43166,47.4354],[87.54036,47.4297],[87.55477,47.42129],[87.55615,47.35667],[87.77172,47.35708],[87.86257,47.31754],[87.90673,47.34132],[88.26212,47.2385],[88.43009,47.25824]]],[[[88.64131,48.18196],[88.47403,48.09351],[88.49188,48.00116],[88.38638,47.94343],[88.56396,47.88148],[88.57815,47.82981],[88.52506,47.77648],[88.51179,47.71324],[88.46167,47.68207],[88.40583,47.55786],[88.31659,47.45533],[88.3072,47.3155],[88.43009,47.25824],[88.34336,47.23251],[88.34267,47.17434],[88.27356,47.13289],[88.17676,47.11488],[87.74311,47.20487],[87.66805,47.26749],[87.59551,47.28912],[87.55615,47.35667],[87.55477,47.42129],[87.54036,47.4297],[87.43166,47.4354],[87.38566,47.39931],[87.01791,47.3034],[87.03737,47.11884],[87.02959,46.97087],[87.20373,46.84951],[87.20167,46.71577],[87.03714,46.50351],[87.336,46.00509],[87.33692,45.33056],[87.33623,45.00187],[88.00445,45.00202],[90.23816,45.00173],[90.22237,45.06436],[90.29217,45.17727],[90.49492,45.42028],[90.67136,45.48765],[90.67021,45.54793],[90.71484,45.72892],[90.85008,45.88797],[91.02835,46.02305],[91.02148,46.12112],[90.90043,46.3123],[90.98349,46.37487],[91.07915,46.55882],[91.01782,46.58226],[91.05398,46.71742],[90.94276,46.82578],[90.90157,46.96074],[90.76724,46.99248],[90.56151,47.20705],[90.48828,47.31727],[90.5265,47.37895],[90.4686,47.40487],[90.46815,47.49761],[90.39835,47.54771],[90.33153,47.68153],[90.13495,47.72323],[90.07614,47.77742],[90.08667,47.86561],[89.96058,47.88578],[89.93334,47.83573],[89.76217,47.83573],[89.7354,47.89748],[89.65096,47.91374],[89.5688,48.03777],[89.30861,48.02195],[89.23149,47.98022],[89.0784,47.98693],[89.02736,48.05091],[88.93056,48.11949],[88.82438,48.10677],[88.70081,48.18102],[88.64131,48.18196]]]]}},{"type":"Feature","id":"datav:659001","properties":{"boundaryId":"datav:659001","nodeId":null,"bounds":[85.90483,44.1259,86.14168,44.45214]},"geometry":{"type":"Polygon","coordinates":[[[86.12269,44.44899],[86.04328,44.45214],[86.01102,44.41133],[85.91216,44.42652],[85.90483,44.33265],[85.95426,44.30955],[85.98584,44.15727],[86.06594,44.16029],[86.09614,44.1259],[86.12887,44.21147],[86.14168,44.32734],[86.12269,44.44899]]]}},{"type":"Feature","id":"datav:659002","properties":{"boundaryId":"datav:659002","nodeId":null,"bounds":[80.5923,40.36936,81.94475,40.94403]},"geometry":{"type":"Polygon","coordinates":[[[81.8841,40.941],[81.86351,40.94403],[81.45709,40.8047],[81.38569,40.82503],[81.32985,40.76295],[81.14083,40.69898],[80.99048,40.70248],[80.86736,40.65899],[80.79185,40.70324],[80.72594,40.70141],[80.5923,40.61988],[80.7804,40.50594],[80.72937,40.45241],[80.67399,40.51158],[80.6058,40.42326],[80.74013,40.36936],[80.90787,40.42036],[81.00307,40.39685],[81.2104,40.39731],[81.28111,40.43593],[81.7603,40.43791],[81.94475,40.49436],[81.82254,40.68514],[81.74337,40.73333],[81.8127,40.8132],[81.8841,40.941]]]}},{"type":"Feature","id":"datav:659003","properties":{"boundaryId":"datav:659003","nodeId":null,"bounds":[78.65745,39.6131,79.60622,40.09765]},"geometry":{"type":"Polygon","coordinates":[[[79.19065,39.72068],[79.24031,39.73302],[79.28882,39.81485],[79.27852,39.87766],[79.40622,39.89212],[79.53551,39.86288],[79.60622,39.91335],[79.57396,40.01201],[79.48265,40.09765],[79.21422,40.0596],[79.01536,40.02215],[78.98973,39.92949],[78.94281,39.90812],[78.90437,39.78142],[78.84052,39.71127],[78.75722,39.79667],[78.65745,39.73641],[78.70871,39.65047],[78.79658,39.6534],[78.84075,39.6131],[79.00025,39.62499],[79.00368,39.65927],[79.19065,39.72068]]]}},{"type":"Feature","id":"datav:659004","properties":{"boundaryId":"datav:659004","nodeId":null,"bounds":[87.37056,44.06642,87.71611,44.56696]},"geometry":{"type":"Polygon","coordinates":[[[87.50466,44.06642],[87.57674,44.11654],[87.58407,44.23935],[87.69116,44.22196],[87.71611,44.35688],[87.69345,44.41663],[87.59871,44.47776],[87.59116,44.53338],[87.37056,44.56696],[87.44928,44.44355],[87.42388,44.35143],[87.52342,44.22728],[87.49367,44.10762],[87.50466,44.06642]]]}},{"type":"Feature","id":"datav:659005","properties":{"boundaryId":"datav:659005","nodeId":null,"bounds":[87.55615,47.11488,88.43009,47.35708]},"geometry":{"type":"Polygon","coordinates":[[[87.55615,47.35667],[87.59551,47.28912],[87.66805,47.26749],[87.74311,47.20487],[88.17676,47.11488],[88.27356,47.13289],[88.34267,47.17434],[88.34336,47.23251],[88.43009,47.25824],[88.26212,47.2385],[87.90673,47.34132],[87.86257,47.31754],[87.77172,47.35708],[87.55615,47.35667]]]}},{"type":"Feature","id":"datav:659006","properties":{"boundaryId":"datav:659006","nodeId":null,"bounds":[85.35768,41.66447,86.09958,41.94203]},"geometry":{"type":"MultiPolygon","coordinates":[[[[85.51214,41.91458],[85.49841,41.86637],[85.36797,41.82649],[85.35768,41.7474],[85.5261,41.74022],[85.70551,41.7459],[85.70368,41.68424],[85.78584,41.66447],[85.73961,41.75637],[85.7927,41.82589],[85.75448,41.85278],[85.51214,41.91458]]],[[[86.09958,41.79839],[85.89499,41.82186],[85.88859,41.76385],[86.09111,41.77118],[86.09958,41.79839]]],[[[85.43731,41.93204],[85.44395,41.93845],[85.40871,41.94203],[85.43731,41.93204]]]]}},{"type":"Feature","id":"datav:659007","properties":{"boundaryId":"datav:659007","nodeId":null,"bounds":[81.9404,44.6817,82.73585,45.10669]},"geometry":{"type":"MultiPolygon","coordinates":[[[[82.207,44.82125],[82.2681,44.83263],[82.49991,44.74084],[82.54316,44.70907],[82.59648,44.72289],[82.73585,44.82736],[82.67955,44.87143],[82.65644,44.94443],[82.49648,44.88422],[82.3562,44.90183],[82.2784,44.86063],[82.14567,44.89672],[82.15002,44.83391],[82.207,44.82125]]],[[[82.20036,44.98429],[82.13377,45.03717],[82.05894,45.04127],[81.9404,45.01024],[81.99395,44.96117],[82.13056,44.92512],[82.20059,44.91788],[82.20036,44.98429]]],[[[82.23583,44.6817],[82.23926,44.72403],[82.17221,44.71363],[82.23583,44.6817]]],[[[82.45414,45.0689],[82.29579,45.10669],[82.27519,45.03008],[82.43881,45.00698],[82.45414,45.0689]]]]}},{"type":"Feature","id":"datav:659008","properties":{"boundaryId":"datav:659008","nodeId":null,"bounds":[80.4408,43.66338,81.08293,44.18085]},"geometry":{"type":"MultiPolygon","coordinates":[[[[80.4408,44.08385],[80.45476,43.98569],[80.5122,43.90412],[80.52204,43.81665],[80.58749,43.72572],[80.62479,43.75441],[80.66095,43.77873],[80.67239,43.84471],[80.71999,43.89097],[80.74173,44.01684],[80.67926,44.06253],[80.70191,44.13309],[80.63761,44.18085],[80.5669,44.17323],[80.52136,44.07017],[80.4408,44.08385]]],[[[80.9351,43.92969],[80.97812,43.90874],[81.08293,43.93098],[81.0763,43.96058],[81.07927,43.96592],[80.98705,43.99002],[80.9351,43.92969]]],[[[80.62479,43.75441],[80.58749,43.72572],[80.63234,43.66338],[80.78246,43.69688],[80.75683,43.78496],[80.67239,43.84471],[80.66095,43.77873],[80.62479,43.75441]]]]}},{"type":"Feature","id":"datav:659009","properties":{"boundaryId":"datav:659009","nodeId":null,"bounds":[78.35034,36.25077,81.04746,37.79107]},"geometry":{"type":"MultiPolygon","coordinates":[[[[79.61812,37.39244],[79.58036,37.34001],[79.61034,37.3738],[79.61812,37.39244]]],[[[79.69433,37.51755],[79.63277,37.47428],[79.64329,37.42429],[79.68677,37.44754],[79.69433,37.51755]]],[[[78.54303,37.5743],[78.54463,37.79107],[78.35034,37.73115],[78.35034,37.68546],[78.41419,37.62117],[78.49108,37.61688],[78.54303,37.5743]]],[[[79.36708,37.32502],[79.37715,37.41649],[79.24992,37.4149],[79.25633,37.23632],[79.19751,37.2063],[79.25449,37.21428],[79.37441,37.17403],[79.36708,37.32502]]],[[[81.04746,36.25077],[81.03396,36.28003],[81.03373,36.27599],[81.03167,36.25934],[81.04746,36.25077]]]]}},{"type":"Feature","id":"datav:659010","properties":{"boundaryId":"datav:659010","nodeId":null,"bounds":[84.54117,44.5521,85.06842,45.15267]},"geometry":{"type":"Polygon","coordinates":[[[84.85377,44.5521],[85.0103,44.57482],[85.06842,44.62636],[85.0183,44.61965],[85.04668,44.74027],[85.0103,44.75522],[84.86155,44.89942],[84.80525,45.02569],[84.66154,45.10287],[84.65582,45.15224],[84.54117,45.15267],[84.5446,45.00995],[84.61005,44.99535],[84.63568,44.93023],[84.65239,44.79123],[84.7826,44.66915],[84.88008,44.62693],[84.85377,44.5521]]]}}]}