{"type":"FeatureCollection","features":[{"type":"Feature","id":"datav:510100","properties":{"boundaryId":"datav:510100","nodeId":"geo:cn-sc-ctu","parentNodeId":"geo:cn-sc","bounds":[102.99292,30.08973,104.89279,31.43011]},"geometry":{"type":"Polygon","coordinates":[[[103.95926,30.32074],[103.96587,30.31677],[103.99834,30.26451],[104.04739,30.27038],[104.1166,30.22719],[104.15053,30.24565],[104.17853,30.31826],[104.23228,30.3138],[104.2315,30.28221],[104.23184,30.28047],[104.24326,30.24424],[104.28223,30.2209],[104.36454,30.18597],[104.38638,30.1618],[104.42837,30.08973],[104.45021,30.10108],[104.46499,30.15153],[104.46835,30.15708],[104.48437,30.1815],[104.56925,30.19699],[104.60016,30.22041],[104.5996,30.24449],[104.65313,30.24019],[104.64361,30.28304],[104.69199,30.27543],[104.70398,30.30164],[104.73858,30.29031],[104.77486,30.30156],[104.79513,30.2794],[104.84878,30.30685],[104.86098,30.36438],[104.88103,30.36083],[104.8761,30.5131],[104.89279,30.54165],[104.85885,30.58239],[104.81999,30.5983],[104.84732,30.6311],[104.81832,30.66431],[104.78853,30.7213],[104.75079,30.7269],[104.71809,30.77176],[104.69838,30.82556],[104.64037,30.8379],[104.52076,30.88246],[104.53308,30.91788],[104.46522,30.9509],[104.44506,30.94047],[104.36712,30.93365],[104.35189,30.90235],[104.32232,30.89174],[104.28873,30.90292],[104.21571,30.8984],[104.20238,30.91311],[104.14258,30.92585],[104.16632,30.95131],[104.16688,30.99344],[104.10697,31.03226],[104.10641,31.03177],[104.01984,31.10396],[104.01469,31.16758],[103.983,31.20093],[103.92913,31.23443],[103.92801,31.2725],[103.89162,31.30802],[103.92835,31.35514],[103.89475,31.40886],[103.86844,31.42095],[103.82868,31.41245],[103.80259,31.43011],[103.75029,31.41916],[103.73988,31.39889],[103.70079,31.39112],[103.66932,31.35481],[103.56954,31.33845],[103.57973,31.29124],[103.58321,31.19142],[103.52564,31.10109],[103.51646,30.97176],[103.46506,30.94154],[103.4514,30.89257],[103.4094,30.86495],[103.35453,30.85089],[103.33762,30.82466],[103.30525,30.81051],[103.25833,30.84242],[103.16572,30.84217],[103.12395,30.79282],[103.08363,30.81273],[103.03794,30.80236],[102.99292,30.77834],[103.00513,30.74649],[103.03391,30.71908],[103.06874,30.71619],[103.10312,30.67296],[103.13156,30.65475],[103.12686,30.59393],[103.16628,30.55575],[103.15777,30.53001],[103.18587,30.51195],[103.16224,30.47258],[103.12596,30.45112],[103.11633,30.38],[103.12798,30.36711],[103.06213,30.30255],[103.0768,30.22024],[103.14724,30.207],[103.18363,30.24813],[103.23336,30.21346],[103.24265,30.24308],[103.2823,30.2636],[103.31388,30.26037],[103.32026,30.23489],[103.37032,30.22827],[103.36057,30.13679],[103.39518,30.09487],[103.43964,30.11947],[103.44389,30.11749],[103.48622,30.10415],[103.54423,30.16122],[103.53382,30.17811],[103.5972,30.20352],[103.61747,30.19541],[103.64805,30.22926],[103.69307,30.24589],[103.72789,30.30462],[103.75141,30.30793],[103.79475,30.34587],[103.87426,30.3481],[103.8877,30.32876],[103.93563,30.3462],[103.95926,30.32074]]]}},{"type":"Feature","id":"datav:510300","properties":{"boundaryId":"datav:510300","nodeId":"geo:cn-sc-zgs","parentNodeId":"geo:cn-sc","bounds":[104.05266,28.92995,105.27175,29.63615]},"geometry":{"type":"Polygon","coordinates":[[[104.17685,29.19575],[104.19589,29.22066],[104.23262,29.20586],[104.28458,29.2596],[104.32322,29.2408],[104.41169,29.24548],[104.46589,29.20737],[104.50945,29.15552],[104.54092,29.14339],[104.58012,29.16464],[104.62424,29.20728],[104.69199,29.19934],[104.68035,29.15569],[104.69782,29.11821],[104.73018,29.1065],[104.73724,29.0788],[104.70521,29.04548],[104.72021,28.99665],[104.85751,29.00344],[104.90253,29.04774],[104.94184,29.05887],[104.94464,29.02128],[105.07376,28.9364],[105.14509,28.94227],[105.16772,28.92995],[105.26761,28.93909],[105.23972,28.95694],[105.26738,28.97956],[105.26929,29.00972],[105.23435,29.02664],[105.18787,29.02731],[105.18877,29.05661],[105.25014,29.11997],[105.27175,29.16012],[105.26694,29.18864],[105.204,29.23963],[105.16055,29.26278],[105.1349,29.25743],[105.10892,29.31557],[105.07253,29.33636],[105.06368,29.36466],[105.03535,29.38294],[105.04688,29.40872],[105.08429,29.42232],[105.04061,29.46194],[105.02695,29.43959],[104.99313,29.43867],[104.96188,29.41665],[104.84878,29.46786],[104.75079,29.4536],[104.74116,29.43241],[104.75997,29.37476],[104.71092,29.3614],[104.6743,29.38227],[104.61976,29.44476],[104.58796,29.42299],[104.53465,29.4566],[104.52961,29.51888],[104.48291,29.56287],[104.49355,29.58261],[104.47407,29.60926],[104.44293,29.6001],[104.39489,29.621],[104.38358,29.5842],[104.34069,29.5657],[104.30933,29.60735],[104.26958,29.63249],[104.24975,29.63615],[104.21224,29.61251],[104.18223,29.63341],[104.16722,29.59785],[104.16688,29.55729],[104.15109,29.52221],[104.16599,29.49654],[104.16632,29.49596],[104.15031,29.47203],[104.14919,29.47228],[104.12847,29.49829],[104.08838,29.46169],[104.05266,29.45668],[104.05826,29.42591],[104.09835,29.43717],[104.09017,29.39162],[104.13127,29.40038],[104.13497,29.39904],[104.13542,29.33878],[104.08323,29.3483],[104.07651,29.32358],[104.13945,29.30747],[104.15065,29.19416],[104.17685,29.19575]]]}},{"type":"Feature","id":"datav:510400","properties":{"boundaryId":"datav:510400","nodeId":"geo:cn-sc-pzh","parentNodeId":"geo:cn-sc","bounds":[101.1374,26.08243,102.2407,27.33952]},"geometry":{"type":"MultiPolygon","coordinates":[[[[101.8399,26.08243],[101.83228,26.11718],[101.84068,26.16008],[101.90675,26.19137],[101.90205,26.24352],[101.92176,26.27032],[101.9352,26.32295],[101.92758,26.36226],[101.9427,26.44899],[101.98212,26.45491],[101.995,26.43141],[102.02949,26.43407],[102.03341,26.47077],[102.05077,26.49417],[102.03408,26.54113],[102.03061,26.5969],[102.01113,26.59853],[101.99556,26.65358],[101.99746,26.69885],[101.94651,26.70766],[101.93878,26.63937],[101.92053,26.63552],[101.91672,26.70313],[101.91269,26.72332],[101.8614,26.72417],[101.81996,26.76523],[101.81358,26.79327],[101.7727,26.82413],[101.73116,26.83592],[101.70753,26.87369],[101.6989,26.94441],[101.77349,26.99289],[101.80585,27.05637],[101.81739,27.10173],[101.76173,27.13344],[101.70876,27.12901],[101.68199,27.1504],[101.65075,27.20817],[101.64314,27.24513],[101.66475,27.28889],[101.63541,27.33952],[101.58423,27.33467],[101.55836,27.29536],[101.53048,27.27782],[101.51469,27.2298],[101.47067,27.23883],[101.41905,27.21584],[101.427,27.19079],[101.3943,27.14521],[101.35522,27.18466],[101.2831,27.19761],[101.24603,27.17921],[101.19743,27.18321],[101.16808,27.16523],[101.14535,27.10378],[101.15722,27.09483],[101.1374,27.02233],[101.22721,26.98444],[101.2271,26.95892],[101.26451,26.9555],[101.26775,26.90299],[101.36541,26.88369],[101.39967,26.84045],[101.35779,26.77061],[101.42162,26.72631],[101.45914,26.74735],[101.46575,26.78669],[101.51334,26.76856],[101.4989,26.73221],[101.4728,26.72144],[101.4541,26.69115],[101.4812,26.67318],[101.45208,26.60101],[101.40023,26.60512],[101.40662,26.55638],[101.45869,26.49546],[101.50696,26.49966],[101.53003,26.46725],[101.56564,26.45456],[101.58815,26.42583],[101.63563,26.39607],[101.63149,26.35952],[101.66061,26.34682],[101.64034,26.31883],[101.59744,26.30347],[101.5858,26.28389],[101.63037,26.22488],[101.69006,26.24172],[101.73575,26.21998],[101.77315,26.16825],[101.80764,26.1563],[101.79656,26.11477],[101.8399,26.08243]]],[[[102.18213,26.81259],[102.15626,26.84772],[102.20498,26.85216],[102.22592,26.924],[102.2145,26.9573],[102.23017,27.00049],[102.21752,27.04596],[102.23868,27.0643],[102.2407,27.10659],[102.17642,27.13754],[102.16108,27.18219],[102.12267,27.17188],[102.08627,27.14648],[102.04976,27.08272],[102.00026,27.09687],[101.94102,27.14384],[101.90843,27.19267],[101.91224,27.24368],[101.87808,27.22273],[101.8792,27.16813],[101.87036,27.12969],[101.83307,27.12262],[101.81739,27.10173],[101.80585,27.05637],[101.77349,26.99289],[101.6989,26.94441],[101.70753,26.87369],[101.73116,26.83592],[101.7727,26.82413],[101.81358,26.79327],[101.81996,26.76523],[101.8614,26.72417],[101.91269,26.72332],[101.91672,26.70313],[101.94651,26.70766],[101.99746,26.69885],[102.00653,26.71639],[102.06309,26.71861],[102.0548,26.69269],[102.08448,26.65452],[102.1323,26.63774],[102.13554,26.67472],[102.17888,26.70835],[102.19568,26.74462],[102.17508,26.77498],[102.18213,26.81259]]],[[[102.20498,26.85216],[102.15626,26.84772],[102.18213,26.81259],[102.20498,26.85216]]]]}},{"type":"Feature","id":"datav:510500","properties":{"boundaryId":"datav:510500","nodeId":"geo:cn-sc-luz","parentNodeId":"geo:cn-sc","bounds":[105.14509,27.66709,106.37886,29.32158]},"geometry":{"type":"Polygon","coordinates":[[[105.42014,29.3144],[105.389,29.2865],[105.3862,29.28483],[105.3834,29.28199],[105.36862,29.28592],[105.36649,29.28784],[105.36515,29.29268],[105.36414,29.29193],[105.31823,29.26361],[105.26694,29.18864],[105.27175,29.16012],[105.25014,29.11997],[105.18877,29.05661],[105.18787,29.02731],[105.23435,29.02664],[105.26929,29.00972],[105.26738,28.97956],[105.23972,28.95694],[105.26761,28.93909],[105.16772,28.92995],[105.14509,28.94227],[105.17768,28.90715],[105.204,28.89675],[105.20288,28.86975],[105.2311,28.77745],[105.20411,28.74664],[105.21934,28.71581],[105.20131,28.67356],[105.16794,28.65036],[105.17208,28.60791],[105.20781,28.56906],[105.20344,28.54819],[105.23748,28.52346],[105.22875,28.44963],[105.2311,28.44938],[105.29527,28.44904],[105.32013,28.42799],[105.32293,28.38637],[105.31061,28.3396],[105.33693,28.31338],[105.33312,28.25653],[105.35809,28.15348],[105.35026,28.14081],[105.27534,28.13439],[105.22449,28.09984],[105.22024,28.0919],[105.17701,28.06689],[105.1676,28.02361],[105.1844,27.99647],[105.21553,27.99055],[105.24622,28.00924],[105.27086,27.99579],[105.28094,27.92913],[105.23491,27.89892],[105.25014,27.84482],[105.29292,27.77129],[105.29057,27.71246],[105.3096,27.70568],[105.35384,27.74883],[105.44018,27.77527],[105.47714,27.77485],[105.5375,27.75374],[105.55049,27.72611],[105.60413,27.71619],[105.62339,27.66709],[105.66438,27.68388],[105.70201,27.67693],[105.72284,27.70585],[105.78421,27.71916],[105.84289,27.70534],[105.86831,27.73255],[105.92128,27.74705],[105.9299,27.72814],[105.98545,27.74976],[106.02308,27.74696],[106.06373,27.77713],[106.12756,27.77866],[106.19352,27.75442],[106.22465,27.76095],[106.29599,27.80315],[106.34,27.86531],[106.30808,27.93675],[106.32835,27.95798],[106.29431,28.00366],[106.24627,28.01203],[106.26553,28.04982],[106.25153,28.0903],[106.20707,28.13422],[106.14525,28.16285],[106.09352,28.16268],[106.01322,28.11995],[105.97078,28.13127],[105.9037,28.12916],[105.86092,28.15956],[105.88903,28.23848],[105.84569,28.25991],[105.8234,28.30689],[105.77133,28.31945],[105.74064,28.30486],[105.73,28.27214],[105.68857,28.28437],[105.63952,28.32417],[105.65486,28.36236],[105.64333,28.43152],[105.61253,28.43894],[105.60984,28.47396],[105.62798,28.5078],[105.68465,28.53456],[105.69316,28.58857],[105.75767,28.59033],[105.79843,28.6032],[105.885,28.59546],[105.90482,28.66961],[105.93561,28.68187],[105.97929,28.74655],[106.00897,28.73824],[106.0308,28.69506],[106.08041,28.68633],[106.10337,28.63607],[106.16575,28.63624],[106.19206,28.5778],[106.23619,28.56014],[106.25489,28.53944],[106.29263,28.53734],[106.33071,28.48213],[106.37886,28.47969],[106.37304,28.52691],[106.33205,28.55324],[106.34661,28.58377],[106.30405,28.64986],[106.30517,28.70422],[106.27314,28.73983],[106.26766,28.7793],[106.24436,28.81463],[106.26486,28.84609],[106.20696,28.90455],[106.17347,28.92081],[106.14917,28.90195],[106.10124,28.89893],[106.07056,28.91981],[106.03943,28.91771],[106.04379,28.95417],[106.0009,28.97403],[105.97022,28.96607],[105.94401,28.93959],[105.88936,28.9095],[105.8038,28.94764],[105.74456,29.04665],[105.75778,29.06624],[105.72989,29.0988],[105.73516,29.1224],[105.72138,29.16957],[105.70447,29.17568],[105.71197,29.2189],[105.69394,29.26754],[105.63179,29.2804],[105.5833,29.27038],[105.55833,29.27848],[105.51846,29.26445],[105.47624,29.27924],[105.4665,29.32158],[105.42014,29.3144]]]}},{"type":"Feature","id":"datav:510600","properties":{"boundaryId":"datav:510600","nodeId":"geo:cn-sc-dey","parentNodeId":"geo:cn-sc","bounds":[103.79576,30.52927,105.17455,31.69769]},"geometry":{"type":"Polygon","coordinates":[[[105.16872,30.7064],[105.15652,30.7325],[105.08115,30.75587],[105.02527,30.78188],[104.9985,30.8059],[104.98719,30.84308],[104.96043,30.86503],[104.96748,30.89495],[104.93165,30.94581],[104.90477,30.94343],[104.90365,30.94302],[104.89458,30.93694],[104.89155,30.93661],[104.87677,30.93735],[104.87565,30.93776],[104.82593,30.99763],[104.81988,31.06418],[104.77475,31.09962],[104.79189,31.11839],[104.75739,31.14422],[104.75672,31.1461],[104.71965,31.16266],[104.71394,31.21608],[104.74194,31.23262],[104.74877,31.27512],[104.67743,31.26685],[104.65683,31.33109],[104.58617,31.35767],[104.58505,31.40248],[104.52368,31.44261],[104.47855,31.38507],[104.4183,31.37485],[104.34741,31.3818],[104.31101,31.42774],[104.27092,31.45936],[104.23643,31.46361],[104.20294,31.51457],[104.15569,31.51906],[104.13273,31.60532],[104.09846,31.64862],[104.11694,31.67772],[104.09398,31.69354],[104.04079,31.69769],[103.98938,31.68237],[103.92824,31.63957],[103.90741,31.56444],[103.91514,31.53841],[103.89823,31.51286],[103.8578,31.53849],[103.84212,31.5109],[103.79576,31.47178],[103.80259,31.43011],[103.82868,31.41245],[103.86844,31.42095],[103.89475,31.40886],[103.92835,31.35514],[103.89162,31.30802],[103.92801,31.2725],[103.92913,31.23443],[103.983,31.20093],[104.01469,31.16758],[104.01984,31.10396],[104.10641,31.03177],[104.10697,31.03226],[104.16688,30.99344],[104.16632,30.95131],[104.14258,30.92585],[104.20238,30.91311],[104.21571,30.8984],[104.28873,30.90292],[104.32232,30.89174],[104.35189,30.90235],[104.36712,30.93365],[104.44506,30.94047],[104.46522,30.9509],[104.53308,30.91788],[104.52076,30.88246],[104.64037,30.8379],[104.69838,30.82556],[104.71809,30.77176],[104.75079,30.7269],[104.78853,30.7213],[104.81832,30.66431],[104.84732,30.6311],[104.81999,30.5983],[104.85885,30.58239],[104.91093,30.62566],[104.95337,30.61248],[104.96323,30.56746],[104.98394,30.52927],[105.06693,30.53587],[105.09481,30.5842],[105.13009,30.62476],[105.17455,30.69767],[105.16872,30.7064]]]}},{"type":"Feature","id":"datav:510700","properties":{"boundaryId":"datav:510700","nodeId":"geo:cn-sc-myg","parentNodeId":"geo:cn-sc","bounds":[103.75824,30.7064,105.7262,33.04126]},"geometry":{"type":"Polygon","coordinates":[[[105.45922,31.52698],[105.39583,31.56159],[105.39326,31.61837],[105.33301,31.63028],[105.3451,31.67724],[105.31756,31.70299],[105.25361,31.70731],[105.3114,31.74413],[105.28877,31.79372],[105.24376,31.79518],[105.2432,31.83001],[105.20523,31.83709],[105.22326,31.88208],[105.18317,31.91135],[105.20534,31.94565],[105.18519,31.9654],[105.19414,31.99603],[105.25003,32.03314],[105.2526,32.08265],[105.2862,32.10878],[105.28575,32.13976],[105.25171,32.16725],[105.2404,32.20429],[105.27052,32.26303],[105.23804,32.2874],[105.24756,32.32051],[105.17667,32.30262],[105.11273,32.3108],[105.08261,32.2836],[105.04487,32.28756],[105.03299,32.26513],[105.00007,32.26643],[104.96446,32.29736],[104.97465,32.33459],[104.91171,32.32618],[104.88461,32.35514],[104.84071,32.35118],[104.77386,32.40012],[104.74922,32.46462],[104.75482,32.52642],[104.70969,32.55395],[104.65593,32.56049],[104.61898,32.60084],[104.63578,32.66851],[104.59636,32.69326],[104.58281,32.72219],[104.5267,32.72839],[104.51024,32.7545],[104.45895,32.74853],[104.42166,32.78059],[104.37171,32.80595],[104.36533,32.82156],[104.29433,32.83573],[104.27708,32.89132],[104.24785,32.87756],[104.19566,32.91689],[104.11347,32.99982],[104.06923,33.00311],[104.01346,33.04126],[103.98647,33.03467],[103.97852,32.9856],[103.95299,32.91745],[103.95803,32.88842],[103.99398,32.87933],[103.97147,32.83967],[104.00461,32.81416],[104.0689,32.84522],[104.10104,32.8482],[104.1465,32.75659],[104.13015,32.73033],[104.15591,32.71147],[104.18279,32.66343],[104.16845,32.57938],[104.17484,32.53135],[104.12937,32.53046],[104.08424,32.56913],[104.06587,32.63101],[104.03563,32.65158],[103.92242,32.63577],[103.89039,32.639],[103.8531,32.61367],[103.84492,32.58406],[103.90696,32.51051],[103.91458,32.4327],[103.88916,32.36485],[103.9213,32.31541],[103.98177,32.30562],[104.03351,32.24869],[104.13105,32.22301],[104.15983,32.25995],[104.18211,32.30894],[104.24752,32.24942],[104.25748,32.21475],[104.22176,32.21539],[104.18189,32.19659],[104.15658,32.1589],[104.10059,32.125],[104.04896,32.13141],[103.99498,32.11892],[103.97471,32.1409],[103.92253,32.14309],[103.85074,32.16133],[103.812,32.09799],[103.82487,32.07056],[103.75824,31.99789],[103.76362,31.94638],[103.81793,31.9398],[103.87684,31.91785],[103.92062,31.94224],[103.95769,31.90355],[103.9755,31.85605],[104.01738,31.86223],[104.15221,31.81586],[104.1698,31.77988],[104.17103,31.73232],[104.10316,31.71032],[104.09398,31.69354],[104.11694,31.67772],[104.09846,31.64862],[104.13273,31.60532],[104.15569,31.51906],[104.20294,31.51457],[104.23643,31.46361],[104.27092,31.45936],[104.31101,31.42774],[104.34741,31.3818],[104.4183,31.37485],[104.47855,31.38507],[104.52368,31.44261],[104.58505,31.40248],[104.58617,31.35767],[104.65683,31.33109],[104.67743,31.26685],[104.74877,31.27512],[104.74194,31.23262],[104.71394,31.21608],[104.71965,31.16266],[104.75672,31.1461],[104.75739,31.14422],[104.79189,31.11839],[104.77475,31.09962],[104.81988,31.06418],[104.82593,30.99763],[104.87565,30.93776],[104.87677,30.93735],[104.89155,30.93661],[104.89458,30.93694],[104.90365,30.94302],[104.90477,30.94343],[104.93165,30.94581],[104.96748,30.89495],[104.96043,30.86503],[104.98719,30.84308],[104.9985,30.8059],[105.02527,30.78188],[105.08115,30.75587],[105.15652,30.7325],[105.16872,30.7064],[105.2152,30.73472],[105.24398,30.72607],[105.27198,30.75143],[105.26044,30.82285],[105.23233,30.84628],[105.22864,30.87736],[105.17735,30.96018],[105.1947,30.99204],[105.17477,31.04597],[105.19325,31.08592],[105.22393,31.10765],[105.29684,31.10634],[105.34443,31.12594],[105.35395,31.16061],[105.38128,31.15291],[105.38934,31.11208],[105.41073,31.07255],[105.47423,31.06369],[105.50446,31.02652],[105.56583,31.01125],[105.59584,30.97258],[105.61869,30.97759],[105.7141,31.03932],[105.7122,31.09691],[105.7262,31.11077],[105.70705,31.16922],[105.67435,31.17176],[105.67468,31.24949],[105.63762,31.28355],[105.59416,31.29983],[105.62978,31.3459],[105.64165,31.3948],[105.56863,31.40314],[105.52406,31.39136],[105.48117,31.42422],[105.50166,31.45487],[105.4628,31.49897],[105.45922,31.52698]]]}},{"type":"Feature","id":"datav:510800","properties":{"boundaryId":"datav:510800","nodeId":"geo:cn-sc-gyc","parentNodeId":"geo:cn-sc","bounds":[104.61898,31.52698,106.77619,32.93265]},"geometry":{"type":"Polygon","coordinates":[[[105.45922,31.52698],[105.49472,31.55033],[105.49371,31.55147],[105.49841,31.57416],[105.57949,31.56567],[105.63325,31.60067],[105.68465,31.60891],[105.69932,31.64985],[105.72385,31.66362],[105.72609,31.72662],[105.78074,31.71268],[105.86529,31.61478],[105.91053,31.62579],[105.95824,31.67243],[105.9775,31.66248],[106.03248,31.68759],[106.10225,31.73248],[106.12857,31.76717],[106.12364,31.79201],[106.19923,31.81862],[106.21133,31.77076],[106.27527,31.79689],[106.33552,31.84848],[106.36128,31.84629],[106.39577,31.80568],[106.41604,31.83156],[106.40641,31.87419],[106.42746,31.91501],[106.42869,31.92281],[106.46475,31.95459],[106.50877,32.02478],[106.50104,32.04897],[106.56756,32.12841],[106.55692,32.1756],[106.56465,32.22755],[106.66622,32.24966],[106.77619,32.29687],[106.72591,32.33694],[106.68895,32.34802],[106.68985,32.45363],[106.64942,32.50421],[106.65804,32.62246],[106.64035,32.68729],[106.58861,32.68858],[106.47293,32.65037],[106.42052,32.61666],[106.38905,32.62674],[106.3512,32.6719],[106.30551,32.67964],[106.27886,32.67069],[106.25646,32.69326],[106.17437,32.69761],[106.11994,32.71961],[106.06205,32.7673],[106.09475,32.79597],[106.04671,32.85222],[106.01154,32.82969],[105.96932,32.84901],[105.92721,32.82599],[105.89317,32.83846],[105.83113,32.82607],[105.82273,32.77165],[105.77962,32.75023],[105.76875,32.76754],[105.71925,32.75973],[105.67804,32.72654],[105.62541,32.70204],[105.5964,32.6993],[105.5852,32.72912],[105.55631,32.73202],[105.55631,32.79202],[105.53582,32.78985],[105.52451,32.84772],[105.4955,32.87322],[105.48677,32.92139],[105.45631,32.93265],[105.41308,32.9189],[105.40782,32.88577],[105.38083,32.87877],[105.42753,32.78429],[105.45328,32.76762],[105.4254,32.73395],[105.3656,32.71043],[105.3469,32.6827],[105.29773,32.65706],[105.26179,32.65319],[105.21968,32.66633],[105.21509,32.63682],[105.18474,32.61738],[105.11083,32.59414],[105.07936,32.63722],[105.0302,32.65045],[104.97196,32.63295],[104.92773,32.60891],[104.88181,32.60116],[104.84575,32.65392],[104.73959,32.63545],[104.69681,32.67351],[104.63578,32.66851],[104.61898,32.60084],[104.65593,32.56049],[104.70969,32.55395],[104.75482,32.52642],[104.74922,32.46462],[104.77386,32.40012],[104.84071,32.35118],[104.88461,32.35514],[104.91171,32.32618],[104.97465,32.33459],[104.96446,32.29736],[105.00007,32.26643],[105.03299,32.26513],[105.04487,32.28756],[105.08261,32.2836],[105.11273,32.3108],[105.17667,32.30262],[105.24756,32.32051],[105.23804,32.2874],[105.27052,32.26303],[105.2404,32.20429],[105.25171,32.16725],[105.28575,32.13976],[105.2862,32.10878],[105.2526,32.08265],[105.25003,32.03314],[105.19414,31.99603],[105.18519,31.9654],[105.20534,31.94565],[105.18317,31.91135],[105.22326,31.88208],[105.20523,31.83709],[105.2432,31.83001],[105.24376,31.79518],[105.28877,31.79372],[105.3114,31.74413],[105.25361,31.70731],[105.31756,31.70299],[105.3451,31.67724],[105.33301,31.63028],[105.39326,31.61837],[105.39583,31.56159],[105.45922,31.52698]]]}},{"type":"Feature","id":"datav:510900","properties":{"boundaryId":"datav:510900","nodeId":"geo:cn-sc-sns","parentNodeId":"geo:cn-sc","bounds":[105.06693,30.18366,106.00079,31.16061]},"geometry":{"type":"Polygon","coordinates":[[[105.06693,30.53587],[105.09044,30.45954],[105.07521,30.44228],[105.07365,30.44212],[105.08014,30.41239],[105.07992,30.41172],[105.09369,30.39595],[105.09728,30.39619],[105.10064,30.38562],[105.10142,30.38546],[105.12606,30.34149],[105.19706,30.31074],[105.19784,30.30999],[105.22181,30.28717],[105.26391,30.28792],[105.35843,30.30809],[105.36885,30.2784],[105.41106,30.29561],[105.52104,30.20261],[105.55754,30.19583],[105.55889,30.18556],[105.56146,30.18366],[105.64243,30.18639],[105.65542,30.22082],[105.61947,30.23464],[105.62507,30.27584],[105.67065,30.25409],[105.72385,30.25475],[105.71175,30.28221],[105.71477,30.32281],[105.76954,30.37529],[105.79171,30.42543],[105.81803,30.43724],[105.8467,30.41073],[105.89944,30.40561],[105.94088,30.37232],[106.00079,30.37628],[105.98982,30.41255],[105.94827,30.44162],[105.97067,30.47712],[105.9542,30.51426],[105.9271,30.49404],[105.91781,30.46697],[105.88533,30.45888],[105.8841,30.49627],[105.86282,30.51244],[105.87749,30.54742],[105.85431,30.56573],[105.80907,30.62533],[105.81377,30.65137],[105.79272,30.71142],[105.78432,30.82383],[105.75576,30.84127],[105.73056,30.87678],[105.73202,30.90571],[105.69171,30.9339],[105.65934,30.9187],[105.61869,30.97759],[105.59584,30.97258],[105.56583,31.01125],[105.50446,31.02652],[105.47423,31.06369],[105.41073,31.07255],[105.38934,31.11208],[105.38128,31.15291],[105.35395,31.16061],[105.34443,31.12594],[105.29684,31.10634],[105.22393,31.10765],[105.19325,31.08592],[105.17477,31.04597],[105.1947,30.99204],[105.17735,30.96018],[105.22864,30.87736],[105.23233,30.84628],[105.26044,30.82285],[105.27198,30.75143],[105.24398,30.72607],[105.2152,30.73472],[105.16872,30.7064],[105.17455,30.69767],[105.13009,30.62476],[105.09481,30.5842],[105.06693,30.53587]]]}},{"type":"Feature","id":"datav:511000","properties":{"boundaryId":"datav:511000","nodeId":"geo:cn-sc-njs","parentNodeId":"geo:cn-sc","bounds":[104.26958,29.18864,105.44309,30.03469]},"geometry":{"type":"Polygon","coordinates":[[[104.46723,30.03469],[104.45536,30.00061],[104.47922,29.98891],[104.46186,29.95058],[104.50329,29.89745],[104.48358,29.8541],[104.48325,29.85219],[104.45716,29.74822],[104.41572,29.73226],[104.39769,29.74839],[104.36029,29.73775],[104.3081,29.69508],[104.26958,29.63249],[104.30933,29.60735],[104.34069,29.5657],[104.38358,29.5842],[104.39489,29.621],[104.44293,29.6001],[104.47407,29.60926],[104.49355,29.58261],[104.48291,29.56287],[104.52961,29.51888],[104.53465,29.4566],[104.58796,29.42299],[104.61976,29.44476],[104.6743,29.38227],[104.71092,29.3614],[104.75997,29.37476],[104.74116,29.43241],[104.75079,29.4536],[104.84878,29.46786],[104.96188,29.41665],[104.99313,29.43867],[105.02695,29.43959],[105.04061,29.46194],[105.08429,29.42232],[105.04688,29.40872],[105.03535,29.38294],[105.06368,29.36466],[105.07253,29.33636],[105.10892,29.31557],[105.1349,29.25743],[105.16055,29.26278],[105.204,29.23963],[105.26694,29.18864],[105.31823,29.26361],[105.36414,29.29193],[105.36515,29.29268],[105.36649,29.28784],[105.36862,29.28592],[105.3834,29.28199],[105.3862,29.28483],[105.389,29.2865],[105.42014,29.3144],[105.41857,29.35231],[105.44309,29.39913],[105.388,29.4551],[105.33782,29.45885],[105.3189,29.51238],[105.29437,29.53396],[105.29673,29.5712],[105.33547,29.59519],[105.34678,29.62025],[105.38083,29.62825],[105.40054,29.67161],[105.42394,29.68759],[105.41678,29.72111],[105.39348,29.74723],[105.40502,29.78896],[105.35395,29.81157],[105.29773,29.82054],[105.28866,29.79827],[105.25271,29.79603],[105.21733,29.8448],[105.17555,29.84671],[105.12561,29.83068],[105.0947,29.84895],[105.08059,29.88284],[105.09705,29.90493],[105.06402,29.92253],[105.0209,29.9768],[104.97644,29.99322],[104.93277,29.9773],[104.92717,29.93622],[104.90242,29.90717],[104.89951,29.90235],[104.80544,29.8752],[104.74832,29.90924],[104.73063,29.9485],[104.67374,29.90567],[104.64395,29.95738],[104.60677,29.9329],[104.57799,29.95108],[104.56847,29.99555],[104.5239,30.02723],[104.46723,30.03469]]]}},{"type":"Feature","id":"datav:511100","properties":{"boundaryId":"datav:511100","nodeId":"geo:cn-sc-les","parentNodeId":"geo:cn-sc","bounds":[102.91363,28.42066,104.24975,29.91962]},"geometry":{"type":"Polygon","coordinates":[[[104.17685,29.19575],[104.15065,29.19416],[104.13945,29.30747],[104.07651,29.32358],[104.08323,29.3483],[104.13542,29.33878],[104.13497,29.39904],[104.13127,29.40038],[104.09017,29.39162],[104.09835,29.43717],[104.05826,29.42591],[104.05266,29.45668],[104.08838,29.46169],[104.12847,29.49829],[104.14919,29.47228],[104.15031,29.47203],[104.16632,29.49596],[104.16599,29.49654],[104.15109,29.52221],[104.16688,29.55729],[104.16722,29.59785],[104.18223,29.63341],[104.21224,29.61251],[104.24975,29.63615],[104.22848,29.67619],[104.20373,29.6657],[104.1913,29.70506],[104.12612,29.71745],[104.08939,29.74373],[104.06262,29.77782],[104.08872,29.81364],[104.05008,29.86847],[104.00361,29.86997],[103.96766,29.85643],[103.92768,29.82553],[103.93462,29.80467],[103.89352,29.74249],[103.85623,29.74698],[103.79923,29.71404],[103.75544,29.7202],[103.70471,29.71438],[103.68803,29.75937],[103.74727,29.78996],[103.72879,29.81605],[103.72913,29.84929],[103.67783,29.91962],[103.64211,29.91796],[103.57178,29.89546],[103.5336,29.86067],[103.51803,29.84339],[103.48578,29.81481],[103.43292,29.82062],[103.4169,29.77483],[103.38062,29.79262],[103.33347,29.7942],[103.29943,29.72752],[103.30368,29.67794],[103.33706,29.67278],[103.33874,29.63424],[103.29887,29.59985],[103.26785,29.59611],[103.25643,29.55679],[103.29417,29.50687],[103.25889,29.47845],[103.20446,29.48387],[103.18643,29.47428],[103.18005,29.43016],[103.12697,29.44042],[103.09001,29.42557],[103.05474,29.44601],[103.01487,29.44801],[102.97545,29.39779],[102.99852,29.36833],[102.97982,29.32058],[103.00389,29.28717],[103.02002,29.25074],[102.9628,29.25083],[102.97455,29.22216],[102.94488,29.19006],[102.93133,29.11294],[102.97007,29.06507],[102.92214,29.03794],[102.91363,28.99992],[102.94622,28.92006],[102.92808,28.89642],[102.94174,28.86052],[102.92528,28.80187],[102.94421,28.76645],[102.93816,28.74],[102.96257,28.68112],[103.03245,28.66582],[103.06605,28.68851],[103.07053,28.73681],[103.10748,28.77191],[103.11252,28.81236],[103.15396,28.82923],[103.18991,28.82789],[103.22507,28.80397],[103.27098,28.80599],[103.33482,28.74311],[103.31074,28.70204],[103.27278,28.61312],[103.24288,28.59336],[103.24657,28.54979],[103.28778,28.53305],[103.33997,28.44348],[103.38835,28.42066],[103.43303,28.45292],[103.43863,28.50006],[103.42967,28.53179],[103.50414,28.56031],[103.5318,28.59765],[103.58589,28.61489],[103.61389,28.59731],[103.63662,28.62413],[103.68567,28.63481],[103.72285,28.68792],[103.71278,28.7573],[103.74648,28.76402],[103.78848,28.82243],[103.83047,28.84534],[103.91491,28.77627],[103.93832,28.76427],[103.97998,28.79214],[104.00349,28.85348],[104.03048,28.88484],[104.08469,28.91444],[104.06184,28.9654],[104.10708,28.95082],[104.13967,29.02454],[104.14236,29.07059],[104.16789,29.15042],[104.1941,29.16372],[104.17685,29.19575]]]}},{"type":"Feature","id":"datav:511300","properties":{"boundaryId":"datav:511300","nodeId":"geo:cn-sc-nco","parentNodeId":"geo:cn-sc","bounds":[105.45922,30.45888,106.96478,31.84848]},"geometry":{"type":"Polygon","coordinates":[[[106.96478,31.2508],[106.94753,31.26366],[106.94574,31.2648],[106.93432,31.30908],[106.94675,31.32896],[106.91786,31.37746],[106.86455,31.40068],[106.87127,31.42651],[106.84607,31.45691],[106.84215,31.50314],[106.76622,31.53759],[106.7688,31.5673],[106.69366,31.56118],[106.64752,31.59113],[106.64494,31.54469],[106.62646,31.51081],[106.56689,31.51824],[106.56644,31.54576],[106.53699,31.57203],[106.49208,31.56738],[106.46072,31.58631],[106.4568,31.63305],[106.41257,31.65702],[106.40003,31.68123],[106.36643,31.69663],[106.40529,31.72564],[106.40663,31.77703],[106.39577,31.80568],[106.36128,31.84629],[106.33552,31.84848],[106.27527,31.79689],[106.21133,31.77076],[106.19923,31.81862],[106.12364,31.79201],[106.12857,31.76717],[106.10225,31.73248],[106.03248,31.68759],[105.9775,31.66248],[105.95824,31.67243],[105.91053,31.62579],[105.86529,31.61478],[105.78074,31.71268],[105.72609,31.72662],[105.72385,31.66362],[105.69932,31.64985],[105.68465,31.60891],[105.63325,31.60067],[105.57949,31.56567],[105.49841,31.57416],[105.49371,31.55147],[105.49472,31.55033],[105.45922,31.52698],[105.4628,31.49897],[105.50166,31.45487],[105.48117,31.42422],[105.52406,31.39136],[105.56863,31.40314],[105.64165,31.3948],[105.62978,31.3459],[105.59416,31.29983],[105.63762,31.28355],[105.67468,31.24949],[105.67435,31.17176],[105.70705,31.16922],[105.7262,31.11077],[105.7122,31.09691],[105.7141,31.03932],[105.61869,30.97759],[105.65934,30.9187],[105.69171,30.9339],[105.73202,30.90571],[105.73056,30.87678],[105.75576,30.84127],[105.78432,30.82383],[105.79272,30.71142],[105.81377,30.65137],[105.80907,30.62533],[105.85431,30.56573],[105.87749,30.54742],[105.86282,30.51244],[105.8841,30.49627],[105.88533,30.45888],[105.91781,30.46697],[105.9271,30.49404],[105.9542,30.51426],[105.97067,30.47712],[106.02476,30.48207],[106.11278,30.5032],[106.12319,30.54445],[106.1578,30.59805],[106.16664,30.64832],[106.21782,30.67765],[106.25075,30.71932],[106.30047,30.68622],[106.35456,30.72212],[106.38905,30.67988],[106.44112,30.72714],[106.44807,30.75332],[106.4876,30.78797],[106.52892,30.7325],[106.6184,30.76657],[106.6296,30.82104],[106.67518,30.83888],[106.68918,30.88361],[106.73162,30.97365],[106.78481,30.97234],[106.81975,31.01166],[106.83051,31.05286],[106.89479,31.08756],[106.951,31.16127],[106.93992,31.20715],[106.96478,31.2508]]]}},{"type":"Feature","id":"datav:511400","properties":{"boundaryId":"datav:511400","nodeId":"geo:cn-sc-mss","parentNodeId":"geo:cn-sc","bounds":[102.82315,29.39779,104.50329,30.3481]},"geometry":{"type":"Polygon","coordinates":[[[102.97545,29.39779],[103.01487,29.44801],[103.05474,29.44601],[103.09001,29.42557],[103.12697,29.44042],[103.18005,29.43016],[103.18643,29.47428],[103.20446,29.48387],[103.25889,29.47845],[103.29417,29.50687],[103.25643,29.55679],[103.26785,29.59611],[103.29887,29.59985],[103.33874,29.63424],[103.33706,29.67278],[103.30368,29.67794],[103.29943,29.72752],[103.33347,29.7942],[103.38062,29.79262],[103.4169,29.77483],[103.43292,29.82062],[103.48578,29.81481],[103.51803,29.84339],[103.5336,29.86067],[103.57178,29.89546],[103.64211,29.91796],[103.67783,29.91962],[103.72913,29.84929],[103.72879,29.81605],[103.74727,29.78996],[103.68803,29.75937],[103.70471,29.71438],[103.75544,29.7202],[103.79923,29.71404],[103.85623,29.74698],[103.89352,29.74249],[103.93462,29.80467],[103.92768,29.82553],[103.96766,29.85643],[104.00361,29.86997],[104.05008,29.86847],[104.08872,29.81364],[104.06262,29.77782],[104.08939,29.74373],[104.12612,29.71745],[104.1913,29.70506],[104.20373,29.6657],[104.22848,29.67619],[104.24975,29.63615],[104.26958,29.63249],[104.3081,29.69508],[104.36029,29.73775],[104.39769,29.74839],[104.41572,29.73226],[104.45716,29.74822],[104.48325,29.85219],[104.48358,29.8541],[104.50329,29.89745],[104.46186,29.95058],[104.47922,29.98891],[104.45536,30.00061],[104.46723,30.03469],[104.45021,30.10108],[104.42837,30.08973],[104.38638,30.1618],[104.36454,30.18597],[104.28223,30.2209],[104.24326,30.24424],[104.23184,30.28047],[104.2315,30.28221],[104.23228,30.3138],[104.17853,30.31826],[104.15053,30.24565],[104.1166,30.22719],[104.04739,30.27038],[103.99834,30.26451],[103.96587,30.31677],[103.95926,30.32074],[103.93563,30.3462],[103.8877,30.32876],[103.87426,30.3481],[103.79475,30.34587],[103.75141,30.30793],[103.72789,30.30462],[103.69307,30.24589],[103.64805,30.22926],[103.61747,30.19541],[103.5972,30.20352],[103.53382,30.17811],[103.54423,30.16122],[103.48622,30.10415],[103.44389,30.11749],[103.43964,30.11947],[103.39518,30.09487],[103.31253,30.07175],[103.30234,30.08757],[103.25251,30.04008],[103.22597,29.97066],[103.19125,29.96634],[103.15978,29.93016],[103.10995,29.91564],[103.09371,29.88699],[103.12506,29.86415],[103.16516,29.77034],[103.14321,29.76086],[103.1413,29.70315],[103.15004,29.67244],[103.09203,29.68318],[103.0525,29.67552],[103.04455,29.70007],[103.0077,29.72552],[102.92875,29.71105],[102.932,29.61634],[102.91442,29.55321],[102.86996,29.53004],[102.82315,29.46569],[102.87936,29.4159],[102.97545,29.39779]]]}},{"type":"Feature","id":"datav:511500","properties":{"boundaryId":"datav:511500","nodeId":"geo:cn-sc-ybs","parentNodeId":"geo:cn-sc","bounds":[103.61389,27.84202,105.35809,29.2596]},"geometry":{"type":"Polygon","coordinates":[[[103.78198,28.52455],[103.80136,28.56182],[103.83731,28.58453],[103.83484,28.62229],[103.90998,28.6312],[103.94246,28.60303],[104.0596,28.62767],[104.09611,28.60345],[104.12522,28.63725],[104.17036,28.64305],[104.29634,28.63439],[104.31482,28.61564],[104.37406,28.64935],[104.42524,28.62674],[104.41729,28.59807],[104.36846,28.58596],[104.35681,28.55568],[104.3193,28.53869],[104.26196,28.53692],[104.27036,28.46588],[104.25435,28.40895],[104.27842,28.34659],[104.31392,28.30663],[104.35827,28.33892],[104.38481,28.33016],[104.40822,28.26986],[104.46231,28.2416],[104.44596,28.21426],[104.40228,28.20287],[104.40441,28.17712],[104.43498,28.16826],[104.451,28.11632],[104.39903,28.08776],[104.37652,28.05227],[104.30407,28.05075],[104.32658,28.02547],[104.35614,28.01845],[104.40116,27.95232],[104.44965,27.92761],[104.50329,27.88199],[104.53745,27.88698],[104.5809,27.84202],[104.63365,27.85092],[104.67911,27.88224],[104.74373,27.90205],[104.75963,27.88487],[104.79525,27.90053],[104.87296,27.90594],[104.90309,27.96044],[104.97499,28.01989],[104.98081,28.06283],[105.01105,28.06672],[105.0592,28.09815],[105.07678,28.08421],[105.1442,28.06664],[105.17701,28.06689],[105.22024,28.0919],[105.22449,28.09984],[105.27534,28.13439],[105.35026,28.14081],[105.35809,28.15348],[105.33312,28.25653],[105.33693,28.31338],[105.31061,28.3396],[105.32293,28.38637],[105.32013,28.42799],[105.29527,28.44904],[105.2311,28.44938],[105.22875,28.44963],[105.23748,28.52346],[105.20344,28.54819],[105.20781,28.56906],[105.17208,28.60791],[105.16794,28.65036],[105.20131,28.67356],[105.21934,28.71581],[105.20411,28.74664],[105.2311,28.77745],[105.20288,28.86975],[105.204,28.89675],[105.17768,28.90715],[105.14509,28.94227],[105.07376,28.9364],[104.94464,29.02128],[104.94184,29.05887],[104.90253,29.04774],[104.85751,29.00344],[104.72021,28.99665],[104.70521,29.04548],[104.73724,29.0788],[104.73018,29.1065],[104.69782,29.11821],[104.68035,29.15569],[104.69199,29.19934],[104.62424,29.20728],[104.58012,29.16464],[104.54092,29.14339],[104.50945,29.15552],[104.46589,29.20737],[104.41169,29.24548],[104.32322,29.2408],[104.28458,29.2596],[104.23262,29.20586],[104.19589,29.22066],[104.17685,29.19575],[104.1941,29.16372],[104.16789,29.15042],[104.14236,29.07059],[104.13967,29.02454],[104.10708,28.95082],[104.06184,28.9654],[104.08469,28.91444],[104.03048,28.88484],[104.00349,28.85348],[103.97998,28.79214],[103.93832,28.76427],[103.91491,28.77627],[103.83047,28.84534],[103.78848,28.82243],[103.74648,28.76402],[103.71278,28.7573],[103.72285,28.68792],[103.68567,28.63481],[103.63662,28.62413],[103.61389,28.59731],[103.6654,28.59487],[103.713,28.54129],[103.685,28.49796],[103.72453,28.47152],[103.73999,28.51201],[103.78198,28.52455]]]}},{"type":"Feature","id":"datav:511600","properties":{"boundaryId":"datav:511600","nodeId":"geo:cn-sc-gac","parentNodeId":"geo:cn-sc","bounds":[105.94827,30.01728,107.30477,30.83888]},"geometry":{"type":"MultiPolygon","coordinates":[[[[106.97609,30.0836],[106.98191,30.08517],[107.02066,30.03685],[107.04272,30.03502],[107.08449,30.06387],[107.10655,30.11384],[107.1733,30.16486],[107.22022,30.21279],[107.25606,30.26376],[107.27274,30.30545],[107.25326,30.32595],[107.25359,30.32736],[107.26043,30.32893],[107.2518,30.3443],[107.23478,30.34455],[107.22918,30.36984],[107.22593,30.38008],[107.21753,30.40644],[107.22537,30.42411],[107.19178,30.43212],[107.16412,30.45879],[107.21395,30.50122],[107.17442,30.50287],[107.11159,30.52597],[107.03936,30.51541],[107.03757,30.51714],[107.01775,30.54866],[107.04328,30.6428],[106.94932,30.63572],[106.90431,30.66423],[106.94955,30.70714],[106.88359,30.71562],[106.84047,30.73834],[106.73912,30.80788],[106.73016,30.83263],[106.67518,30.83888],[106.6296,30.82104],[106.6184,30.76657],[106.52892,30.7325],[106.4876,30.78797],[106.44807,30.75332],[106.44112,30.72714],[106.38905,30.67988],[106.35456,30.72212],[106.30047,30.68622],[106.25075,30.71932],[106.21782,30.67765],[106.16664,30.64832],[106.1578,30.59805],[106.12319,30.54445],[106.11278,30.5032],[106.02476,30.48207],[105.97067,30.47712],[105.94827,30.44162],[105.98982,30.41255],[106.00079,30.37628],[106.08836,30.32314],[106.13182,30.32413],[106.17124,30.30503],[106.18042,30.23282],[106.21256,30.20311],[106.2606,30.19699],[106.2643,30.20973],[106.29644,30.20584],[106.30058,30.23853],[106.33507,30.22637],[106.3493,30.24523],[106.40271,30.24209],[106.40798,30.27617],[106.44975,30.29784],[106.54483,30.29676],[106.56028,30.31512],[106.61101,30.29271],[106.64214,30.24656],[106.62445,30.22711],[106.63184,30.18655],[106.67764,30.15741],[106.67327,30.12204],[106.70318,30.11815],[106.70026,30.07365],[106.7258,30.05707],[106.7324,30.02681],[106.78549,30.01728],[106.80004,30.03054],[106.86141,30.02814],[106.94854,30.04016],[106.97609,30.0836]]],[[[107.25326,30.32595],[107.27274,30.30545],[107.30477,30.35488],[107.28775,30.36306],[107.27633,30.3572],[107.27666,30.3524],[107.27879,30.3462],[107.26143,30.32628],[107.25415,30.32595],[107.25326,30.32595]]],[[[107.24161,30.34786],[107.23881,30.34662],[107.23478,30.34455],[107.2518,30.3443],[107.24161,30.34786]]],[[[107.26043,30.32893],[107.25359,30.32736],[107.25415,30.32595],[107.26143,30.32628],[107.26043,30.32893]]]]}},{"type":"Feature","id":"datav:511700","properties":{"boundaryId":"datav:511700","nodeId":"geo:cn-sc-daz","parentNodeId":"geo:cn-sc","bounds":[106.67518,30.32595,108.53283,32.33823]},"geometry":{"type":"MultiPolygon","coordinates":[[[[107.30477,30.35488],[107.33904,30.38711],[107.35998,30.45623],[107.42751,30.54767],[107.46021,30.57134],[107.51542,30.64206],[107.45663,30.68235],[107.43613,30.72196],[107.44789,30.77875],[107.49773,30.80927],[107.49213,30.83313],[107.51385,30.85508],[107.57757,30.84809],[107.64365,30.82062],[107.69191,30.87481],[107.73772,30.885],[107.76034,30.86223],[107.76381,30.81709],[107.85228,30.79348],[107.95598,30.88295],[107.99226,30.90259],[107.945,30.92338],[107.94355,30.98942],[107.98118,30.98334],[108.0038,31.02537],[108.0533,31.04072],[108.02899,31.06172],[108.02575,31.11635],[108.03627,31.13996],[108.08566,31.18806],[108.07614,31.2318],[108.04008,31.21862],[108.01948,31.24499],[108.0664,31.26177],[108.14434,31.30123],[108.18555,31.33804],[108.15408,31.37076],[108.21635,31.41115],[108.19048,31.49146],[108.22676,31.50583],[108.3233,31.5024],[108.33954,31.53898],[108.3812,31.54257],[108.37795,31.5704],[108.40258,31.60385],[108.44268,31.6337],[108.46832,31.62228],[108.53283,31.66908],[108.5055,31.73264],[108.51569,31.76107],[108.4625,31.78053],[108.44144,31.80764],[108.39195,31.82871],[108.3859,31.8541],[108.34099,31.86353],[108.3084,31.90598],[108.28265,31.91777],[108.28018,31.95305],[108.25935,31.96686],[108.30706,31.99724],[108.35051,31.97198],[108.36944,31.98685],[108.32923,32.01925],[108.36249,32.0363],[108.34357,32.0639],[108.3738,32.07713],[108.43002,32.06139],[108.43159,32.10172],[108.40662,32.1413],[108.36944,32.17333],[108.40639,32.19619],[108.4793,32.18209],[108.50976,32.20121],[108.50707,32.24569],[108.45074,32.2593],[108.3906,32.26359],[108.34794,32.25396],[108.3121,32.23217],[108.2486,32.27445],[108.17973,32.22171],[108.14165,32.21888],[108.08992,32.23371],[108.01858,32.21183],[108.02317,32.17592],[107.99573,32.14714],[107.9543,32.16393],[107.92473,32.197],[107.89047,32.21442],[107.86751,32.20243],[107.83582,32.22301],[107.78867,32.27987],[107.75463,32.33823],[107.71677,32.32885],[107.70524,32.28181],[107.67903,32.25144],[107.69046,32.2188],[107.63099,32.19967],[107.62786,32.15176],[107.6806,32.14106],[107.74253,32.10237],[107.76392,32.06967],[107.7329,32.03955],[107.67601,32.0061],[107.62237,32.01438],[107.58496,32.00017],[107.58418,31.96296],[107.51508,31.92647],[107.5507,31.89712],[107.49605,31.86646],[107.57175,31.83425],[107.53905,31.73843],[107.49235,31.72938],[107.50165,31.69818],[107.53289,31.68457],[107.51811,31.63745],[107.48989,31.597],[107.38899,31.56396],[107.3312,31.53147],[107.32291,31.49293],[107.28585,31.4913],[107.27319,31.45372],[107.23769,31.4663],[107.22504,31.4346],[107.17397,31.4279],[107.14541,31.37967],[107.14989,31.35653],[107.10196,31.33543],[107.07486,31.37338],[107.04608,31.34696],[107.05459,31.32684],[107.01909,31.3045],[107.00353,31.26922],[106.96478,31.2508],[106.93992,31.20715],[106.951,31.16127],[106.89479,31.08756],[106.83051,31.05286],[106.81975,31.01166],[106.78481,30.97234],[106.73162,30.97365],[106.68918,30.88361],[106.67518,30.83888],[106.73016,30.83263],[106.73912,30.80788],[106.84047,30.73834],[106.88359,30.71562],[106.94955,30.70714],[106.90431,30.66423],[106.94932,30.63572],[107.04328,30.6428],[107.01775,30.54866],[107.03757,30.51714],[107.03936,30.51541],[107.11159,30.52597],[107.17442,30.50287],[107.21395,30.50122],[107.16412,30.45879],[107.19178,30.43212],[107.22537,30.42411],[107.21753,30.40644],[107.22593,30.38008],[107.22918,30.36984],[107.23478,30.34455],[107.23881,30.34662],[107.24161,30.34786],[107.2518,30.3443],[107.26043,30.32893],[107.26143,30.32628],[107.27879,30.3462],[107.27666,30.3524],[107.27633,30.3572],[107.28775,30.36306],[107.30477,30.35488]]],[[[107.25415,30.32595],[107.25359,30.32736],[107.25326,30.32595],[107.25415,30.32595]]]]}},{"type":"Feature","id":"datav:511800","properties":{"boundaryId":"datav:511800","nodeId":"geo:cn-sc-yas","parentNodeId":"geo:cn-sc","bounds":[101.93598,28.84542,103.39518,30.93677]},"geometry":{"type":"Polygon","coordinates":[[[103.39518,30.09487],[103.36057,30.13679],[103.37032,30.22827],[103.32026,30.23489],[103.31388,30.26037],[103.2823,30.2636],[103.24265,30.24308],[103.23336,30.21346],[103.18363,30.24813],[103.14724,30.207],[103.0768,30.22024],[103.06213,30.30255],[103.12798,30.36711],[103.11633,30.38],[103.12596,30.45112],[103.16224,30.47258],[103.18587,30.51195],[103.15777,30.53001],[103.16628,30.55575],[103.12686,30.59393],[103.13156,30.65475],[103.10312,30.67296],[103.06874,30.71619],[103.03391,30.71908],[103.00513,30.74649],[102.99292,30.77834],[102.89795,30.76526],[102.86357,30.79833],[102.88944,30.86585],[102.88956,30.90078],[102.85238,30.93677],[102.80187,30.93595],[102.75405,30.9164],[102.70825,30.91549],[102.66715,30.85072],[102.591,30.84785],[102.52134,30.79455],[102.46904,30.76871],[102.49446,30.71364],[102.4733,30.6709],[102.47173,30.64],[102.43119,30.5969],[102.41798,30.52416],[102.41966,30.45277],[102.43444,30.42139],[102.43276,30.35513],[102.41417,30.30396],[102.4023,30.23423],[102.32895,30.18796],[102.29367,30.12884],[102.29513,30.10116],[102.26814,30.07738],[102.27497,30.01719],[102.30319,29.95456],[102.27082,29.8816],[102.29109,29.83824],[102.32335,29.82478],[102.32626,29.7996],[102.35325,29.76319],[102.336,29.72011],[102.29613,29.68359],[102.27721,29.60377],[102.31002,29.57528],[102.31405,29.53346],[102.2033,29.45685],[102.17586,29.46652],[102.17855,29.51271],[102.13308,29.51046],[102.09064,29.49612],[102.03375,29.50004],[101.97417,29.4897],[101.93598,29.50104],[101.95222,29.43759],[101.98414,29.4224],[101.94953,29.34412],[101.9838,29.29903],[102.04607,29.29778],[102.09635,29.2718],[102.12334,29.23863],[102.10956,29.18504],[102.16074,29.13034],[102.15167,29.10265],[102.16847,29.07302],[102.16522,29.03652],[102.22155,28.96222],[102.2538,28.89876],[102.29087,28.89969],[102.35235,28.85457],[102.42985,28.84542],[102.48147,28.92014],[102.46613,28.96934],[102.52548,29.03627],[102.52224,29.1116],[102.54766,29.11696],[102.563,29.15996],[102.59469,29.16004],[102.59088,29.19198],[102.63579,29.21079],[102.67342,29.16154],[102.69828,29.16706],[102.74039,29.15335],[102.77219,29.15962],[102.76682,29.18705],[102.78149,29.23671],[102.83311,29.24189],[102.83659,29.20804],[102.87981,29.20611],[102.90546,29.22225],[102.9124,29.26453],[102.9404,29.30287],[103.00389,29.28717],[102.97982,29.32058],[102.99852,29.36833],[102.97545,29.39779],[102.87936,29.4159],[102.82315,29.46569],[102.86996,29.53004],[102.91442,29.55321],[102.932,29.61634],[102.92875,29.71105],[103.0077,29.72552],[103.04455,29.70007],[103.0525,29.67552],[103.09203,29.68318],[103.15004,29.67244],[103.1413,29.70315],[103.14321,29.76086],[103.16516,29.77034],[103.12506,29.86415],[103.09371,29.88699],[103.10995,29.91564],[103.15978,29.93016],[103.19125,29.96634],[103.22597,29.97066],[103.25251,30.04008],[103.30234,30.08757],[103.31253,30.07175],[103.39518,30.09487]]]}},{"type":"Feature","id":"datav:511900","properties":{"boundaryId":"datav:511900","nodeId":"geo:cn-sc-bzs","parentNodeId":"geo:cn-sc","bounds":[106.36643,31.2508,107.76392,32.73935]},"geometry":{"type":"Polygon","coordinates":[[[106.96478,31.2508],[107.00353,31.26922],[107.01909,31.3045],[107.05459,31.32684],[107.04608,31.34696],[107.07486,31.37338],[107.10196,31.33543],[107.14989,31.35653],[107.14541,31.37967],[107.17397,31.4279],[107.22504,31.4346],[107.23769,31.4663],[107.27319,31.45372],[107.28585,31.4913],[107.32291,31.49293],[107.3312,31.53147],[107.38899,31.56396],[107.48989,31.597],[107.51811,31.63745],[107.53289,31.68457],[107.50165,31.69818],[107.49235,31.72938],[107.53905,31.73843],[107.57175,31.83425],[107.49605,31.86646],[107.5507,31.89712],[107.51508,31.92647],[107.58418,31.96296],[107.58496,32.00017],[107.62237,32.01438],[107.67601,32.0061],[107.7329,32.03955],[107.76392,32.06967],[107.74253,32.10237],[107.6806,32.14106],[107.62786,32.15176],[107.63099,32.19967],[107.69046,32.2188],[107.67903,32.25144],[107.70524,32.28181],[107.71677,32.32885],[107.68038,32.39761],[107.64801,32.4137],[107.60288,32.41128],[107.53311,32.38362],[107.5124,32.38637],[107.48978,32.42526],[107.45696,32.41774],[107.45819,32.4584],[107.43871,32.46584],[107.43636,32.52973],[107.3779,32.53894],[107.35685,32.50639],[107.31396,32.49024],[107.28607,32.45452],[107.2639,32.40327],[107.21003,32.43197],[107.18965,32.46802],[107.12705,32.48248],[107.08013,32.54241],[107.10779,32.60076],[107.09905,32.64948],[107.05974,32.68617],[107.0668,32.70889],[107.0126,32.72155],[106.98841,32.7118],[106.90341,32.7213],[106.79321,32.7126],[106.77944,32.7375],[106.7333,32.73935],[106.66342,32.69076],[106.64035,32.68729],[106.65804,32.62246],[106.64942,32.50421],[106.68985,32.45363],[106.68895,32.34802],[106.72591,32.33694],[106.77619,32.29687],[106.66622,32.24966],[106.56465,32.22755],[106.55692,32.1756],[106.56756,32.12841],[106.50104,32.04897],[106.50877,32.02478],[106.46475,31.95459],[106.42869,31.92281],[106.42746,31.91501],[106.40641,31.87419],[106.41604,31.83156],[106.39577,31.80568],[106.40663,31.77703],[106.40529,31.72564],[106.36643,31.69663],[106.40003,31.68123],[106.41257,31.65702],[106.4568,31.63305],[106.46072,31.58631],[106.49208,31.56738],[106.53699,31.57203],[106.56644,31.54576],[106.56689,31.51824],[106.62646,31.51081],[106.64494,31.54469],[106.64752,31.59113],[106.69366,31.56118],[106.7688,31.5673],[106.76622,31.53759],[106.84215,31.50314],[106.84607,31.45691],[106.87127,31.42651],[106.86455,31.40068],[106.91786,31.37746],[106.94675,31.32896],[106.93432,31.30908],[106.94574,31.2648],[106.94753,31.26366],[106.96478,31.2508]]]}},{"type":"Feature","id":"datav:512000","properties":{"boundaryId":"datav:512000","nodeId":"geo:cn-sc-zys","parentNodeId":"geo:cn-sc","bounds":[104.45021,29.67469,105.75363,30.62566]},"geometry":{"type":"MultiPolygon","coordinates":[[[[104.89951,29.90235],[104.90242,29.90717],[104.92717,29.93622],[104.93277,29.9773],[104.97644,29.99322],[105.0209,29.9768],[105.06402,29.92253],[105.09705,29.90493],[105.08059,29.88284],[105.0947,29.84895],[105.12561,29.83068],[105.17555,29.84671],[105.21733,29.8448],[105.25271,29.79603],[105.28866,29.79827],[105.29773,29.82054],[105.35395,29.81157],[105.40502,29.78896],[105.39348,29.74723],[105.41678,29.72111],[105.42394,29.68759],[105.47568,29.67469],[105.47971,29.71629],[105.52966,29.70764],[105.5674,29.72802],[105.5833,29.81929],[105.61063,29.83691],[105.70895,29.84056],[105.73572,29.86092],[105.70268,29.92477],[105.73101,29.95664],[105.7234,29.97597],[105.75363,30.0186],[105.72239,30.04107],[105.687,30.039],[105.67468,30.07125],[105.63929,30.07639],[105.64221,30.10092],[105.59808,30.1092],[105.59316,30.14474],[105.55105,30.17919],[105.55654,30.18747],[105.55754,30.19583],[105.52104,30.20261],[105.41106,30.29561],[105.36885,30.2784],[105.35843,30.30809],[105.26391,30.28792],[105.22181,30.28717],[105.19784,30.30999],[105.19706,30.31074],[105.12606,30.34149],[105.10142,30.38546],[105.10064,30.38562],[105.09728,30.39619],[105.09392,30.39562],[105.0938,30.39586],[105.09369,30.39595],[105.07992,30.41172],[105.08014,30.41239],[105.07365,30.44212],[105.07521,30.44228],[105.09044,30.45954],[105.06693,30.53587],[104.98394,30.52927],[104.96323,30.56746],[104.95337,30.61248],[104.91093,30.62566],[104.85885,30.58239],[104.89279,30.54165],[104.8761,30.5131],[104.88103,30.36083],[104.86098,30.36438],[104.84878,30.30685],[104.79513,30.2794],[104.77486,30.30156],[104.73858,30.29031],[104.70398,30.30164],[104.69199,30.27543],[104.64361,30.28304],[104.65313,30.24019],[104.5996,30.24449],[104.60016,30.22041],[104.56925,30.19699],[104.48437,30.1815],[104.46835,30.15708],[104.46499,30.15153],[104.45021,30.10108],[104.46723,30.03469],[104.5239,30.02723],[104.56847,29.99555],[104.57799,29.95108],[104.60677,29.9329],[104.64395,29.95738],[104.67374,29.90567],[104.73063,29.9485],[104.74832,29.90924],[104.80544,29.8752],[104.89951,29.90235]]],[[[105.09728,30.39619],[105.09369,30.39595],[105.0938,30.39586],[105.09392,30.39562],[105.09728,30.39619]]],[[[105.56146,30.18366],[105.55889,30.18556],[105.55654,30.18747],[105.55105,30.17919],[105.56146,30.18366]]]]}},{"type":"Feature","id":"datav:513200","properties":{"boundaryId":"datav:513200","nodeId":"geo:cn-sc-aba","parentNodeId":"geo:cn-sc","bounds":[100.53166,30.5945,104.42614,34.31245]},"geometry":{"type":"Polygon","coordinates":[[[100.66795,32.52367],[100.62248,32.50365],[100.63413,32.47933],[100.61296,32.44321],[100.56234,32.41944],[100.53715,32.39397],[100.53166,32.32707],[100.57354,32.28044],[100.59908,32.23152],[100.63872,32.23306],[100.66649,32.21855],[100.69863,32.13344],[100.73055,32.09977],[100.76291,32.08663],[100.78542,32.04913],[100.7852,32.00975],[100.8693,31.95817],[100.95004,31.9875],[100.99047,31.97889],[101.01175,31.94898],[100.99182,31.93062],[100.99271,31.86484],[100.95284,31.86052],[100.9169,31.80495],[100.86202,31.78582],[100.85284,31.75871],[100.86908,31.73753],[100.93325,31.75113],[100.96438,31.71822],[100.96886,31.68204],[101.02452,31.64088],[101.06349,31.62832],[101.0505,31.60638],[101.0748,31.57571],[101.05968,31.54869],[101.07883,31.4935],[101.1075,31.469],[101.14423,31.49497],[101.24155,31.51824],[101.26417,31.46418],[101.24524,31.39897],[101.25711,31.37861],[101.30101,31.35866],[101.32845,31.38482],[101.35499,31.371],[101.39016,31.3988],[101.41569,31.43689],[101.44984,31.43501],[101.4644,31.41049],[101.4298,31.37215],[101.427,31.34565],[101.45276,31.29435],[101.48199,31.36847],[101.54593,31.37869],[101.57303,31.3414],[101.6101,31.38221],[101.62802,31.38531],[101.68547,31.35301],[101.71548,31.2892],[101.83676,31.28175],[101.85826,31.26603],[101.86353,31.20117],[101.88469,31.16094],[101.97417,31.17708],[102.0137,31.14463],[102.03431,31.07329],[102.07832,31.08403],[102.15447,31.14061],[102.17284,31.10716],[102.16309,31.0901],[102.16388,30.99598],[102.19423,30.95016],[102.20094,30.90991],[102.11259,30.8984],[102.06544,30.87103],[102.06611,30.79249],[102.03957,30.76328],[102.05715,30.73612],[102.03946,30.70664],[102.06611,30.66859],[102.10475,30.65813],[102.11471,30.63811],[102.17732,30.5945],[102.18482,30.62789],[102.22793,30.63687],[102.24686,30.62146],[102.27374,30.65409],[102.3481,30.7059],[102.39177,30.712],[102.44732,30.68185],[102.47733,30.69297],[102.46904,30.76871],[102.52134,30.79455],[102.591,30.84785],[102.66715,30.85072],[102.70825,30.91549],[102.75405,30.9164],[102.80187,30.93595],[102.85238,30.93677],[102.88956,30.90078],[102.88944,30.86585],[102.86357,30.79833],[102.89795,30.76526],[102.99292,30.77834],[103.03794,30.80236],[103.08363,30.81273],[103.12395,30.79282],[103.16572,30.84217],[103.25833,30.84242],[103.30525,30.81051],[103.33762,30.82466],[103.35453,30.85089],[103.4094,30.86495],[103.4514,30.89257],[103.46506,30.94154],[103.51646,30.97176],[103.52564,31.10109],[103.58321,31.19142],[103.57973,31.29124],[103.56954,31.33845],[103.66932,31.35481],[103.70079,31.39112],[103.73988,31.39889],[103.75029,31.41916],[103.80259,31.43011],[103.79576,31.47178],[103.84212,31.5109],[103.8578,31.53849],[103.89823,31.51286],[103.91514,31.53841],[103.90741,31.56444],[103.92824,31.63957],[103.98938,31.68237],[104.04079,31.69769],[104.09398,31.69354],[104.10316,31.71032],[104.17103,31.73232],[104.1698,31.77988],[104.15221,31.81586],[104.01738,31.86223],[103.9755,31.85605],[103.95769,31.90355],[103.92062,31.94224],[103.87684,31.91785],[103.81793,31.9398],[103.76362,31.94638],[103.75824,31.99789],[103.82487,32.07056],[103.812,32.09799],[103.85074,32.16133],[103.92253,32.14309],[103.97471,32.1409],[103.99498,32.11892],[104.04896,32.13141],[104.10059,32.125],[104.15658,32.1589],[104.18189,32.19659],[104.22176,32.21539],[104.25748,32.21475],[104.24752,32.24942],[104.18211,32.30894],[104.15983,32.25995],[104.13105,32.22301],[104.03351,32.24869],[103.98177,32.30562],[103.9213,32.31541],[103.88916,32.36485],[103.91458,32.4327],[103.90696,32.51051],[103.84492,32.58406],[103.8531,32.61367],[103.89039,32.639],[103.92242,32.63577],[104.03563,32.65158],[104.06587,32.63101],[104.08424,32.56913],[104.12937,32.53046],[104.17484,32.53135],[104.16845,32.57938],[104.18279,32.66343],[104.15591,32.71147],[104.13015,32.73033],[104.1465,32.75659],[104.10104,32.8482],[104.0689,32.84522],[104.00461,32.81416],[103.97147,32.83967],[103.99398,32.87933],[103.95803,32.88842],[103.95299,32.91745],[103.97852,32.9856],[103.98647,33.03467],[104.01346,33.04126],[104.06923,33.00311],[104.11347,32.99982],[104.19566,32.91689],[104.24785,32.87756],[104.27708,32.89132],[104.28615,32.93908],[104.30597,32.95153],[104.34539,32.94036],[104.37843,32.95322],[104.38358,32.99428],[104.42614,33.01074],[104.39142,33.03548],[104.33766,33.03829],[104.36723,33.08677],[104.37496,33.11918],[104.35088,33.15904],[104.32826,33.22412],[104.32904,33.25296],[104.30384,33.30452],[104.3492,33.30068],[104.42009,33.32709],[104.36768,33.34501],[104.29567,33.33285],[104.27058,33.39332],[104.22075,33.4046],[104.21313,33.44688],[104.18077,33.47309],[104.15613,33.54712],[104.17965,33.57569],[104.16856,33.61175],[104.1035,33.6635],[104.05232,33.68526],[103.96654,33.67043],[103.86161,33.68215],[103.77829,33.65888],[103.68926,33.69339],[103.65163,33.72135],[103.59888,33.71785],[103.56394,33.6996],[103.55207,33.67147],[103.52049,33.67856],[103.5495,33.74031],[103.51836,33.8071],[103.4645,33.80241],[103.43169,33.75074],[103.3496,33.74349],[103.27961,33.77359],[103.28465,33.80201],[103.24993,33.81403],[103.22809,33.79485],[103.16135,33.80718],[103.1534,33.81912],[103.18117,33.90072],[103.1712,33.9244],[103.13436,33.93036],[103.12383,33.96818],[103.15721,33.99876],[103.13089,34.06693],[103.1702,34.06574],[103.12406,34.16185],[103.10032,34.1819],[103.00557,34.18491],[102.97343,34.20542],[102.98015,34.2413],[102.93995,34.29995],[102.91318,34.31245],[102.86111,34.3024],[102.85674,34.27067],[102.80657,34.2747],[102.7779,34.23568],[102.73188,34.2375],[102.7013,34.19766],[102.6639,34.19251],[102.59839,34.14774],[102.65573,34.11349],[102.46725,34.07392],[102.43881,34.0874],[102.39961,34.01773],[102.39144,33.9708],[102.27777,33.99002],[102.23801,33.96365],[102.1669,33.98287],[102.13633,33.96524],[102.25335,33.86152],[102.26198,33.82485],[102.23857,33.78888],[102.30028,33.78235],[102.32435,33.75456],[102.28438,33.72342],[102.30129,33.70988],[102.3416,33.72087],[102.31394,33.66884],[102.34451,33.60688],[102.38662,33.59875],[102.44026,33.57481],[102.46199,33.50432],[102.46244,33.44968],[102.40364,33.42459],[102.39614,33.40532],[102.34742,33.40972],[102.31058,33.39796],[102.2771,33.40764],[102.23812,33.38861],[102.21976,33.35149],[102.18695,33.33277],[102.21752,33.24815],[102.17496,33.23365],[102.14417,33.27442],[102.11147,33.28563],[102.08952,33.20497],[102.05503,33.18998],[101.99377,33.2],[101.93565,33.18686],[101.92322,33.15583],[101.88413,33.1325],[101.86599,33.10306],[101.82556,33.1195],[101.84068,33.1604],[101.82825,33.21498],[101.78838,33.22901],[101.76755,33.26337],[101.8091,33.28835],[101.87607,33.31412],[101.88637,33.38237],[101.91414,33.40588],[101.92736,33.47293],[101.90743,33.4802],[101.9072,33.54201],[101.882,33.57928],[101.84438,33.60242],[101.83027,33.55454],[101.78234,33.5563],[101.77584,33.49202],[101.75949,33.44473],[101.69577,33.43394],[101.66273,33.38165],[101.64929,33.32461],[101.67819,33.29748],[101.70674,33.29852],[101.74045,33.26913],[101.71111,33.21346],[101.65411,33.16273],[101.66117,33.13651],[101.63418,33.10241],[101.51547,33.19303],[101.48646,33.22716],[101.42823,33.23029],[101.3868,33.20737],[101.37448,33.17139],[101.29698,33.26225],[101.18354,33.27009],[101.157,33.23702],[101.12788,33.2238],[101.12038,33.18662],[101.15868,33.1442],[101.16965,33.10169],[101.14322,33.08412],[101.14658,33.05683],[101.18443,33.04126],[101.17133,33.01355],[101.1841,32.98424],[101.12911,32.98954],[101.1337,32.948],[101.12396,32.91005],[101.17626,32.89413],[101.22385,32.85552],[101.23774,32.82768],[101.22307,32.72582],[101.15745,32.66158],[101.13023,32.66061],[101.0767,32.68302],[101.03056,32.66053],[100.99719,32.62787],[100.95688,32.62093],[100.93213,32.60068],[100.88756,32.63255],[100.79965,32.65488],[100.77355,32.64093],[100.69203,32.6777],[100.71756,32.61706],[100.67635,32.62787],[100.65865,32.59971],[100.66795,32.52367]]]}},{"type":"Feature","id":"datav:513300","properties":{"boundaryId":"datav:513300","nodeId":"geo:cn-sc-gaz","parentNodeId":"geo:cn-sc","bounds":[97.35547,27.96636,102.49446,34.20748]},"geometry":{"type":"Polygon","coordinates":[[[100.06154,28.08278],[100.10028,28.04796],[100.20174,27.98421],[100.27051,27.96636],[100.30298,28.00983],[100.34901,28.01735],[100.4181,28.0056],[100.42684,28.01947],[100.38742,28.13346],[100.38025,28.18793],[100.36782,28.20624],[100.37286,28.25046],[100.41385,28.29078],[100.39033,28.32493],[100.42079,28.38654],[100.42393,28.42015],[100.44991,28.47472],[100.49112,28.50031],[100.51497,28.55963],[100.53043,28.5741],[100.52013,28.61657],[100.52371,28.67112],[100.50881,28.70867],[100.56279,28.74957],[100.59471,28.74395],[100.57993,28.79793],[100.54174,28.88979],[100.54308,28.91704],[100.52136,28.94965],[100.57701,28.94546],[100.60916,28.95459],[100.63424,28.99012],[100.68016,29.01416],[100.7142,29.0052],[100.77926,29.01039],[100.82048,28.99305],[100.84578,29.02069],[100.83246,29.05536],[100.77288,29.06381],[100.77243,29.08767],[100.8375,29.11294],[100.88341,29.14641],[100.91634,29.13988],[100.92238,29.09947],[100.95956,29.07411],[101.01018,29.12683],[101.05027,29.14565],[101.09742,29.14657],[101.11836,29.11194],[101.11635,29.07059],[101.15588,29.01776],[101.14535,28.99975],[101.16036,28.94697],[101.18399,28.94127],[101.19261,28.89113],[101.17167,28.83645],[101.17312,28.7887],[101.20504,28.75495],[101.20918,28.70061],[101.22968,28.66658],[101.29754,28.67314],[101.35622,28.66616],[101.36765,28.62926],[101.42722,28.64633],[101.44581,28.62548],[101.48982,28.62682],[101.51693,28.58924],[101.55075,28.59942],[101.62018,28.53768],[101.62992,28.49156],[101.5699,28.47422],[101.46922,28.50553],[101.42756,28.50503],[101.45444,28.41106],[101.46821,28.40432],[101.4821,28.31852],[101.50976,28.31473],[101.56228,28.33311],[101.62018,28.37491],[101.63171,28.35485],[101.66755,28.35182],[101.71548,28.38089],[101.75714,28.49341],[101.75355,28.53389],[101.83239,28.59403],[101.87417,28.61312],[101.91874,28.61262],[101.94662,28.67137],[102.02277,28.72337],[101.9978,28.75016],[101.98929,28.80372],[101.96275,28.82403],[102.00631,28.90757],[102.05099,28.92048],[102.05838,28.95409],[102.09971,28.98065],[102.16522,29.03652],[102.16847,29.07302],[102.15167,29.10265],[102.16074,29.13034],[102.10956,29.18504],[102.12334,29.23863],[102.09635,29.2718],[102.04607,29.29778],[101.9838,29.29903],[101.94953,29.34412],[101.98414,29.4224],[101.95222,29.43759],[101.93598,29.50104],[101.97417,29.4897],[102.03375,29.50004],[102.09064,29.49612],[102.13308,29.51046],[102.17855,29.51271],[102.17586,29.46652],[102.2033,29.45685],[102.31405,29.53346],[102.31002,29.57528],[102.27721,29.60377],[102.29613,29.68359],[102.336,29.72011],[102.35325,29.76319],[102.32626,29.7996],[102.32335,29.82478],[102.29109,29.83824],[102.27082,29.8816],[102.30319,29.95456],[102.27497,30.01719],[102.26814,30.07738],[102.29513,30.10116],[102.29367,30.12884],[102.32895,30.18796],[102.4023,30.23423],[102.41417,30.30396],[102.43276,30.35513],[102.43444,30.42139],[102.41966,30.45277],[102.41798,30.52416],[102.43119,30.5969],[102.47173,30.64],[102.4733,30.6709],[102.49446,30.71364],[102.46904,30.76871],[102.47733,30.69297],[102.44732,30.68185],[102.39177,30.712],[102.3481,30.7059],[102.27374,30.65409],[102.24686,30.62146],[102.22793,30.63687],[102.18482,30.62789],[102.17732,30.5945],[102.11471,30.63811],[102.10475,30.65813],[102.06611,30.66859],[102.03946,30.70664],[102.05715,30.73612],[102.03957,30.76328],[102.06611,30.79249],[102.06544,30.87103],[102.11259,30.8984],[102.20094,30.90991],[102.19423,30.95016],[102.16388,30.99598],[102.16309,31.0901],[102.17284,31.10716],[102.15447,31.14061],[102.07832,31.08403],[102.03431,31.07329],[102.0137,31.14463],[101.97417,31.17708],[101.88469,31.16094],[101.86353,31.20117],[101.85826,31.26603],[101.83676,31.28175],[101.71548,31.2892],[101.68547,31.35301],[101.62802,31.38531],[101.6101,31.38221],[101.57303,31.3414],[101.54593,31.37869],[101.48199,31.36847],[101.45276,31.29435],[101.427,31.34565],[101.4298,31.37215],[101.4644,31.41049],[101.44984,31.43501],[101.41569,31.43689],[101.39016,31.3988],[101.35499,31.371],[101.32845,31.38482],[101.30101,31.35866],[101.25711,31.37861],[101.24524,31.39897],[101.26417,31.46418],[101.24155,31.51824],[101.14423,31.49497],[101.1075,31.469],[101.07883,31.4935],[101.05968,31.54869],[101.0748,31.57571],[101.0505,31.60638],[101.06349,31.62832],[101.02452,31.64088],[100.96886,31.68204],[100.96438,31.71822],[100.93325,31.75113],[100.86908,31.73753],[100.85284,31.75871],[100.86202,31.78582],[100.9169,31.80495],[100.95284,31.86052],[100.99271,31.86484],[100.99182,31.93062],[101.01175,31.94898],[100.99047,31.97889],[100.95004,31.9875],[100.8693,31.95817],[100.7852,32.00975],[100.78542,32.04913],[100.76291,32.08663],[100.73055,32.09977],[100.69863,32.13344],[100.66649,32.21855],[100.63872,32.23306],[100.59908,32.23152],[100.57354,32.28044],[100.53166,32.32707],[100.53715,32.39397],[100.56234,32.41944],[100.61296,32.44321],[100.63413,32.47933],[100.62248,32.50365],[100.66795,32.52367],[100.64544,32.52642],[100.52438,32.59495],[100.51654,32.63005],[100.47018,32.69455],[100.44991,32.69407],[100.40063,32.75619],[100.33445,32.71824],[100.26435,32.74273],[100.24027,32.72267],[100.22974,32.65053],[100.18808,32.63077],[100.11014,32.63924],[100.08785,32.66908],[100.1387,32.72098],[100.11708,32.80249],[100.12313,32.83726],[100.06602,32.89598],[100.02962,32.89582],[100.03836,32.92911],[99.9566,32.94808],[99.94742,32.98689],[99.87732,33.04551],[99.87777,32.99372],[99.85089,32.94189],[99.82871,32.95097],[99.7744,32.92252],[99.79198,32.88311],[99.7669,32.82623],[99.76029,32.76988],[99.71774,32.73218],[99.7062,32.76408],[99.60743,32.78083],[99.55715,32.84007],[99.49018,32.85094],[99.37617,32.89984],[99.35411,32.88545],[99.26911,32.87853],[99.23328,32.95443],[99.23473,32.98335],[99.17941,33.04487],[99.12465,33.04599],[99.09273,33.0781],[99.02576,33.09503],[98.96988,33.09953],[98.957,33.1183],[98.9028,33.12584],[98.8607,33.15006],[98.8047,33.21931],[98.8075,33.26529],[98.75879,33.2781],[98.76427,33.32109],[98.78342,33.34405],[98.77917,33.37165],[98.73404,33.41028],[98.74221,33.47773],[98.72463,33.5056],[98.68006,33.52157],[98.64803,33.54879],[98.65251,33.595],[98.62272,33.61023],[98.61757,33.63727],[98.65665,33.64732],[98.5945,33.70239],[98.58173,33.73219],[98.53806,33.74756],[98.49293,33.79325],[98.46348,33.84839],[98.43514,33.84315],[98.40692,33.86724],[98.42708,33.90819],[98.41543,33.95698],[98.44063,33.98136],[98.4282,34.029],[98.39192,34.05884],[98.40188,34.08772],[98.33872,34.09478],[98.20994,34.07852],[98.1573,34.10739],[98.09817,34.12293],[98.02784,34.12333],[97.94453,34.19861],[97.8107,34.20748],[97.77341,34.16201],[97.66702,34.12769],[97.66299,34.11746],[97.70319,34.05813],[97.6874,34.01662],[97.6528,33.99836],[97.65985,33.95635],[97.63399,33.91908],[97.60184,33.93005],[97.52211,33.90326],[97.50363,33.91201],[97.46063,33.88736],[97.39534,33.88927],[97.39803,33.84832],[97.3688,33.82413],[97.40643,33.79516],[97.42322,33.75496],[97.41785,33.72852],[97.43532,33.68247],[97.40553,33.62666],[97.44865,33.58367],[97.52525,33.57577],[97.51203,33.51942],[97.55257,33.46566],[97.62559,33.46151],[97.74127,33.41163],[97.7023,33.35973],[97.67609,33.34101],[97.622,33.33597],[97.60666,33.26257],[97.57519,33.22083],[97.48795,33.16818],[97.49803,33.13795],[97.48773,33.10675],[97.51696,33.09752],[97.54238,33.0362],[97.51797,33.02215],[97.52379,32.98857],[97.44741,32.97628],[97.37574,32.95668],[97.35547,32.88689],[97.3791,32.88239],[97.3931,32.82873],[97.38582,32.78027],[97.42479,32.72775],[97.42378,32.70495],[97.54372,32.62174],[97.60632,32.61528],[97.62973,32.57591],[97.6986,32.53684],[97.80454,32.50171],[97.86278,32.49936],[97.88025,32.48636],[97.94016,32.4824],[98.02359,32.4525],[98.08653,32.3985],[98.19751,32.36016],[98.23054,32.26287],[98.21912,32.23419],[98.2582,32.21061],[98.32887,32.10829],[98.40558,32.04353],[98.43481,32.0078],[98.43257,31.92257],[98.39931,31.8959],[98.44119,31.82945],[98.44522,31.80747],[98.49349,31.76823],[98.52048,31.73012],[98.54814,31.7135],[98.55396,31.65661],[98.58789,31.63199],[98.62093,31.59031],[98.65094,31.57881],[98.74042,31.49318],[98.83763,31.43656],[98.84323,31.41695],[98.88701,31.3746],[98.81064,31.30679],[98.80593,31.27929],[98.78006,31.25113],[98.74781,31.26284],[98.69271,31.33264],[98.64613,31.33903],[98.61611,31.30376],[98.60346,31.25662],[98.63874,31.17921],[98.70985,31.11864],[98.71242,31.08321],[98.73695,31.04925],[98.7748,31.03111],[98.80605,30.99565],[98.79686,30.94835],[98.77447,30.90843],[98.78219,30.8915],[98.84871,30.85031],[98.90179,30.78509],[98.9523,30.7697],[98.96395,30.73217],[98.90751,30.69833],[98.92363,30.63959],[98.92677,30.56944],[98.94435,30.48273],[98.9654,30.45004],[98.97403,30.39793],[98.96742,30.33496],[98.98153,30.32132],[98.985,30.27485],[98.97033,30.26004],[98.99183,30.21644],[98.98153,30.18291],[98.98914,30.15186],[99.0448,30.08003],[99.04323,30.01504],[99.05802,29.92136],[99.05298,29.89289],[99.01367,29.81788],[99.01893,29.79195],[99.00068,29.73716],[98.99206,29.66321],[99.01468,29.60735],[99.05208,29.56396],[99.0448,29.51996],[99.06138,29.47895],[99.05869,29.4174],[99.06978,29.32709],[99.11524,29.24205],[99.11916,29.19892],[99.10494,29.16263],[99.11793,29.1024],[99.11379,29.07453],[99.13182,28.94948],[99.12353,28.89013],[99.10404,28.84198],[99.11435,28.76586],[99.13383,28.7348],[99.12689,28.69952],[99.14738,28.64103],[99.18378,28.5889],[99.17012,28.56519],[99.19162,28.49307],[99.18725,28.43986],[99.16553,28.42445],[99.20091,28.36438],[99.23037,28.34997],[99.23843,28.317],[99.28065,28.29803],[99.30674,28.22759],[99.3456,28.20447],[99.38692,28.21029],[99.4138,28.2928],[99.39308,28.31776],[99.40697,28.3578],[99.43732,28.3985],[99.40451,28.44424],[99.42646,28.45258],[99.39566,28.49316],[99.40294,28.54575],[99.46341,28.5492],[99.4661,28.57974],[99.5408,28.62355],[99.55379,28.71044],[99.61583,28.74219],[99.60586,28.77157],[99.62557,28.81471],[99.67843,28.81027],[99.71953,28.84475],[99.72277,28.75596],[99.73319,28.71951],[99.75648,28.70036],[99.79445,28.6991],[99.87329,28.63178],[99.87597,28.61144],[99.91864,28.59908],[99.96153,28.56157],[99.98707,28.52447],[99.99031,28.47666],[100.07464,28.42437],[100.05426,28.3766],[100.13455,28.35165],[100.17263,28.32114],[100.14754,28.28876],[100.18842,28.25274],[100.15337,28.20827],[100.03332,28.18463],[100.02111,28.1474],[100.06154,28.08278]]]}},{"type":"Feature","id":"datav:513400","properties":{"boundaryId":"datav:513400","nodeId":"geo:cn-sc-lsy","parentNodeId":"geo:cn-sc","bounds":[100.06154,26.04939,103.8756,29.30287]},"geometry":{"type":"MultiPolygon","coordinates":[[[[103.61389,28.59731],[103.58589,28.61489],[103.5318,28.59765],[103.50414,28.56031],[103.42967,28.53179],[103.43863,28.50006],[103.43303,28.45292],[103.38835,28.42066],[103.33997,28.44348],[103.28778,28.53305],[103.24657,28.54979],[103.24288,28.59336],[103.27278,28.61312],[103.31074,28.70204],[103.33482,28.74311],[103.27098,28.80599],[103.22507,28.80397],[103.18991,28.82789],[103.15396,28.82923],[103.11252,28.81236],[103.10748,28.77191],[103.07053,28.73681],[103.06605,28.68851],[103.03245,28.66582],[102.96257,28.68112],[102.93816,28.74],[102.94421,28.76645],[102.92528,28.80187],[102.94174,28.86052],[102.92808,28.89642],[102.94622,28.92006],[102.91363,28.99992],[102.92214,29.03794],[102.97007,29.06507],[102.93133,29.11294],[102.94488,29.19006],[102.97455,29.22216],[102.9628,29.25083],[103.02002,29.25074],[103.00389,29.28717],[102.9404,29.30287],[102.9124,29.26453],[102.90546,29.22225],[102.87981,29.20611],[102.83659,29.20804],[102.83311,29.24189],[102.78149,29.23671],[102.76682,29.18705],[102.77219,29.15962],[102.74039,29.15335],[102.69828,29.16706],[102.67342,29.16154],[102.63579,29.21079],[102.59088,29.19198],[102.59469,29.16004],[102.563,29.15996],[102.54766,29.11696],[102.52224,29.1116],[102.52548,29.03627],[102.46613,28.96934],[102.48147,28.92014],[102.42985,28.84542],[102.35235,28.85457],[102.29087,28.89969],[102.2538,28.89876],[102.22155,28.96222],[102.16522,29.03652],[102.09971,28.98065],[102.05838,28.95409],[102.05099,28.92048],[102.00631,28.90757],[101.96275,28.82403],[101.98929,28.80372],[101.9978,28.75016],[102.02277,28.72337],[101.94662,28.67137],[101.91874,28.61262],[101.87417,28.61312],[101.83239,28.59403],[101.75355,28.53389],[101.75714,28.49341],[101.71548,28.38089],[101.66755,28.35182],[101.63171,28.35485],[101.62018,28.37491],[101.56228,28.33311],[101.50976,28.31473],[101.4821,28.31852],[101.46821,28.40432],[101.45444,28.41106],[101.42756,28.50503],[101.46922,28.50553],[101.5699,28.47422],[101.62992,28.49156],[101.62018,28.53768],[101.55075,28.59942],[101.51693,28.58924],[101.48982,28.62682],[101.44581,28.62548],[101.42722,28.64633],[101.36765,28.62926],[101.35622,28.66616],[101.29754,28.67314],[101.22968,28.66658],[101.20918,28.70061],[101.20504,28.75495],[101.17312,28.7887],[101.17167,28.83645],[101.19261,28.89113],[101.18399,28.94127],[101.16036,28.94697],[101.14535,28.99975],[101.15588,29.01776],[101.11635,29.07059],[101.11836,29.11194],[101.09742,29.14657],[101.05027,29.14565],[101.01018,29.12683],[100.95956,29.07411],[100.92238,29.09947],[100.91634,29.13988],[100.88341,29.14641],[100.8375,29.11294],[100.77243,29.08767],[100.77288,29.06381],[100.83246,29.05536],[100.84578,29.02069],[100.82048,28.99305],[100.77926,29.01039],[100.7142,29.0052],[100.68016,29.01416],[100.63424,28.99012],[100.60916,28.95459],[100.57701,28.94546],[100.52136,28.94965],[100.54308,28.91704],[100.54174,28.88979],[100.57993,28.79793],[100.59471,28.74395],[100.56279,28.74957],[100.50881,28.70867],[100.52371,28.67112],[100.52013,28.61657],[100.53043,28.5741],[100.51497,28.55963],[100.49112,28.50031],[100.44991,28.47472],[100.42393,28.42015],[100.42079,28.38654],[100.39033,28.32493],[100.41385,28.29078],[100.37286,28.25046],[100.36782,28.20624],[100.38025,28.18793],[100.38742,28.13346],[100.42684,28.01947],[100.4181,28.0056],[100.34901,28.01735],[100.30298,28.00983],[100.27051,27.96636],[100.20174,27.98421],[100.10028,28.04796],[100.06154,28.08278],[100.08673,28.03037],[100.12089,28.01871],[100.19615,27.93734],[100.16994,27.90764],[100.21048,27.87725],[100.25785,27.86497],[100.29492,27.86954],[100.30858,27.83042],[100.30713,27.74866],[100.32773,27.72043],[100.3508,27.75595],[100.41161,27.81568],[100.41519,27.84092],[100.44319,27.86624],[100.47802,27.85786],[100.51117,27.82763],[100.55988,27.82415],[100.60703,27.856],[100.63469,27.91534],[100.67982,27.92422],[100.70446,27.88681],[100.70703,27.80137],[100.74992,27.7729],[100.77546,27.74306],[100.78901,27.68439],[100.83649,27.68168],[100.86807,27.59182],[100.91208,27.52169],[100.90155,27.48627],[100.93683,27.4691],[100.95184,27.4272],[101.00178,27.3493],[101.01018,27.31229],[101.05957,27.19863],[101.1187,27.20868],[101.17044,27.19565],[101.16808,27.16523],[101.19743,27.18321],[101.24603,27.17921],[101.2831,27.19761],[101.35522,27.18466],[101.3943,27.14521],[101.427,27.19079],[101.41905,27.21584],[101.47067,27.23883],[101.51469,27.2298],[101.53048,27.27782],[101.55836,27.29536],[101.58423,27.33467],[101.63541,27.33952],[101.66475,27.28889],[101.64314,27.24513],[101.65075,27.20817],[101.68199,27.1504],[101.70876,27.12901],[101.76173,27.13344],[101.81739,27.10173],[101.83307,27.12262],[101.87036,27.12969],[101.8792,27.16813],[101.87808,27.22273],[101.91224,27.24368],[101.90843,27.19267],[101.94102,27.14384],[102.00026,27.09687],[102.04976,27.08272],[102.08627,27.14648],[102.12267,27.17188],[102.16108,27.18219],[102.17642,27.13754],[102.2407,27.10659],[102.23868,27.0643],[102.21752,27.04596],[102.23017,27.00049],[102.2145,26.9573],[102.22592,26.924],[102.20498,26.85216],[102.18213,26.81259],[102.17508,26.77498],[102.19568,26.74462],[102.17888,26.70835],[102.13554,26.67472],[102.1323,26.63774],[102.08448,26.65452],[102.0548,26.69269],[102.06309,26.71861],[102.00653,26.71639],[101.99746,26.69885],[101.99556,26.65358],[102.01113,26.59853],[102.03061,26.5969],[102.03408,26.54113],[102.05077,26.49417],[102.03341,26.47077],[102.02949,26.43407],[101.995,26.43141],[101.98212,26.45491],[101.9427,26.44899],[101.92758,26.36226],[101.9352,26.32295],[101.92176,26.27032],[101.90205,26.24352],[101.90675,26.19137],[101.84068,26.16008],[101.83228,26.11718],[101.8399,26.08243],[101.85804,26.04939],[101.8997,26.0992],[101.92288,26.10798],[101.95468,26.08449],[102.02076,26.09628],[102.08425,26.06514],[102.10777,26.06824],[102.15234,26.10961],[102.17508,26.14701],[102.24171,26.18862],[102.24496,26.21087],[102.35101,26.24593],[102.39614,26.29763],[102.44015,26.30063],[102.54295,26.34012],[102.57106,26.36261],[102.62941,26.33686],[102.63859,26.30767],[102.61127,26.28234],[102.62011,26.24576],[102.67454,26.20537],[102.71978,26.21818],[102.73994,26.2686],[102.78518,26.29892],[102.83345,26.30664],[102.86749,26.33901],[102.92685,26.33463],[102.97556,26.34089],[102.99818,26.37187],[102.98833,26.40902],[102.99774,26.45962],[102.99034,26.48303],[103.03189,26.48688],[103.05709,26.52811],[103.01935,26.59005],[103.02965,26.60169],[103.0282,26.65957],[103.00591,26.67746],[103.00961,26.70732],[102.98396,26.7648],[102.9918,26.77463],[102.96447,26.83943],[102.94745,26.8443],[102.8965,26.91256],[102.88888,26.95457],[102.89527,26.9998],[102.8713,27.02796],[102.89896,27.07632],[102.91374,27.13464],[102.90165,27.23576],[102.88328,27.25824],[102.88216,27.29331],[102.94141,27.40552],[102.9853,27.36734],[103.03335,27.388],[103.05563,27.40952],[103.11151,27.40101],[103.14455,27.42558],[103.14455,27.45057],[103.21813,27.56211],[103.23616,27.57043],[103.29361,27.56474],[103.29921,27.59717],[103.28039,27.61796],[103.34971,27.67845],[103.37009,27.70864],[103.39305,27.70941],[103.42094,27.74298],[103.44815,27.7551],[103.48958,27.79738],[103.50918,27.84033],[103.50257,27.91043],[103.52632,27.94056],[103.49888,27.98412],[103.48824,28.0324],[103.45946,28.02141],[103.43247,28.04128],[103.43292,28.07221],[103.47021,28.12215],[103.53315,28.16851],[103.57324,28.23088],[103.6495,28.25704],[103.72129,28.20202],[103.73999,28.23603],[103.77034,28.2335],[103.82891,28.28496],[103.87023,28.30107],[103.8756,28.32215],[103.85343,28.35671],[103.85981,28.38351],[103.8298,28.43633],[103.81043,28.49543],[103.78198,28.52455],[103.73999,28.51201],[103.72453,28.47152],[103.685,28.49796],[103.713,28.54129],[103.6654,28.59487],[103.61389,28.59731]]],[[[101.91672,26.70313],[101.92053,26.63552],[101.93878,26.63937],[101.94651,26.70766],[101.91672,26.70313]]]]}}]}