{"type":"FeatureCollection","features":[{"type":"Feature","id":"datav:450100","properties":{"boundaryId":"datav:450100","nodeId":"geo:cn-gx-nng","parentNodeId":"geo:cn-gx","bounds":[107.33318,22.20697,109.61892,24.03291]},"geometry":{"type":"Polygon","coordinates":[[[109.21702,23.29683],[109.19274,23.28207],[109.17074,23.27756],[109.16526,23.28956],[109.14143,23.29952],[109.11038,23.29083],[109.08663,23.31438],[109.06387,23.32259],[109.05047,23.3375],[109.05199,23.35582],[108.98768,23.34933],[108.93904,23.36006],[108.92077,23.38971],[108.91917,23.41798],[108.89002,23.4413],[108.86962,23.44388],[108.86946,23.4574],[108.83437,23.47829],[108.82235,23.49396],[108.82631,23.51886],[108.812,23.54083],[108.8037,23.58885],[108.78277,23.61543],[108.79708,23.6342],[108.78041,23.64551],[108.77721,23.68103],[108.80431,23.71472],[108.77751,23.73256],[108.7836,23.7681],[108.77302,23.77819],[108.74768,23.7805],[108.7288,23.79854],[108.71342,23.78351],[108.67308,23.78505],[108.6711,23.77282],[108.63829,23.76909],[108.62802,23.75587],[108.59293,23.74408],[108.54893,23.70726],[108.52906,23.67192],[108.50136,23.66275],[108.48925,23.7133],[108.48712,23.76086],[108.44374,23.80249],[108.41595,23.8174],[108.43026,23.83231],[108.45698,23.84273],[108.46535,23.89836],[108.45531,23.91255],[108.4228,23.92443],[108.43788,23.93944],[108.43369,23.96283],[108.46124,23.98676],[108.47654,23.97789],[108.49877,23.99043],[108.47989,24.01906],[108.45827,24.01019],[108.45173,24.02382],[108.43255,24.03291],[108.41009,24.03094],[108.37744,24.01441],[108.36792,23.98183],[108.36594,23.91611],[108.32941,23.912],[108.31312,23.89337],[108.31753,23.88181],[108.29272,23.85676],[108.30916,23.83949],[108.2829,23.81439],[108.26402,23.81768],[108.24964,23.80457],[108.23259,23.80687],[108.22307,23.82562],[108.22132,23.85484],[108.20305,23.87161],[108.16279,23.82568],[108.13622,23.85303],[108.11826,23.83489],[108.11224,23.81417],[108.08895,23.79317],[108.05835,23.80068],[108.02189,23.77622],[108.01679,23.76004],[108.02417,23.73415],[108.04282,23.72065],[108.0209,23.69041],[108.00073,23.67351],[107.99654,23.63706],[107.96602,23.62789],[107.95993,23.64403],[107.9422,23.65704],[107.92469,23.63942],[107.87445,23.60109],[107.84659,23.59741],[107.83997,23.61021],[107.79909,23.58907],[107.79399,23.56671],[107.76781,23.57242],[107.73789,23.56666],[107.71628,23.55408],[107.73812,23.52105],[107.72975,23.49643],[107.74924,23.44267],[107.76903,23.44982],[107.7943,23.43063],[107.80579,23.43514],[107.83533,23.42766],[107.87072,23.44613],[107.88366,23.43888],[107.8641,23.41468],[107.86691,23.40132],[107.84811,23.37942],[107.82733,23.3676],[107.83692,23.34207],[107.8185,23.34091],[107.78235,23.34966],[107.74802,23.33387],[107.75083,23.31405],[107.71612,23.29809],[107.70242,23.28004],[107.64967,23.28207],[107.61192,23.29237],[107.5849,23.29105],[107.57622,23.25868],[107.58482,23.23043],[107.56945,23.22178],[107.56168,23.20449],[107.53032,23.2041],[107.51974,23.21936],[107.49051,23.22586],[107.47757,23.24287],[107.43898,23.25003],[107.42954,23.26022],[107.39826,23.23847],[107.3857,23.24436],[107.37923,23.23825],[107.36971,23.19799],[107.3465,23.18862],[107.35654,23.14812],[107.33774,23.14807],[107.33318,23.12911],[107.35106,23.12106],[107.37694,23.08358],[107.35342,23.08082],[107.35335,23.06588],[107.33767,23.04746],[107.3675,23.03152],[107.38136,23.04476],[107.41318,23.0511],[107.43251,23.04404],[107.44735,23.05],[107.47826,23.03163],[107.49036,22.98679],[107.49987,22.97995],[107.49264,22.95026],[107.49957,22.93563],[107.47848,22.91637],[107.48884,22.89583],[107.48815,22.87193],[107.50421,22.84542],[107.5428,22.85878],[107.57432,22.86044],[107.5833,22.88982],[107.61397,22.90417],[107.64594,22.90224],[107.64838,22.88711],[107.67357,22.85514],[107.69238,22.86199],[107.70212,22.87601],[107.67495,22.90229],[107.66718,22.91858],[107.63567,22.93503],[107.6378,22.94766],[107.6977,22.93878],[107.71232,22.94915],[107.74391,22.94397],[107.79354,22.88109],[107.83243,22.87286],[107.85984,22.8732],[107.8829,22.84973],[107.94379,22.84641],[107.97082,22.8347],[107.9817,22.8167],[107.97333,22.79316],[108.02379,22.782],[108.01169,22.72027],[107.99966,22.71667],[107.99867,22.69428],[108.02258,22.67747],[108.04145,22.65579],[108.07472,22.67554],[108.08583,22.70197],[108.10334,22.64318],[108.08606,22.62128],[108.05866,22.62344],[108.00613,22.60756],[107.99533,22.58161],[108.01847,22.54779],[108.01344,22.53329],[107.98619,22.50456],[108.01405,22.47909],[108.05888,22.47017],[108.06863,22.45671],[108.08773,22.45837],[108.08294,22.41118],[108.1006,22.40824],[108.11574,22.38857],[108.09588,22.37167],[108.13523,22.34146],[108.13683,22.30509],[108.15053,22.28879],[108.1637,22.2899],[108.1892,22.27365],[108.20671,22.29217],[108.23624,22.28252],[108.23464,22.263],[108.24667,22.23921],[108.28069,22.22334],[108.27985,22.20697],[108.2969,22.21208],[108.32172,22.23743],[108.35437,22.24636],[108.3718,22.24287],[108.40986,22.26589],[108.42318,22.26722],[108.43605,22.2493],[108.46825,22.23921],[108.49618,22.23826],[108.50707,22.27504],[108.52815,22.27493],[108.54391,22.31474],[108.54056,22.34634],[108.56857,22.37211],[108.54733,22.39622],[108.55845,22.41988],[108.58387,22.43073],[108.60366,22.414],[108.61789,22.43838],[108.65314,22.44663],[108.67392,22.43101],[108.68884,22.46258],[108.69987,22.45018],[108.72088,22.4509],[108.71061,22.48457],[108.73397,22.4864],[108.74912,22.50467],[108.76731,22.50705],[108.78277,22.52715],[108.81154,22.52416],[108.84221,22.54159],[108.87312,22.5122],[108.91856,22.51225],[108.93142,22.52449],[108.96301,22.51845],[108.97793,22.54259],[108.99559,22.53883],[109.00868,22.51425],[109.04126,22.50727],[109.04583,22.5184],[109.07917,22.52227],[109.0963,22.51065],[109.1734,22.52006],[109.16305,22.53777],[109.18581,22.54608],[109.22874,22.50644],[109.25021,22.50993],[109.26558,22.48457],[109.32138,22.52255],[109.29222,22.54325],[109.28979,22.55958],[109.30684,22.5862],[109.35167,22.62808],[109.36705,22.6267],[109.38691,22.63903],[109.40183,22.62764],[109.42787,22.63417],[109.46417,22.62947],[109.49165,22.65214],[109.51761,22.63561],[109.53428,22.64772],[109.56351,22.65601],[109.58414,22.68129],[109.61123,22.67244],[109.61892,22.68687],[109.57812,22.73513],[109.57637,22.75962],[109.5594,22.77283],[109.50581,22.77189],[109.51715,22.80543],[109.53504,22.8152],[109.52073,22.8283],[109.481,22.82355],[109.47171,22.84426],[109.45527,22.84984],[109.45276,22.86613],[109.48518,22.87866],[109.48214,22.89153],[109.42962,22.91295],[109.40952,22.92658],[109.38455,22.92945],[109.37748,22.94789],[109.36149,22.96036],[109.35654,22.97961],[109.31179,23.01691],[109.3334,23.03516],[109.34946,23.06401],[109.32572,23.09576],[109.30897,23.09201],[109.28705,23.10166],[109.25416,23.09549],[109.25599,23.10965],[109.24556,23.14614],[109.24807,23.18945],[109.2601,23.21076],[109.2534,23.22922],[109.23186,23.23637],[109.22661,23.26991],[109.24016,23.28516],[109.21702,23.29683]]]}},{"type":"Feature","id":"datav:450200","properties":{"boundaryId":"datav:450200","nodeId":"geo:cn-gx-lzh","parentNodeId":"geo:cn-gx","bounds":[108.58768,23.9086,110.17154,26.04733]},"geometry":{"type":"Polygon","coordinates":[[[110.1162,24.46083],[110.13036,24.47239],[110.13805,24.51651],[110.17154,24.54944],[110.16339,24.56558],[110.16377,24.59136],[110.15296,24.61615],[110.15837,24.64322],[110.11011,24.6557],[110.09595,24.64709],[110.06604,24.68489],[110.05713,24.67269],[110.02417,24.65962],[110.01991,24.66915],[109.98901,24.67732],[109.97203,24.69856],[109.95772,24.70013],[109.95262,24.71777],[109.93786,24.71772],[109.9479,24.76126],[109.90543,24.75805],[109.88944,24.76769],[109.89424,24.79043],[109.88914,24.80974],[109.85451,24.80713],[109.82832,24.8259],[109.79217,24.82051],[109.74238,24.8259],[109.7092,24.83433],[109.67426,24.85032],[109.63003,24.83373],[109.61915,24.84031],[109.6241,24.87392],[109.63179,24.87968],[109.62821,24.9154],[109.62113,24.92002],[109.62181,24.98082],[109.64944,24.98413],[109.64495,25.01689],[109.6547,25.0442],[109.65135,25.06456],[109.66429,25.07884],[109.6617,25.09621],[109.63772,25.12063],[109.6534,25.16614],[109.67959,25.17694],[109.7095,25.21137],[109.72488,25.2477],[109.72526,25.26856],[109.74855,25.30064],[109.75137,25.35097],[109.74802,25.38064],[109.76218,25.40398],[109.76842,25.43927],[109.7624,25.44587],[109.7812,25.50458],[109.76986,25.53356],[109.7516,25.54962],[109.73881,25.57287],[109.74071,25.58482],[109.76438,25.61303],[109.78075,25.61455],[109.79414,25.63989],[109.81523,25.65453],[109.78288,25.69342],[109.80488,25.7303],[109.78258,25.74514],[109.77245,25.7744],[109.72762,25.79604],[109.72031,25.80602],[109.73051,25.85279],[109.76476,25.87619],[109.76834,25.89032],[109.70212,25.88229],[109.6805,25.89517],[109.6926,25.90989],[109.67928,25.92304],[109.69032,25.93765],[109.69344,25.95915],[109.71003,25.95409],[109.72967,25.99153],[109.70821,26.01356],[109.69808,25.99891],[109.67548,26.01512],[109.64929,26.01679],[109.64602,26.042],[109.63498,26.04733],[109.58825,26.01976],[109.55978,26.02142],[109.54029,26.00004],[109.51319,25.9981],[109.49645,26.02374],[109.47841,26.02568],[109.47316,26.00656],[109.45435,25.99137],[109.40853,25.96729],[109.42604,25.95516],[109.43434,25.93231],[109.41325,25.90563],[109.39673,25.90029],[109.38866,25.8708],[109.35898,25.83607],[109.33926,25.8338],[109.33416,25.77202],[109.3401,25.73176],[109.31491,25.73316],[109.29664,25.71416],[109.25637,25.71977],[109.23415,25.73635],[109.20697,25.74023],[109.20667,25.78811],[109.18277,25.76328],[109.15925,25.75907],[109.14493,25.74439],[109.1323,25.76296],[109.14387,25.77721],[109.14356,25.79528],[109.11799,25.80937],[109.09477,25.8023],[109.07788,25.77677],[109.04933,25.79027],[109.01675,25.79091],[109.0118,25.77953],[108.98965,25.77893],[108.97961,25.74531],[108.94025,25.74007],[108.89626,25.71416],[108.90037,25.68235],[108.92937,25.68418],[108.94817,25.67662],[108.97458,25.70044],[108.98387,25.72058],[109.0032,25.73635],[109.03053,25.72274],[109.04286,25.7377],[109.07909,25.72069],[109.07521,25.69385],[109.05748,25.67981],[109.04301,25.65696],[109.04248,25.60892],[109.05222,25.56682],[109.08853,25.54952],[109.04415,25.52799],[109.02513,25.51247],[108.95243,25.55638],[108.93173,25.55638],[108.89748,25.54086],[108.86733,25.55855],[108.85599,25.54865],[108.83034,25.54681],[108.81268,25.52637],[108.79807,25.5467],[108.78132,25.55433],[108.79913,25.57601],[108.78444,25.60601],[108.78406,25.62827],[108.76199,25.63778],[108.72339,25.63448],[108.71449,25.62346],[108.68899,25.62319],[108.68381,25.58612],[108.66098,25.58482],[108.66592,25.56233],[108.65824,25.55184],[108.68731,25.53524],[108.69043,25.51891],[108.65458,25.53005],[108.63289,25.51891],[108.59886,25.4548],[108.60031,25.43245],[108.58768,25.42141],[108.59529,25.40766],[108.61386,25.40723],[108.62391,25.37729],[108.61538,25.36575],[108.63007,25.33591],[108.6252,25.30812],[108.64514,25.2936],[108.64796,25.25122],[108.65512,25.21495],[108.6657,25.20373],[108.71814,25.17737],[108.69455,25.16365],[108.67475,25.1165],[108.69987,25.10174],[108.73116,25.09604],[108.76229,25.12133],[108.82303,25.12746],[108.84518,25.1554],[108.86299,25.14081],[108.89907,25.15274],[108.90288,25.12985],[108.93074,25.13066],[108.94817,25.12117],[108.97572,25.13804],[108.98592,25.17021],[109.0134,25.16875],[109.05222,25.20243],[109.09226,25.15822],[109.10505,25.10375],[109.09835,25.07265],[109.08389,25.05169],[109.0832,25.03464],[109.06676,25.01042],[109.03304,24.98973],[108.99064,24.95757],[108.98646,24.94116],[108.99422,24.9211],[109.0322,24.91279],[109.07666,24.91784],[109.10063,24.92817],[109.10033,24.94469],[109.11845,24.94757],[109.15788,24.90942],[109.13938,24.89306],[109.13725,24.8358],[109.15803,24.82465],[109.13184,24.7913],[109.09751,24.80675],[109.09416,24.82481],[109.07757,24.83047],[109.03807,24.82231],[109.01378,24.7864],[108.99757,24.77753],[108.96469,24.7316],[108.93584,24.73029],[108.93165,24.71571],[108.95099,24.69709],[108.95281,24.6838],[108.97017,24.66621],[108.95152,24.64055],[108.92716,24.63663],[108.89991,24.61402],[108.90882,24.58661],[108.87601,24.57152],[108.85211,24.5713],[108.83803,24.53821],[108.86421,24.52191],[108.88408,24.52802],[108.89222,24.50135],[108.91255,24.49852],[108.93706,24.4749],[108.96103,24.47468],[108.98311,24.4857],[109.03297,24.48439],[109.04667,24.46099],[109.0424,24.43704],[109.00922,24.4294],[109.00084,24.42051],[109.00541,24.39857],[108.99925,24.37439],[108.97778,24.38902],[108.93257,24.37515],[108.92054,24.36183],[108.92853,24.34043],[108.92054,24.31542],[108.91689,24.255],[108.94086,24.24341],[108.94474,24.22811],[108.93043,24.21702],[108.93515,24.1852],[108.95807,24.16186],[108.97215,24.12976],[109.00404,24.1314],[109.03647,24.12177],[109.05093,24.10536],[109.07673,24.09874],[109.10589,24.08391],[109.08937,24.06307],[109.11472,24.05743],[109.12568,24.06454],[109.14242,24.04681],[109.15529,24.0218],[109.17226,24.02826],[109.18398,24.01649],[109.21146,24.01901],[109.22197,24.03203],[109.21786,24.05174],[109.23224,24.05863],[109.2786,24.04725],[109.29504,24.0276],[109.29139,24.00685],[109.3248,23.98775],[109.32884,23.96097],[109.34817,23.95297],[109.35928,23.91222],[109.3841,23.91518],[109.42855,23.9086],[109.45123,23.93983],[109.49523,23.97055],[109.50299,23.99032],[109.48731,24.01118],[109.50117,24.04769],[109.54905,24.06394],[109.58193,24.07084],[109.59814,24.08391],[109.61527,24.14086],[109.64366,24.15026],[109.65904,24.14529],[109.68415,24.15508],[109.70547,24.15333],[109.71026,24.17689],[109.74581,24.21428],[109.76202,24.21199],[109.79376,24.23429],[109.80313,24.25615],[109.82025,24.25265],[109.85154,24.26041],[109.84963,24.275],[109.88008,24.27631],[109.90269,24.301],[109.92705,24.29373],[109.93291,24.27183],[109.90551,24.27226],[109.90771,24.24527],[109.93184,24.23489],[109.97599,24.2615],[109.99883,24.25505],[110.03323,24.27303],[110.0308,24.31848],[110.01717,24.3365],[110.03445,24.34403],[110.04868,24.36658],[110.04564,24.39054],[110.05584,24.41941],[110.07213,24.43906],[110.06893,24.45733],[110.07905,24.46743],[110.1162,24.46083]]]}},{"type":"Feature","id":"datav:450300","properties":{"boundaryId":"datav:450300","nodeId":"geo:cn-gx-kwl","parentNodeId":"geo:cn-gx","bounds":[109.61915,24.26183,111.48625,26.38557]},"geometry":{"type":"Polygon","coordinates":[[[111.09744,24.94089],[111.05024,24.92828],[111.03038,24.93197],[111.00343,24.92148],[110.98729,24.94252],[110.99209,24.95903],[110.97344,24.96827],[110.97542,24.98777],[110.96073,25.00152],[110.9519,25.04116],[110.96141,25.07786],[110.98394,25.10169],[110.9828,25.12665],[111.00275,25.16576],[111.06547,25.18751],[111.07787,25.20107],[111.11274,25.21707],[111.11784,25.23929],[111.1033,25.28509],[111.13846,25.30357],[111.18185,25.36657],[111.21055,25.36353],[111.25751,25.39597],[111.26589,25.42541],[111.27898,25.4233],[111.30021,25.44831],[111.3009,25.46974],[111.32145,25.49614],[111.32815,25.52145],[111.32488,25.56411],[111.34315,25.60276],[111.31003,25.64497],[111.31392,25.68267],[111.30752,25.71632],[111.32731,25.73273],[111.3468,25.72965],[111.39962,25.74461],[111.41607,25.76819],[111.44225,25.77807],[111.43609,25.81357],[111.42505,25.82625],[111.43327,25.84626],[111.45687,25.8481],[111.48625,25.85932],[111.4542,25.88843],[111.38257,25.88229],[111.37846,25.90477],[111.35502,25.89215],[111.34627,25.90633],[111.30531,25.88369],[111.29192,25.85441],[111.25158,25.86471],[111.23224,25.91108],[111.20651,25.93964],[111.19609,25.96088],[111.21534,26.01178],[111.23681,26.04883],[111.25295,26.05669],[111.24465,26.07796],[111.26596,26.09604],[111.26863,26.1293],[111.25805,26.14932],[111.27441,26.18455],[111.26649,26.19138],[111.27167,26.21719],[111.29146,26.22079],[111.29572,26.23756],[111.28126,26.2711],[111.24054,26.26707],[111.21283,26.26911],[111.20332,26.28067],[111.20476,26.30785],[111.16891,26.31049],[111.09256,26.30673],[111.0794,26.31822],[111.04035,26.32349],[111.02254,26.33794],[111.00259,26.34014],[111.00861,26.35888],[110.99186,26.36355],[110.97458,26.38557],[110.94482,26.37359],[110.94391,26.32671],[110.92541,26.31876],[110.93972,26.28669],[110.93036,26.26433],[110.91635,26.27599],[110.85561,26.26815],[110.8343,26.25589],[110.81466,26.25879],[110.75818,26.25519],[110.73519,26.27099],[110.75003,26.2905],[110.74174,26.31393],[110.72096,26.29421],[110.69782,26.30871],[110.66722,26.31763],[110.64377,26.30845],[110.62581,26.31564],[110.61234,26.33364],[110.59506,26.31838],[110.5841,26.29695],[110.55525,26.28636],[110.54611,26.25729],[110.54665,26.23359],[110.51757,26.18681],[110.49055,26.16556],[110.47411,26.18014],[110.43795,26.15394],[110.42714,26.13802],[110.37713,26.09443],[110.37317,26.07855],[110.35331,26.0547],[110.35795,26.04647],[110.32552,25.97564],[110.30512,25.96734],[110.26174,25.96136],[110.24583,25.96858],[110.25108,25.99659],[110.24522,26.02229],[110.21211,26.04307],[110.20115,26.06617],[110.18166,26.06046],[110.16583,26.02385],[110.14048,26.02035],[110.11255,26.03478],[110.10098,26.02019],[110.0649,26.05002],[110.07441,26.08307],[110.10098,26.13258],[110.09443,26.14711],[110.09869,26.16917],[110.084,26.17148],[110.03019,26.1661],[110.01671,26.18422],[109.98436,26.17992],[109.96625,26.19552],[109.93123,26.16126],[109.90718,26.1449],[109.89904,26.09518],[109.88815,26.08797],[109.87087,26.03333],[109.85626,26.02627],[109.81462,26.04097],[109.80199,26.0344],[109.78242,25.99719],[109.78463,25.98577],[109.80648,25.97365],[109.81043,25.94568],[109.82596,25.9114],[109.81325,25.87981],[109.77953,25.86595],[109.76476,25.87619],[109.73051,25.85279],[109.72031,25.80602],[109.72762,25.79604],[109.77245,25.7744],[109.78258,25.74514],[109.80488,25.7303],[109.78288,25.69342],[109.81523,25.65453],[109.79414,25.63989],[109.78075,25.61455],[109.76438,25.61303],[109.74071,25.58482],[109.73881,25.57287],[109.7516,25.54962],[109.76986,25.53356],[109.7812,25.50458],[109.7624,25.44587],[109.76842,25.43927],[109.76218,25.40398],[109.74802,25.38064],[109.75137,25.35097],[109.74855,25.30064],[109.72526,25.26856],[109.72488,25.2477],[109.7095,25.21137],[109.67959,25.17694],[109.6534,25.16614],[109.63772,25.12063],[109.6617,25.09621],[109.66429,25.07884],[109.65135,25.06456],[109.6547,25.0442],[109.64495,25.01689],[109.64944,24.98413],[109.62181,24.98082],[109.62113,24.92002],[109.62821,24.9154],[109.63179,24.87968],[109.6241,24.87392],[109.61915,24.84031],[109.63003,24.83373],[109.67426,24.85032],[109.7092,24.83433],[109.74238,24.8259],[109.79217,24.82051],[109.82832,24.8259],[109.85451,24.80713],[109.88914,24.80974],[109.89424,24.79043],[109.88944,24.76769],[109.90543,24.75805],[109.9479,24.76126],[109.93786,24.71772],[109.95262,24.71777],[109.95772,24.70013],[109.97203,24.69856],[109.98901,24.67732],[110.01991,24.66915],[110.02417,24.65962],[110.05713,24.67269],[110.06604,24.68489],[110.09595,24.64709],[110.11011,24.6557],[110.15837,24.64322],[110.15296,24.61615],[110.16377,24.59136],[110.16339,24.56558],[110.17154,24.54944],[110.13805,24.51651],[110.13036,24.47239],[110.1162,24.46083],[110.14741,24.436],[110.18714,24.44762],[110.21188,24.39993],[110.18882,24.38257],[110.20061,24.37089],[110.19871,24.34791],[110.22056,24.34627],[110.26037,24.36025],[110.26014,24.3223],[110.28899,24.29991],[110.31692,24.29641],[110.33938,24.30072],[110.37363,24.32361],[110.39875,24.32181],[110.44404,24.32945],[110.45523,24.31361],[110.48415,24.32153],[110.46771,24.35037],[110.50638,24.34578],[110.50745,24.36025],[110.53896,24.40151],[110.5519,24.40495],[110.55213,24.3716],[110.5675,24.36265],[110.59818,24.39644],[110.62155,24.39415],[110.64035,24.38279],[110.65641,24.36068],[110.72712,24.32803],[110.75407,24.32918],[110.79129,24.31629],[110.79799,24.33262],[110.79083,24.34682],[110.81116,24.38252],[110.84374,24.38634],[110.85675,24.36189],[110.855,24.32896],[110.87677,24.31067],[110.87997,24.27101],[110.88887,24.26183],[110.93226,24.30963],[110.93401,24.32437],[110.95022,24.33355],[110.96042,24.29805],[110.97732,24.29483],[111.00412,24.31001],[111.01782,24.35331],[110.97504,24.36112],[110.99247,24.37657],[110.99582,24.39507],[111.01888,24.41958],[111.02611,24.4467],[111.04065,24.46268],[111.02589,24.48324],[111.044,24.49895],[111.02018,24.51924],[111.01142,24.54279],[110.98273,24.56966],[110.98341,24.58596],[111.00252,24.60678],[110.98927,24.62116],[111.00975,24.63462],[111.02063,24.66964],[111.02969,24.6759],[111.05877,24.67291],[111.0794,24.70378],[111.10657,24.70759],[111.10802,24.7322],[111.13245,24.73574],[111.14737,24.7679],[111.17005,24.77672],[111.16153,24.83732],[111.16944,24.86261],[111.1645,24.89844],[111.13831,24.89148],[111.11715,24.8955],[111.10596,24.90811],[111.09744,24.94089]]]}},{"type":"Feature","id":"datav:450400","properties":{"boundaryId":"datav:450400","nodeId":"geo:cn-gx-wuz","parentNodeId":"geo:cn-gx","bounds":[110.31692,22.60811,111.6668,24.40495]},"geometry":{"type":"Polygon","coordinates":[[[110.3919,24.04216],[110.39822,24.0172],[110.38931,23.99744],[110.39662,23.96502],[110.38825,23.94645],[110.3594,23.93188],[110.35255,23.91287],[110.35719,23.89129],[110.3989,23.87857],[110.41161,23.86317],[110.44381,23.86416],[110.45972,23.84826],[110.47571,23.85364],[110.49306,23.84136],[110.48499,23.82859],[110.49961,23.80484],[110.53317,23.80325],[110.55007,23.82606],[110.56994,23.80983],[110.58219,23.7834],[110.5554,23.74841],[110.54825,23.71736],[110.55198,23.70282],[110.57207,23.69821],[110.54809,23.64617],[110.57671,23.63431],[110.58806,23.62064],[110.58676,23.6],[110.60526,23.57709],[110.60183,23.56138],[110.61439,23.54089],[110.61964,23.50028],[110.63076,23.48324],[110.62216,23.46037],[110.59392,23.45246],[110.57336,23.39048],[110.58889,23.35313],[110.59049,23.32314],[110.61531,23.32902],[110.65062,23.31505],[110.65923,23.29413],[110.65222,23.25653],[110.63121,23.24144],[110.62414,23.22564],[110.6029,23.21429],[110.57283,23.22503],[110.55015,23.20818],[110.54383,23.19126],[110.55388,23.16295],[110.54741,23.1263],[110.55921,23.10877],[110.6029,23.10365],[110.61203,23.12178],[110.65976,23.11627],[110.66798,23.08915],[110.68693,23.06351],[110.71061,23.05932],[110.71144,23.04228],[110.74531,23.03748],[110.75825,23.02104],[110.74996,22.98999],[110.75414,22.9699],[110.72606,22.92327],[110.73329,22.91179],[110.72842,22.88716],[110.75224,22.85216],[110.76884,22.8463],[110.7868,22.86088],[110.80187,22.8463],[110.77196,22.76509],[110.79038,22.74177],[110.79144,22.72176],[110.83072,22.70656],[110.85394,22.70357],[110.88804,22.64169],[110.88332,22.62216],[110.89588,22.61353],[110.94132,22.60811],[110.95768,22.61674],[110.95898,22.63655],[110.97732,22.64152],[110.99711,22.6314],[111.02444,22.65137],[111.05557,22.64849],[111.08914,22.68903],[111.0832,22.70871],[111.06394,22.71988],[111.09919,22.74177],[111.12925,22.73884],[111.2021,22.7405],[111.21846,22.74807],[111.23902,22.76879],[111.24115,22.78128],[111.27213,22.79067],[111.27281,22.79885],[111.31962,22.85122],[111.35875,22.88921],[111.36195,22.90997],[111.3755,22.92653],[111.36393,22.9688],[111.39719,22.98127],[111.38958,23.0056],[111.41401,23.01614],[111.43395,23.03621],[111.42718,23.06064],[111.40206,23.06621],[111.37428,23.09257],[111.37999,23.12316],[111.37656,23.14201],[111.39871,23.15986],[111.38433,23.16763],[111.38889,23.21021],[111.36575,23.23692],[111.37199,23.26429],[111.34962,23.27277],[111.35342,23.28896],[111.37656,23.30464],[111.36195,23.33029],[111.37801,23.36958],[111.39209,23.39114],[111.38349,23.39967],[111.40001,23.45685],[111.39978,23.46939],[111.42893,23.46659],[111.48023,23.53259],[111.48906,23.56138],[111.48708,23.62663],[111.56427,23.63322],[111.58429,23.64469],[111.61565,23.63898],[111.61481,23.65874],[111.6432,23.69612],[111.66528,23.69996],[111.6668,23.71895],[111.62166,23.72597],[111.62935,23.7364],[111.62805,23.78861],[111.64115,23.797],[111.65485,23.8333],[111.65142,23.86093],[111.65903,23.87265],[111.6499,23.90301],[111.64929,23.94519],[111.62334,23.97208],[111.60613,23.9734],[111.57698,24.00067],[111.56107,23.99344],[111.54851,24.00625],[111.53534,24.04342],[111.53968,24.05699],[111.58421,24.08867],[111.57333,24.10766],[111.57523,24.14337],[111.55255,24.14015],[111.51274,24.16738],[111.49302,24.15196],[111.48008,24.11357],[111.4864,24.09655],[111.46813,24.0843],[111.44811,24.0907],[111.42482,24.07489],[111.39658,24.07538],[111.40313,24.04172],[111.39087,24.01917],[111.40716,23.99744],[111.41256,23.9504],[111.4032,23.92367],[111.36514,23.88252],[111.34878,23.87233],[111.3041,23.86926],[111.28697,23.88405],[111.24617,23.88301],[111.23354,23.88844],[111.2276,23.91934],[111.20766,23.94163],[111.16122,23.94415],[111.1514,23.93785],[111.13291,23.88855],[111.10528,23.87803],[111.10155,23.8544],[111.0813,23.82831],[111.05961,23.82864],[111.0373,23.80545],[111.01782,23.81488],[111.01576,23.79141],[111.02573,23.77808],[111.01432,23.75916],[110.98897,23.76887],[110.9793,23.763],[110.9761,23.73179],[110.95738,23.72109],[110.95707,23.68827],[110.96811,23.66303],[110.9433,23.66967],[110.93051,23.65995],[110.91407,23.68487],[110.89207,23.70391],[110.89717,23.75247],[110.88408,23.77063],[110.89595,23.78593],[110.88073,23.8202],[110.8582,23.80797],[110.84023,23.83703],[110.8668,23.85402],[110.87274,23.8732],[110.8569,23.89441],[110.81831,23.90827],[110.79289,23.94103],[110.7798,23.9487],[110.75239,23.9476],[110.71776,23.95555],[110.74539,24.02202],[110.69005,24.03866],[110.67696,24.05902],[110.6899,24.09956],[110.6864,24.12084],[110.70132,24.14769],[110.72012,24.16771],[110.71258,24.18116],[110.68937,24.18777],[110.67338,24.21193],[110.62665,24.23085],[110.60374,24.27576],[110.61348,24.29854],[110.60198,24.32454],[110.58638,24.32055],[110.57078,24.333],[110.57687,24.35151],[110.5675,24.36265],[110.55213,24.3716],[110.5519,24.40495],[110.53896,24.40151],[110.50745,24.36025],[110.50638,24.34578],[110.46771,24.35037],[110.48415,24.32153],[110.45523,24.31361],[110.44404,24.32945],[110.39875,24.32181],[110.37363,24.32361],[110.33938,24.30072],[110.31692,24.29641],[110.32667,24.26609],[110.35194,24.2786],[110.36556,24.26232],[110.36564,24.22729],[110.38322,24.21401],[110.41336,24.21434],[110.41907,24.20111],[110.45622,24.184],[110.40773,24.14376],[110.45462,24.13845],[110.44792,24.11635],[110.41192,24.11876],[110.3868,24.12631],[110.36473,24.10481],[110.37432,24.08173],[110.35491,24.07713],[110.34341,24.06038],[110.37378,24.04211],[110.3919,24.04216]]]}},{"type":"Feature","id":"datav:450500","properties":{"boundaryId":"datav:450500","nodeId":"geo:cn-gx-bhy","parentNodeId":"geo:cn-gx","bounds":[108.85028,21.01452,109.78836,21.91493]},"geometry":{"type":"MultiPolygon","coordinates":[[[[109.60766,21.90887],[109.59418,21.91337],[109.57675,21.89736],[109.55886,21.89391],[109.54029,21.90209],[109.5237,21.87311],[109.49386,21.88084],[109.48366,21.90131],[109.46844,21.88585],[109.44469,21.89602],[109.4424,21.91476],[109.4185,21.90609],[109.39087,21.90737],[109.36065,21.89263],[109.33995,21.90842],[109.32541,21.89897],[109.29055,21.91493],[109.26779,21.90309],[109.26132,21.87389],[109.23156,21.8522],[109.15407,21.8507],[109.13314,21.84769],[109.11388,21.87128],[109.09462,21.87167],[109.08457,21.85187],[109.06121,21.83707],[109.03593,21.84319],[108.98022,21.83117],[108.96819,21.80708],[108.93866,21.76334],[108.89862,21.74269],[108.8668,21.74297],[108.8547,21.72454],[108.85028,21.6869],[108.85835,21.66056],[108.88141,21.62724],[108.90166,21.6044],[108.93812,21.58969],[108.99148,21.58818],[109.09226,21.57994],[109.10688,21.56606],[109.12355,21.57158],[109.14273,21.56439],[109.15201,21.54075],[109.14212,21.51204],[109.12454,21.50122],[109.07437,21.48951],[109.05793,21.48076],[109.03807,21.45192],[109.04667,21.42448],[109.06471,21.42693],[109.09477,21.4194],[109.13885,21.38899],[109.16267,21.38592],[109.18619,21.39094],[109.23072,21.4098],[109.24579,21.42571],[109.27905,21.42732],[109.31711,21.43502],[109.41713,21.43882],[109.44849,21.44266],[109.48518,21.45343],[109.52986,21.43697],[109.54478,21.44361],[109.54105,21.46609],[109.56663,21.47752],[109.60454,21.52347],[109.6123,21.55692],[109.63361,21.54025],[109.65493,21.49347],[109.66383,21.48344],[109.70417,21.46263],[109.73995,21.45583],[109.78562,21.45694],[109.78836,21.49046],[109.7742,21.50764],[109.77291,21.53128],[109.75479,21.55636],[109.75449,21.58261],[109.74383,21.60106],[109.76621,21.6669],[109.74863,21.65276],[109.7159,21.66991],[109.69649,21.66768],[109.68903,21.68617],[109.69656,21.70227],[109.69032,21.72938],[109.70813,21.80029],[109.69238,21.82316],[109.70752,21.83618],[109.69534,21.86115],[109.70516,21.87256],[109.69702,21.90236],[109.66375,21.89536],[109.64145,21.9082],[109.61976,21.89597],[109.60766,21.90887]]],[[[109.08853,21.01475],[109.10779,21.02588],[109.12811,21.01452],[109.14455,21.04126],[109.139,21.06733],[109.11822,21.07023],[109.09241,21.05743],[109.08579,21.04328],[109.08853,21.01475]]]]}},{"type":"Feature","id":"datav:450600","properties":{"boundaryId":"datav:450600","nodeId":"geo:cn-gx-fan","parentNodeId":"geo:cn-gx","bounds":[107.48153,21.49102,108.59704,22.37167]},"geometry":{"type":"Polygon","coordinates":[[[108.09588,22.37167],[108.06627,22.35083],[108.04663,22.35471],[108.03049,22.33315],[108.00674,22.33542],[107.97957,22.31036],[107.98551,22.29689],[107.96107,22.28596],[107.91061,22.22822],[107.9116,22.21019],[107.88336,22.21924],[107.87415,22.21102],[107.82117,22.21724],[107.80115,22.20953],[107.73942,22.19976],[107.728,22.18672],[107.706,22.1916],[107.65972,22.18001],[107.62828,22.18167],[107.64275,22.14121],[107.66094,22.124],[107.65767,22.09807],[107.6786,22.08191],[107.65713,22.06447],[107.65348,22.04131],[107.63247,22.03686],[107.61611,22.00481],[107.5798,21.9753],[107.57234,21.95212],[107.58261,21.93878],[107.55437,21.91754],[107.54296,21.88807],[107.56838,21.86277],[107.57158,21.84641],[107.5578,21.81559],[107.56754,21.7841],[107.55323,21.75916],[107.55727,21.72454],[107.49843,21.67398],[107.48153,21.65554],[107.49013,21.62713],[107.5084,21.59443],[107.54737,21.58674],[107.56389,21.61025],[107.58452,21.61476],[107.60332,21.59771],[107.65493,21.60635],[107.66513,21.61259],[107.6926,21.60902],[107.7468,21.63699],[107.77519,21.64178],[107.78912,21.65265],[107.83129,21.65036],[107.83723,21.64112],[107.86113,21.65203],[107.89188,21.6229],[107.9033,21.58947],[107.92895,21.5859],[107.94592,21.56271],[107.95612,21.53601],[108.03064,21.54599],[108.04899,21.54014],[108.06003,21.52609],[108.10828,21.50831],[108.13363,21.50502],[108.18615,21.51555],[108.19529,21.53228],[108.15616,21.55084],[108.157,21.56439],[108.17961,21.57113],[108.20533,21.59777],[108.22368,21.60395],[108.24667,21.59365],[108.25017,21.56138],[108.23449,21.53256],[108.21051,21.50574],[108.23,21.49102],[108.2813,21.52297],[108.33854,21.5412],[108.39753,21.53312],[108.45325,21.53997],[108.4926,21.5548],[108.49725,21.57147],[108.51993,21.583],[108.53736,21.61655],[108.56796,21.65443],[108.59171,21.67721],[108.59704,21.69146],[108.58524,21.708],[108.54459,21.72927],[108.52769,21.71608],[108.50699,21.72571],[108.50684,21.75905],[108.51696,21.77965],[108.51399,21.80814],[108.46718,21.85175],[108.46916,21.88774],[108.45729,21.90681],[108.43011,21.91721],[108.40476,21.91632],[108.3903,21.92811],[108.35955,21.91821],[108.33755,21.92438],[108.29074,21.91037],[108.26303,21.92205],[108.26235,21.93945],[108.24377,21.94779],[108.23464,21.97107],[108.21569,21.97208],[108.19574,21.99442],[108.20533,22.01653],[108.1994,22.02859],[108.2201,22.05336],[108.19681,22.06908],[108.21622,22.11056],[108.19749,22.11562],[108.18501,22.14138],[108.19308,22.16352],[108.21234,22.17068],[108.23898,22.19521],[108.27985,22.20697],[108.28069,22.22334],[108.24667,22.23921],[108.23464,22.263],[108.23624,22.28252],[108.20671,22.29217],[108.1892,22.27365],[108.1637,22.2899],[108.15053,22.28879],[108.13683,22.30509],[108.13523,22.34146],[108.09588,22.37167]]]}},{"type":"Feature","id":"datav:450700","properties":{"boundaryId":"datav:450700","nodeId":"geo:cn-gx-qzh","parentNodeId":"geo:cn-gx","bounds":[108.18501,21.60245,109.8641,22.68129]},"geometry":{"type":"Polygon","coordinates":[[[109.60766,21.90887],[109.59479,21.91877],[109.60195,21.96846],[109.59053,22.02375],[109.57591,22.04853],[109.57622,22.06547],[109.55574,22.08108],[109.55003,22.12128],[109.55856,22.16552],[109.58908,22.20337],[109.5782,22.23161],[109.5785,22.24925],[109.59327,22.2899],[109.60804,22.30276],[109.64823,22.31762],[109.66231,22.31818],[109.67441,22.33985],[109.69671,22.34368],[109.71003,22.35831],[109.74733,22.34939],[109.78699,22.3291],[109.81508,22.30958],[109.8405,22.31729],[109.84476,22.34756],[109.85885,22.37117],[109.8574,22.38497],[109.82878,22.42447],[109.81371,22.43212],[109.81888,22.45367],[109.85732,22.49769],[109.8641,22.52892],[109.85763,22.55604],[109.84004,22.57198],[109.79346,22.5846],[109.76278,22.58404],[109.74238,22.55565],[109.71787,22.56074],[109.72069,22.57812],[109.6773,22.60396],[109.66292,22.62532],[109.66223,22.66237],[109.62577,22.65275],[109.61123,22.67244],[109.58414,22.68129],[109.56351,22.65601],[109.53428,22.64772],[109.51761,22.63561],[109.49165,22.65214],[109.46417,22.62947],[109.42787,22.63417],[109.40183,22.62764],[109.38691,22.63903],[109.36705,22.6267],[109.35167,22.62808],[109.30684,22.5862],[109.28979,22.55958],[109.29222,22.54325],[109.32138,22.52255],[109.26558,22.48457],[109.25021,22.50993],[109.22874,22.50644],[109.18581,22.54608],[109.16305,22.53777],[109.1734,22.52006],[109.0963,22.51065],[109.07917,22.52227],[109.04583,22.5184],[109.04126,22.50727],[109.00868,22.51425],[108.99559,22.53883],[108.97793,22.54259],[108.96301,22.51845],[108.93142,22.52449],[108.91856,22.51225],[108.87312,22.5122],[108.84221,22.54159],[108.81154,22.52416],[108.78277,22.52715],[108.76731,22.50705],[108.74912,22.50467],[108.73397,22.4864],[108.71061,22.48457],[108.72088,22.4509],[108.69987,22.45018],[108.68884,22.46258],[108.67392,22.43101],[108.65314,22.44663],[108.61789,22.43838],[108.60366,22.414],[108.58387,22.43073],[108.55845,22.41988],[108.54733,22.39622],[108.56857,22.37211],[108.54056,22.34634],[108.54391,22.31474],[108.52815,22.27493],[108.50707,22.27504],[108.49618,22.23826],[108.46825,22.23921],[108.43605,22.2493],[108.42318,22.26722],[108.40986,22.26589],[108.3718,22.24287],[108.35437,22.24636],[108.32172,22.23743],[108.2969,22.21208],[108.27985,22.20697],[108.23898,22.19521],[108.21234,22.17068],[108.19308,22.16352],[108.18501,22.14138],[108.19749,22.11562],[108.21622,22.11056],[108.19681,22.06908],[108.2201,22.05336],[108.1994,22.02859],[108.20533,22.01653],[108.19574,21.99442],[108.21569,21.97208],[108.23464,21.97107],[108.24377,21.94779],[108.26235,21.93945],[108.26303,21.92205],[108.29074,21.91037],[108.33755,21.92438],[108.35955,21.91821],[108.3903,21.92811],[108.40476,21.91632],[108.43011,21.91721],[108.45729,21.90681],[108.46916,21.88774],[108.46718,21.85175],[108.51399,21.80814],[108.51696,21.77965],[108.50684,21.75905],[108.50699,21.72571],[108.52769,21.71608],[108.54459,21.72927],[108.58524,21.708],[108.59704,21.69146],[108.59171,21.67721],[108.62657,21.67999],[108.65923,21.64396],[108.6781,21.65916],[108.70513,21.64245],[108.72674,21.63889],[108.746,21.60245],[108.77432,21.61036],[108.79578,21.62585],[108.81626,21.62485],[108.83331,21.6107],[108.88141,21.62724],[108.85835,21.66056],[108.85028,21.6869],[108.8547,21.72454],[108.8668,21.74297],[108.89862,21.74269],[108.93866,21.76334],[108.96819,21.80708],[108.98022,21.83117],[109.03593,21.84319],[109.06121,21.83707],[109.08457,21.85187],[109.09462,21.87167],[109.11388,21.87128],[109.13314,21.84769],[109.15407,21.8507],[109.23156,21.8522],[109.26132,21.87389],[109.26779,21.90309],[109.29055,21.91493],[109.32541,21.89897],[109.33995,21.90842],[109.36065,21.89263],[109.39087,21.90737],[109.4185,21.90609],[109.4424,21.91476],[109.44469,21.89602],[109.46844,21.88585],[109.48366,21.90131],[109.49386,21.88084],[109.5237,21.87311],[109.54029,21.90209],[109.55886,21.89391],[109.57675,21.89736],[109.59418,21.91337],[109.60766,21.90887]]]}},{"type":"Feature","id":"datav:450800","properties":{"boundaryId":"datav:450800","nodeId":"geo:cn-gx-gug","parentNodeId":"geo:cn-gx","bounds":[109.20705,22.65275,110.65923,24.04216]},"geometry":{"type":"Polygon","coordinates":[[[109.66223,22.66237],[109.69161,22.68914],[109.71369,22.69417],[109.72594,22.72596],[109.74535,22.73724],[109.78326,22.73928],[109.79057,22.75558],[109.76256,22.77598],[109.76613,22.81045],[109.75525,22.83813],[109.78638,22.85558],[109.80039,22.84453],[109.81569,22.85851],[109.8185,22.8854],[109.84454,22.90583],[109.83913,22.9278],[109.82147,22.95859],[109.85108,22.99446],[109.88427,23.01261],[109.8985,23.02606],[109.91654,23.02011],[109.95209,23.0227],[110.00842,22.98513],[110.01519,22.96284],[110.04191,22.95561],[110.05584,22.94143],[110.08446,22.95958],[110.12046,22.88716],[110.13812,22.90019],[110.16469,22.90743],[110.21051,22.90538],[110.23175,22.88832],[110.2322,22.86883],[110.26372,22.86734],[110.26029,22.93894],[110.30071,22.97741],[110.29241,23.01288],[110.31852,23.02353],[110.32819,23.04785],[110.36366,23.04195],[110.39692,23.06097],[110.42075,23.04939],[110.46672,23.07073],[110.49253,23.06594],[110.50181,23.09135],[110.5213,23.11158],[110.54741,23.1263],[110.55388,23.16295],[110.54383,23.19126],[110.55015,23.20818],[110.57283,23.22503],[110.6029,23.21429],[110.62414,23.22564],[110.63121,23.24144],[110.65222,23.25653],[110.65923,23.29413],[110.65062,23.31505],[110.61531,23.32902],[110.59049,23.32314],[110.58889,23.35313],[110.57336,23.39048],[110.59392,23.45246],[110.62216,23.46037],[110.63076,23.48324],[110.61964,23.50028],[110.61439,23.54089],[110.60183,23.56138],[110.60526,23.57709],[110.58676,23.6],[110.58806,23.62064],[110.57671,23.63431],[110.54809,23.64617],[110.57207,23.69821],[110.55198,23.70282],[110.54825,23.71736],[110.5554,23.74841],[110.58219,23.7834],[110.56994,23.80983],[110.55007,23.82606],[110.53317,23.80325],[110.49961,23.80484],[110.48499,23.82859],[110.49306,23.84136],[110.47571,23.85364],[110.45972,23.84826],[110.44381,23.86416],[110.41161,23.86317],[110.3989,23.87857],[110.35719,23.89129],[110.35255,23.91287],[110.3594,23.93188],[110.38825,23.94645],[110.39662,23.96502],[110.38931,23.99744],[110.39822,24.0172],[110.3919,24.04216],[110.36868,24.03313],[110.34334,24.03477],[110.30916,24.01616],[110.30535,23.97592],[110.29553,23.95516],[110.31494,23.90882],[110.29538,23.88203],[110.29949,23.86548],[110.28632,23.85194],[110.26303,23.89556],[110.24119,23.89156],[110.21926,23.9086],[110.20625,23.9029],[110.1997,23.86948],[110.18044,23.86087],[110.1503,23.88093],[110.13234,23.87002],[110.08948,23.82886],[110.0684,23.80134],[110.02806,23.78094],[109.99723,23.77677],[109.98741,23.76871],[109.9718,23.73662],[109.95506,23.72603],[109.94752,23.68816],[109.92849,23.68498],[109.92294,23.665],[109.92766,23.63519],[109.91761,23.59461],[109.90216,23.57786],[109.8934,23.55402],[109.89858,23.51891],[109.89401,23.47566],[109.86813,23.45526],[109.83791,23.47791],[109.79727,23.48594],[109.78181,23.46686],[109.75182,23.45488],[109.74056,23.46752],[109.7146,23.41061],[109.68956,23.40335],[109.67746,23.42166],[109.66147,23.42898],[109.64648,23.42062],[109.63003,23.39235],[109.59616,23.35566],[109.57843,23.3512],[109.55392,23.30806],[109.53968,23.3064],[109.50178,23.33651],[109.50322,23.34685],[109.48358,23.36809],[109.48297,23.38388],[109.44811,23.38063],[109.42931,23.35989],[109.40107,23.38278],[109.38044,23.37783],[109.37382,23.40099],[109.35274,23.41671],[109.32336,23.41638],[109.29626,23.38179],[109.27616,23.37436],[109.26581,23.34685],[109.25013,23.35225],[109.21085,23.33227],[109.20705,23.30993],[109.21702,23.29683],[109.24016,23.28516],[109.22661,23.26991],[109.23186,23.23637],[109.2534,23.22922],[109.2601,23.21076],[109.24807,23.18945],[109.24556,23.14614],[109.25599,23.10965],[109.25416,23.09549],[109.28705,23.10166],[109.30897,23.09201],[109.32572,23.09576],[109.34946,23.06401],[109.3334,23.03516],[109.31179,23.01691],[109.35654,22.97961],[109.36149,22.96036],[109.37748,22.94789],[109.38455,22.92945],[109.40952,22.92658],[109.42962,22.91295],[109.48214,22.89153],[109.48518,22.87866],[109.45276,22.86613],[109.45527,22.84984],[109.47171,22.84426],[109.481,22.82355],[109.52073,22.8283],[109.53504,22.8152],[109.51715,22.80543],[109.50581,22.77189],[109.5594,22.77283],[109.57637,22.75962],[109.57812,22.73513],[109.61892,22.68687],[109.61123,22.67244],[109.62577,22.65275],[109.66223,22.66237]]]}},{"type":"Feature","id":"datav:450900","properties":{"boundaryId":"datav:450900","nodeId":"geo:cn-gx-yul","parentNodeId":"geo:cn-gx","bounds":[109.55003,21.62891,110.89793,23.1263]},"geometry":{"type":"Polygon","coordinates":[[[109.66223,22.66237],[109.66292,22.62532],[109.6773,22.60396],[109.72069,22.57812],[109.71787,22.56074],[109.74238,22.55565],[109.76278,22.58404],[109.79346,22.5846],[109.84004,22.57198],[109.85763,22.55604],[109.8641,22.52892],[109.85732,22.49769],[109.81888,22.45367],[109.81371,22.43212],[109.82878,22.42447],[109.8574,22.38497],[109.85885,22.37117],[109.84476,22.34756],[109.8405,22.31729],[109.81508,22.30958],[109.78699,22.3291],[109.74733,22.34939],[109.71003,22.35831],[109.69671,22.34368],[109.67441,22.33985],[109.66231,22.31818],[109.64823,22.31762],[109.60804,22.30276],[109.59327,22.2899],[109.5785,22.24925],[109.5782,22.23161],[109.58908,22.20337],[109.55856,22.16552],[109.55003,22.12128],[109.55574,22.08108],[109.57622,22.06547],[109.57591,22.04853],[109.59053,22.02375],[109.60195,21.96846],[109.59479,21.91877],[109.60766,21.90887],[109.61976,21.89597],[109.64145,21.9082],[109.66375,21.89536],[109.69702,21.90236],[109.70516,21.87256],[109.69534,21.86115],[109.70752,21.83618],[109.69238,21.82316],[109.70813,21.80029],[109.69032,21.72938],[109.69656,21.70227],[109.68903,21.68617],[109.69649,21.66768],[109.7159,21.66991],[109.74863,21.65276],[109.76621,21.6669],[109.77786,21.67053],[109.78471,21.63816],[109.80724,21.62891],[109.82003,21.63783],[109.84461,21.63833],[109.8641,21.64685],[109.89835,21.64964],[109.91578,21.6688],[109.90551,21.69375],[109.9256,21.70739],[109.92263,21.72749],[109.9409,21.73913],[109.93626,21.81281],[109.94676,21.82433],[109.94547,21.84424],[109.98147,21.87133],[110.00499,21.88018],[110.0381,21.87],[110.05432,21.85682],[110.08202,21.86449],[110.09207,21.88373],[110.10722,21.88257],[110.11985,21.9017],[110.16111,21.89424],[110.19666,21.89975],[110.23243,21.87884],[110.25816,21.88045],[110.28374,21.89224],[110.29036,21.91799],[110.33732,21.88785],[110.39167,21.89369],[110.39738,21.90642],[110.38551,21.92994],[110.39129,21.95012],[110.37675,21.96774],[110.353,21.97641],[110.35917,21.98808],[110.34988,22.03131],[110.3581,22.08535],[110.36571,22.09874],[110.36457,22.12528],[110.32659,22.15231],[110.34851,22.19582],[110.35856,22.17945],[110.38109,22.16419],[110.39106,22.17928],[110.4308,22.2062],[110.45348,22.19216],[110.46025,22.17856],[110.50387,22.14298],[110.52313,22.15076],[110.52929,22.16441],[110.56035,22.19643],[110.60244,22.18334],[110.59848,22.16341],[110.62908,22.14909],[110.67886,22.17268],[110.66471,22.20337],[110.64689,22.22301],[110.65481,22.23993],[110.68602,22.24858],[110.69546,22.27232],[110.71099,22.27626],[110.7253,22.29561],[110.75871,22.27471],[110.78452,22.28081],[110.78558,22.29461],[110.76046,22.32478],[110.74128,22.36203],[110.71152,22.36962],[110.71335,22.43749],[110.69355,22.44829],[110.68351,22.47338],[110.7259,22.4612],[110.74775,22.4761],[110.74044,22.49886],[110.75049,22.51707],[110.7645,22.56595],[110.77865,22.58537],[110.79357,22.57137],[110.83323,22.58493],[110.86124,22.58775],[110.88727,22.58354],[110.89793,22.59201],[110.89588,22.61353],[110.88332,22.62216],[110.88804,22.64169],[110.85394,22.70357],[110.83072,22.70656],[110.79144,22.72176],[110.79038,22.74177],[110.77196,22.76509],[110.80187,22.8463],[110.7868,22.86088],[110.76884,22.8463],[110.75224,22.85216],[110.72842,22.88716],[110.73329,22.91179],[110.72606,22.92327],[110.75414,22.9699],[110.74996,22.98999],[110.75825,23.02104],[110.74531,23.03748],[110.71144,23.04228],[110.71061,23.05932],[110.68693,23.06351],[110.66798,23.08915],[110.65976,23.11627],[110.61203,23.12178],[110.6029,23.10365],[110.55921,23.10877],[110.54741,23.1263],[110.5213,23.11158],[110.50181,23.09135],[110.49253,23.06594],[110.46672,23.07073],[110.42075,23.04939],[110.39692,23.06097],[110.36366,23.04195],[110.32819,23.04785],[110.31852,23.02353],[110.29241,23.01288],[110.30071,22.97741],[110.26029,22.93894],[110.26372,22.86734],[110.2322,22.86883],[110.23175,22.88832],[110.21051,22.90538],[110.16469,22.90743],[110.13812,22.90019],[110.12046,22.88716],[110.08446,22.95958],[110.05584,22.94143],[110.04191,22.95561],[110.01519,22.96284],[110.00842,22.98513],[109.95209,23.0227],[109.91654,23.02011],[109.8985,23.02606],[109.88427,23.01261],[109.85108,22.99446],[109.82147,22.95859],[109.83913,22.9278],[109.84454,22.90583],[109.8185,22.8854],[109.81569,22.85851],[109.80039,22.84453],[109.78638,22.85558],[109.75525,22.83813],[109.76613,22.81045],[109.76256,22.77598],[109.79057,22.75558],[109.78326,22.73928],[109.74535,22.73724],[109.72594,22.72596],[109.71369,22.69417],[109.69161,22.68914],[109.66223,22.66237]]]}},{"type":"Feature","id":"datav:451000","properties":{"boundaryId":"datav:451000","nodeId":"geo:cn-gx-bss","parentNodeId":"geo:cn-gx","bounds":[104.48606,22.85806,107.88366,25.0993]},"geometry":{"type":"MultiPolygon","coordinates":[[[[106.57116,25.0835],[106.53188,25.0733],[106.51597,25.05186],[106.46353,25.04029],[106.44526,25.02232],[106.3887,25.00537],[106.35369,24.99022],[106.33253,24.98848],[106.30497,24.97403],[106.27856,24.9793],[106.24218,24.97207],[106.21538,24.98185],[106.19163,24.95338],[106.15304,24.96099],[106.14992,24.94442],[106.1975,24.88577],[106.2061,24.85108],[106.19849,24.81703],[106.17283,24.76023],[106.14992,24.76284],[106.13356,24.7298],[106.11361,24.71407],[106.06581,24.69725],[106.04709,24.68407],[106.03925,24.65559],[106.02319,24.63238],[105.98908,24.65085],[105.98825,24.65864],[105.95308,24.6881],[105.94197,24.7248],[105.89226,24.72278],[105.8641,24.72948],[105.85611,24.7169],[105.82756,24.70297],[105.80549,24.70155],[105.76629,24.72033],[105.75898,24.73492],[105.73774,24.74243],[105.7057,24.7685],[105.6783,24.77558],[105.65036,24.7722],[105.61436,24.78559],[105.60766,24.8037],[105.59061,24.80757],[105.57287,24.79729],[105.5234,24.80158],[105.49752,24.80931],[105.4928,24.83335],[105.47095,24.85266],[105.45664,24.87789],[105.44728,24.91491],[105.42817,24.93072],[105.39186,24.94165],[105.3656,24.94349],[105.33401,24.92638],[105.30882,24.92393],[105.26551,24.93018],[105.26399,24.95621],[105.21268,24.99538],[105.1785,24.98544],[105.15727,24.95887],[105.13253,24.96137],[105.09592,24.92866],[105.09622,24.92811],[105.08199,24.91561],[105.07795,24.91833],[105.07042,24.89501],[105.03883,24.87299],[105.03776,24.83406],[105.0268,24.81556],[105.03335,24.78782],[104.9825,24.77046],[104.89938,24.75294],[104.86627,24.73062],[104.86048,24.7015],[104.84191,24.67618],[104.76427,24.65706],[104.75133,24.64715],[104.74334,24.62225],[104.72948,24.61822],[104.69896,24.63276],[104.69797,24.64943],[104.62878,24.6612],[104.59978,24.696],[104.59399,24.71026],[104.57436,24.71407],[104.55852,24.72779],[104.52024,24.72714],[104.49778,24.66566],[104.48606,24.64497],[104.50555,24.62666],[104.50273,24.59076],[104.51552,24.56421],[104.52092,24.5351],[104.53478,24.53499],[104.54992,24.51891],[104.54726,24.48892],[104.56659,24.47315],[104.57641,24.42356],[104.6163,24.42176],[104.62985,24.39786],[104.61097,24.37712],[104.64164,24.36784],[104.66083,24.35566],[104.68374,24.33065],[104.70901,24.32131],[104.72111,24.33999],[104.70376,24.42138],[104.71731,24.44277],[104.75285,24.43595],[104.76526,24.45946],[104.78497,24.4438],[104.83666,24.44664],[104.91392,24.42629],[104.9299,24.41085],[104.97999,24.41287],[105.00328,24.43191],[105.04286,24.44184],[105.10901,24.41232],[105.10292,24.38225],[105.11677,24.3716],[105.14463,24.37559],[105.18787,24.34709],[105.19677,24.32699],[105.18056,24.31334],[105.16648,24.28904],[105.18163,24.26177],[105.19715,24.25216],[105.21527,24.21494],[105.23164,24.21953],[105.24305,24.20674],[105.22958,24.16574],[105.18284,24.16705],[105.18185,24.13287],[105.20065,24.10536],[105.23491,24.07505],[105.26543,24.0646],[105.28446,24.06509],[105.29306,24.07921],[105.27312,24.09283],[105.29352,24.11318],[105.32024,24.11635],[105.34596,24.08616],[105.37664,24.07702],[105.39673,24.0646],[105.41302,24.03899],[105.46098,24.02963],[105.49302,24.01726],[105.51023,24.03428],[105.50475,24.0444],[105.51807,24.07587],[105.51776,24.09672],[105.53108,24.11406],[105.56861,24.13145],[105.59464,24.13752],[105.62844,24.12658],[105.64945,24.03307],[105.67533,24.03811],[105.70448,24.06651],[105.73934,24.05951],[105.76537,24.07374],[105.79042,24.06985],[105.80442,24.05727],[105.78943,24.03948],[105.79651,24.02366],[105.84149,24.03083],[105.85923,24.05672],[105.89226,24.0403],[105.90787,24.06947],[105.90216,24.09929],[105.91015,24.11488],[105.93329,24.12379],[105.96381,24.11105],[105.99799,24.12068],[106.01184,24.09951],[106.02425,24.10334],[106.04998,24.08982],[106.05378,24.05114],[106.07555,24.02842],[106.09656,24.01791],[106.09184,23.99985],[106.1197,23.96097],[106.12777,23.95686],[106.13911,23.92104],[106.15449,23.90855],[106.16918,23.8834],[106.19247,23.8789],[106.19202,23.86235],[106.17283,23.86164],[106.19148,23.83555],[106.17664,23.81619],[106.15571,23.81384],[106.13691,23.79541],[106.14497,23.7443],[106.15731,23.72416],[106.14954,23.66539],[106.13729,23.63206],[106.12077,23.60538],[106.12488,23.58588],[106.14147,23.56968],[106.12062,23.55924],[106.1073,23.53369],[106.08621,23.52419],[106.07221,23.49561],[106.03605,23.48269],[105.99982,23.44795],[105.98695,23.45724],[105.99738,23.47412],[105.98619,23.48962],[105.95993,23.49418],[105.9358,23.50891],[105.91297,23.49929],[105.89203,23.52485],[105.85238,23.52693],[105.82612,23.51556],[105.81379,23.50215],[105.80617,23.46747],[105.75868,23.45955],[105.73805,23.43068],[105.69984,23.40143],[105.6719,23.40863],[105.66513,23.40066],[105.67502,23.37464],[105.69428,23.3633],[105.68241,23.34889],[105.7006,23.32842],[105.67167,23.32644],[105.66703,23.3468],[105.63179,23.3326],[105.61573,23.31427],[105.59327,23.31257],[105.56967,23.2824],[105.56031,23.25735],[105.53184,23.24816],[105.53207,23.21875],[105.55004,23.19788],[105.56282,23.17061],[105.56792,23.10921],[105.55925,23.08496],[105.57508,23.06621],[105.60286,23.07206],[105.62555,23.06434],[105.64907,23.07856],[105.67723,23.06511],[105.73356,23.05149],[105.7363,23.03461],[105.7621,23.03163],[105.77991,23.02237],[105.80587,22.99473],[105.83913,22.98761],[105.84263,22.97034],[105.85649,22.95705],[105.87894,22.91692],[105.89417,22.93652],[105.92537,22.94419],[105.93656,22.93558],[105.95932,22.94893],[105.99533,22.93768],[106.01222,22.95241],[106.00469,22.97901],[106.01991,22.99048],[106.05691,22.98475],[106.08598,22.99644],[106.10653,22.98094],[106.1589,22.98767],[106.20686,22.9784],[106.27004,22.90726],[106.25809,22.89004],[106.28716,22.86696],[106.31906,22.86044],[106.33656,22.86552],[106.36633,22.85806],[106.37439,22.8801],[106.41367,22.87734],[106.42288,22.88866],[106.44663,22.88628],[106.4582,22.90053],[106.48986,22.90135],[106.50456,22.91046],[106.51125,22.93856],[106.52617,22.94662],[106.56233,22.92343],[106.59696,22.92989],[106.60579,22.92559],[106.63114,22.88093],[106.65687,22.86326],[106.67072,22.8891],[106.6673,22.90743],[106.71198,22.94159],[106.72735,22.96576],[106.7479,22.97454],[106.76526,23.00422],[106.79776,23.02375],[106.79594,23.04857],[106.80956,23.06621],[106.79464,23.08485],[106.7763,23.07404],[106.76183,23.08711],[106.77196,23.09995],[106.76549,23.11858],[106.78551,23.15303],[106.77949,23.18058],[106.80553,23.19187],[106.83856,23.19826],[106.89968,23.22349],[106.91681,23.24282],[106.92305,23.26897],[106.94467,23.29176],[106.96294,23.29892],[106.9943,23.29985],[107.00587,23.3102],[107.02604,23.30321],[107.0577,23.27695],[107.11639,23.28362],[107.18033,23.32506],[107.19875,23.33348],[107.22288,23.31505],[107.24777,23.32308],[107.27441,23.34372],[107.30341,23.35147],[107.31437,23.34047],[107.3433,23.33337],[107.35289,23.29518],[107.38273,23.26848],[107.3857,23.24436],[107.39826,23.23847],[107.42954,23.26022],[107.43898,23.25003],[107.47757,23.24287],[107.49051,23.22586],[107.51974,23.21936],[107.53032,23.2041],[107.56168,23.20449],[107.56945,23.22178],[107.58482,23.23043],[107.57622,23.25868],[107.5849,23.29105],[107.61192,23.29237],[107.64967,23.28207],[107.70242,23.28004],[107.71612,23.29809],[107.75083,23.31405],[107.74802,23.33387],[107.78235,23.34966],[107.8185,23.34091],[107.83692,23.34207],[107.82733,23.3676],[107.84811,23.37942],[107.86691,23.40132],[107.8641,23.41468],[107.88366,23.43888],[107.87072,23.44613],[107.83533,23.42766],[107.80579,23.43514],[107.7943,23.43063],[107.76903,23.44982],[107.74924,23.44267],[107.72975,23.49643],[107.73812,23.52105],[107.71628,23.55408],[107.70623,23.58879],[107.71064,23.628],[107.78022,23.66928],[107.80838,23.66314],[107.82307,23.67038],[107.82855,23.72383],[107.80336,23.7641],[107.77991,23.76679],[107.75342,23.7573],[107.73805,23.7788],[107.74634,23.79744],[107.71437,23.79569],[107.68035,23.80315],[107.63643,23.77797],[107.60644,23.7845],[107.57013,23.80479],[107.56967,23.83324],[107.53557,23.84125],[107.53139,23.86235],[107.54265,23.88383],[107.51898,23.89178],[107.47932,23.87107],[107.45534,23.84169],[107.43213,23.83533],[107.40617,23.87485],[107.38585,23.88],[107.38867,23.90099],[107.37405,23.92109],[107.35928,23.90849],[107.30532,23.92378],[107.29436,23.95544],[107.26817,24.00028],[107.23727,23.96672],[107.20027,23.97296],[107.14912,23.99125],[107.12362,24.05004],[107.07803,24.05229],[107.06044,24.06022],[107.03913,24.03182],[107.01767,24.02437],[106.98737,24.0611],[106.94391,24.08545],[106.96438,24.10104],[106.94688,24.11285],[106.91407,24.09808],[106.86695,24.16415],[106.86132,24.19215],[106.90242,24.21199],[106.91887,24.22746],[106.92412,24.25489],[106.90121,24.27636],[106.88522,24.31613],[106.89999,24.34097],[106.88339,24.36467],[106.90387,24.37875],[106.89192,24.39758],[106.8633,24.39507],[106.85135,24.4025],[106.83536,24.43748],[106.8091,24.45395],[106.81535,24.47545],[106.81146,24.49633],[106.79776,24.51428],[106.78246,24.51237],[106.76709,24.5411],[106.77523,24.555],[106.77363,24.60247],[106.75514,24.61974],[106.68602,24.59964],[106.71875,24.64617],[106.79769,24.6582],[106.81466,24.67568],[106.78414,24.69725],[106.76419,24.72605],[106.73984,24.73122],[106.68625,24.7592],[106.66273,24.78559],[106.68336,24.80958],[106.71921,24.81725],[106.76016,24.79457],[106.78254,24.78825],[106.79144,24.79669],[106.79342,24.829],[106.82402,24.85287],[106.85089,24.86038],[106.82768,24.89724],[106.80941,24.90425],[106.80248,24.92013],[106.78033,24.93034],[106.73337,24.98864],[106.72636,25.00608],[106.73367,25.02992],[106.76381,25.03133],[106.73976,25.07292],[106.75552,25.08426],[106.74372,25.09827],[106.72119,25.0993],[106.6676,25.05826],[106.65489,25.06467],[106.62094,25.06358],[106.60358,25.04816],[106.57116,25.0835]]],[[[105.09622,24.92811],[105.09592,24.92866],[105.07795,24.91833],[105.08199,24.91561],[105.09622,24.92811]]]]}},{"type":"Feature","id":"datav:451100","properties":{"boundaryId":"datav:451100","nodeId":"geo:cn-gx-hzo","parentNodeId":"geo:cn-gx","bounds":[110.5675,23.65995,112.05964,25.15117]},"geometry":{"type":"Polygon","coordinates":[[[111.65485,23.8333],[111.66444,23.83489],[111.69055,23.81619],[111.69839,23.83747],[111.75236,23.81274],[111.81059,23.80698],[111.82383,23.87178],[111.81264,23.88751],[111.82292,23.91123],[111.85763,23.9183],[111.85443,23.94744],[111.87894,23.93621],[111.91197,23.94393],[111.94037,23.98775],[111.92149,24.012],[111.92103,24.0374],[111.90581,24.04681],[111.87864,24.11006],[111.88678,24.16388],[111.87118,24.17657],[111.87787,24.22893],[111.91593,24.22265],[111.96899,24.26369],[111.98619,24.25697],[111.99038,24.2798],[112.02615,24.2951],[112.03323,24.3134],[112.05964,24.34108],[112.05774,24.38705],[112.04358,24.39273],[112.04214,24.4103],[112.02318,24.44151],[111.99974,24.45046],[111.98657,24.46448],[111.98756,24.48226],[112.00971,24.50288],[112.00735,24.53456],[111.97203,24.57495],[111.93717,24.59582],[111.92743,24.62939],[111.95354,24.6472],[111.94029,24.66719],[111.93961,24.68663],[111.95277,24.69632],[111.9613,24.7212],[112.0241,24.74015],[111.99768,24.75892],[111.95095,24.76959],[111.93824,24.75702],[111.90368,24.7635],[111.87521,24.75664],[111.86874,24.77182],[111.83525,24.77694],[111.81409,24.77035],[111.78341,24.78575],[111.73325,24.78026],[111.70844,24.78885],[111.66642,24.76083],[111.64236,24.73002],[111.6378,24.71554],[111.64168,24.68467],[111.6193,24.68374],[111.59768,24.69387],[111.58315,24.68168],[111.57066,24.64469],[111.54988,24.64856],[111.52986,24.63658],[111.50413,24.6649],[111.47156,24.6747],[111.45184,24.66577],[111.44674,24.68255],[111.43114,24.68581],[111.46417,24.73389],[111.47947,24.79756],[111.4711,24.82062],[111.44941,24.85706],[111.46044,24.87223],[111.44712,24.89311],[111.46394,24.90898],[111.47019,24.92893],[111.4402,24.94458],[111.43137,24.95974],[111.43837,24.9843],[111.46737,25.00244],[111.46531,25.02378],[111.43936,25.02748],[111.4166,25.04768],[111.41881,25.06559],[111.43548,25.09338],[111.42908,25.10348],[111.40282,25.1076],[111.39978,25.12459],[111.37511,25.12849],[111.36788,25.10885],[111.35472,25.10098],[111.32176,25.10494],[111.29671,25.12204],[111.2891,25.14249],[111.27479,25.15117],[111.26375,25.13359],[111.22204,25.10641],[111.2008,25.07466],[111.16716,25.0606],[111.13999,25.04241],[111.10185,25.03519],[111.10794,25.00972],[111.09698,24.9749],[111.09744,24.94089],[111.10596,24.90811],[111.11715,24.8955],[111.13831,24.89148],[111.1645,24.89844],[111.16944,24.86261],[111.16153,24.83732],[111.17005,24.77672],[111.14737,24.7679],[111.13245,24.73574],[111.10802,24.7322],[111.10657,24.70759],[111.0794,24.70378],[111.05877,24.67291],[111.02969,24.6759],[111.02063,24.66964],[111.00975,24.63462],[110.98927,24.62116],[111.00252,24.60678],[110.98341,24.58596],[110.98273,24.56966],[111.01142,24.54279],[111.02018,24.51924],[111.044,24.49895],[111.02589,24.48324],[111.04065,24.46268],[111.02611,24.4467],[111.01888,24.41958],[110.99582,24.39507],[110.99247,24.37657],[110.97504,24.36112],[111.01782,24.35331],[111.00412,24.31001],[110.97732,24.29483],[110.96042,24.29805],[110.95022,24.33355],[110.93401,24.32437],[110.93226,24.30963],[110.88887,24.26183],[110.87997,24.27101],[110.87677,24.31067],[110.855,24.32896],[110.85675,24.36189],[110.84374,24.38634],[110.81116,24.38252],[110.79083,24.34682],[110.79799,24.33262],[110.79129,24.31629],[110.75407,24.32918],[110.72712,24.32803],[110.65641,24.36068],[110.64035,24.38279],[110.62155,24.39415],[110.59818,24.39644],[110.5675,24.36265],[110.57687,24.35151],[110.57078,24.333],[110.58638,24.32055],[110.60198,24.32454],[110.61348,24.29854],[110.60374,24.27576],[110.62665,24.23085],[110.67338,24.21193],[110.68937,24.18777],[110.71258,24.18116],[110.72012,24.16771],[110.70132,24.14769],[110.6864,24.12084],[110.6899,24.09956],[110.67696,24.05902],[110.69005,24.03866],[110.74539,24.02202],[110.71776,23.95555],[110.75239,23.9476],[110.7798,23.9487],[110.79289,23.94103],[110.81831,23.90827],[110.8569,23.89441],[110.87274,23.8732],[110.8668,23.85402],[110.84023,23.83703],[110.8582,23.80797],[110.88073,23.8202],[110.89595,23.78593],[110.88408,23.77063],[110.89717,23.75247],[110.89207,23.70391],[110.91407,23.68487],[110.93051,23.65995],[110.9433,23.66967],[110.96811,23.66303],[110.95707,23.68827],[110.95738,23.72109],[110.9761,23.73179],[110.9793,23.763],[110.98897,23.76887],[111.01432,23.75916],[111.02573,23.77808],[111.01576,23.79141],[111.01782,23.81488],[111.0373,23.80545],[111.05961,23.82864],[111.0813,23.82831],[111.10155,23.8544],[111.10528,23.87803],[111.13291,23.88855],[111.1514,23.93785],[111.16122,23.94415],[111.20766,23.94163],[111.2276,23.91934],[111.23354,23.88844],[111.24617,23.88301],[111.28697,23.88405],[111.3041,23.86926],[111.34878,23.87233],[111.36514,23.88252],[111.4032,23.92367],[111.41256,23.9504],[111.40716,23.99744],[111.39087,24.01917],[111.40313,24.04172],[111.39658,24.07538],[111.42482,24.07489],[111.44811,24.0907],[111.46813,24.0843],[111.4864,24.09655],[111.48008,24.11357],[111.49302,24.15196],[111.51274,24.16738],[111.55255,24.14015],[111.57523,24.14337],[111.57333,24.10766],[111.58421,24.08867],[111.53968,24.05699],[111.53534,24.04342],[111.54851,24.00625],[111.56107,23.99344],[111.57698,24.00067],[111.60613,23.9734],[111.62334,23.97208],[111.64929,23.94519],[111.6499,23.90301],[111.65903,23.87265],[111.65142,23.86093],[111.65485,23.8333]]]}},{"type":"Feature","id":"datav:451200","properties":{"boundaryId":"datav:451200","nodeId":"geo:cn-gx-hcs","parentNodeId":"geo:cn-gx","bounds":[106.57116,23.55408,109.15803,25.6092]},"geometry":{"type":"Polygon","coordinates":[[[106.57116,25.0835],[106.60358,25.04816],[106.62094,25.06358],[106.65489,25.06467],[106.6676,25.05826],[106.72119,25.0993],[106.74372,25.09827],[106.75552,25.08426],[106.73976,25.07292],[106.76381,25.03133],[106.73367,25.02992],[106.72636,25.00608],[106.73337,24.98864],[106.78033,24.93034],[106.80248,24.92013],[106.80941,24.90425],[106.82768,24.89724],[106.85089,24.86038],[106.82402,24.85287],[106.79342,24.829],[106.79144,24.79669],[106.78254,24.78825],[106.76016,24.79457],[106.71921,24.81725],[106.68336,24.80958],[106.66273,24.78559],[106.68625,24.7592],[106.73984,24.73122],[106.76419,24.72605],[106.78414,24.69725],[106.81466,24.67568],[106.79769,24.6582],[106.71875,24.64617],[106.68602,24.59964],[106.75514,24.61974],[106.77363,24.60247],[106.77523,24.555],[106.76709,24.5411],[106.78246,24.51237],[106.79776,24.51428],[106.81146,24.49633],[106.81535,24.47545],[106.8091,24.45395],[106.83536,24.43748],[106.85135,24.4025],[106.8633,24.39507],[106.89192,24.39758],[106.90387,24.37875],[106.88339,24.36467],[106.89999,24.34097],[106.88522,24.31613],[106.90121,24.27636],[106.92412,24.25489],[106.91887,24.22746],[106.90242,24.21199],[106.86132,24.19215],[106.86695,24.16415],[106.91407,24.09808],[106.94688,24.11285],[106.96438,24.10104],[106.94391,24.08545],[106.98737,24.0611],[107.01767,24.02437],[107.03913,24.03182],[107.06044,24.06022],[107.07803,24.05229],[107.12362,24.05004],[107.14912,23.99125],[107.20027,23.97296],[107.23727,23.96672],[107.26817,24.00028],[107.29436,23.95544],[107.30532,23.92378],[107.35928,23.90849],[107.37405,23.92109],[107.38867,23.90099],[107.38585,23.88],[107.40617,23.87485],[107.43213,23.83533],[107.45534,23.84169],[107.47932,23.87107],[107.51898,23.89178],[107.54265,23.88383],[107.53139,23.86235],[107.53557,23.84125],[107.56967,23.83324],[107.57013,23.80479],[107.60644,23.7845],[107.63643,23.77797],[107.68035,23.80315],[107.71437,23.79569],[107.74634,23.79744],[107.73805,23.7788],[107.75342,23.7573],[107.77991,23.76679],[107.80336,23.7641],[107.82855,23.72383],[107.82307,23.67038],[107.80838,23.66314],[107.78022,23.66928],[107.71064,23.628],[107.70623,23.58879],[107.71628,23.55408],[107.73789,23.56666],[107.76781,23.57242],[107.79399,23.56671],[107.79909,23.58907],[107.83997,23.61021],[107.84659,23.59741],[107.87445,23.60109],[107.92469,23.63942],[107.9422,23.65704],[107.95993,23.64403],[107.96602,23.62789],[107.99654,23.63706],[108.00073,23.67351],[108.0209,23.69041],[108.04282,23.72065],[108.02417,23.73415],[108.01679,23.76004],[108.02189,23.77622],[108.05835,23.80068],[108.08895,23.79317],[108.11224,23.81417],[108.11826,23.83489],[108.13622,23.85303],[108.16279,23.82568],[108.20305,23.87161],[108.22132,23.85484],[108.22307,23.82562],[108.23259,23.80687],[108.24964,23.80457],[108.26402,23.81768],[108.2829,23.81439],[108.30916,23.83949],[108.29272,23.85676],[108.31753,23.88181],[108.31312,23.89337],[108.32941,23.912],[108.36594,23.91611],[108.36792,23.98183],[108.37744,24.01441],[108.41009,24.03094],[108.43255,24.03291],[108.45173,24.02382],[108.45827,24.01019],[108.47989,24.01906],[108.50151,24.02481],[108.50554,24.01178],[108.53774,24.00368],[108.5621,24.00833],[108.55555,24.04172],[108.58166,24.03581],[108.59734,24.04687],[108.58486,24.09573],[108.59719,24.14666],[108.61158,24.13358],[108.6641,24.14354],[108.67734,24.15437],[108.67445,24.17154],[108.68442,24.20614],[108.70147,24.2315],[108.68747,24.23587],[108.69378,24.25855],[108.67095,24.28811],[108.68655,24.29521],[108.70847,24.29149],[108.74014,24.31187],[108.72728,24.33792],[108.75392,24.37788],[108.77713,24.36227],[108.81786,24.36123],[108.8359,24.35124],[108.85744,24.31929],[108.8483,24.30373],[108.86216,24.26724],[108.91689,24.255],[108.92054,24.31542],[108.92853,24.34043],[108.92054,24.36183],[108.93257,24.37515],[108.97778,24.38902],[108.99925,24.37439],[109.00541,24.39857],[109.00084,24.42051],[109.00922,24.4294],[109.0424,24.43704],[109.04667,24.46099],[109.03297,24.48439],[108.98311,24.4857],[108.96103,24.47468],[108.93706,24.4749],[108.91255,24.49852],[108.89222,24.50135],[108.88408,24.52802],[108.86421,24.52191],[108.83803,24.53821],[108.85211,24.5713],[108.87601,24.57152],[108.90882,24.58661],[108.89991,24.61402],[108.92716,24.63663],[108.95152,24.64055],[108.97017,24.66621],[108.95281,24.6838],[108.95099,24.69709],[108.93165,24.71571],[108.93584,24.73029],[108.96469,24.7316],[108.99757,24.77753],[109.01378,24.7864],[109.03807,24.82231],[109.07757,24.83047],[109.09416,24.82481],[109.09751,24.80675],[109.13184,24.7913],[109.15803,24.82465],[109.13725,24.8358],[109.13938,24.89306],[109.15788,24.90942],[109.11845,24.94757],[109.10033,24.94469],[109.10063,24.92817],[109.07666,24.91784],[109.0322,24.91279],[108.99422,24.9211],[108.98646,24.94116],[108.99064,24.95757],[109.03304,24.98973],[109.06676,25.01042],[109.0832,25.03464],[109.08389,25.05169],[109.09835,25.07265],[109.10505,25.10375],[109.09226,25.15822],[109.05222,25.20243],[109.0134,25.16875],[108.98592,25.17021],[108.97572,25.13804],[108.94817,25.12117],[108.93074,25.13066],[108.90288,25.12985],[108.89907,25.15274],[108.86299,25.14081],[108.84518,25.1554],[108.82303,25.12746],[108.76229,25.12133],[108.73116,25.09604],[108.69987,25.10174],[108.67475,25.1165],[108.69455,25.16365],[108.71814,25.17737],[108.6657,25.20373],[108.65512,25.21495],[108.64796,25.25122],[108.64514,25.2936],[108.6252,25.30812],[108.61386,25.30985],[108.58905,25.33532],[108.58585,25.36597],[108.52419,25.41832],[108.50037,25.44782],[108.47182,25.45886],[108.42174,25.44041],[108.40035,25.49138],[108.35955,25.5135],[108.34471,25.53735],[108.30825,25.52578],[108.29926,25.50111],[108.28107,25.48002],[108.24073,25.46189],[108.23609,25.44939],[108.25207,25.4305],[108.22589,25.42698],[108.2214,25.45009],[108.19262,25.45908],[108.16248,25.44474],[108.19331,25.40549],[108.18136,25.39082],[108.1538,25.39472],[108.15213,25.35373],[108.1366,25.34311],[108.15213,25.32443],[108.13592,25.29788],[108.13378,25.23442],[108.1159,25.21099],[108.08065,25.19375],[108.05363,25.19961],[108.00195,25.19657],[107.96914,25.17791],[107.95049,25.17417],[107.92865,25.15578],[107.89683,25.14423],[107.8724,25.14157],[107.8679,25.12942],[107.83906,25.11612],[107.81949,25.1292],[107.79445,25.11612],[107.77717,25.12453],[107.7895,25.15475],[107.78265,25.17043],[107.75997,25.18865],[107.76218,25.22894],[107.74208,25.24022],[107.71042,25.20346],[107.67,25.24444],[107.66185,25.25897],[107.65972,25.3163],[107.63194,25.31018],[107.60849,25.26531],[107.55894,25.24688],[107.54151,25.2246],[107.50459,25.21067],[107.47224,25.21376],[107.47004,25.23208],[107.49005,25.27669],[107.48153,25.30021],[107.4491,25.28753],[107.43266,25.2891],[107.4287,25.31348],[107.40914,25.34712],[107.42086,25.3931],[107.40244,25.39375],[107.3758,25.4121],[107.36469,25.39499],[107.34436,25.40365],[107.31483,25.40263],[107.30836,25.4331],[107.33272,25.44674],[107.32221,25.49343],[107.30775,25.50025],[107.26391,25.54314],[107.23765,25.55163],[107.23019,25.56476],[107.23597,25.58536],[107.22859,25.60487],[107.21116,25.6092],[107.18733,25.59093],[107.1852,25.57833],[107.13451,25.56644],[107.09348,25.56979],[107.06456,25.55952],[107.0641,25.54243],[107.0746,25.52129],[107.05565,25.50398],[107.01356,25.49408],[106.99651,25.44273],[106.98121,25.44804],[106.9637,25.43732],[106.98691,25.35974],[107.01432,25.34479],[107.00739,25.30807],[107.01371,25.27534],[106.99133,25.26309],[106.9978,25.24493],[106.97603,25.23295],[106.95533,25.24629],[106.93325,25.25046],[106.9041,25.23154],[106.90022,25.19451],[106.88834,25.1822],[106.85272,25.18697],[106.83635,25.17949],[106.78756,25.17086],[106.76465,25.18312],[106.73215,25.16229],[106.69112,25.17921],[106.64499,25.16484],[106.63966,25.13278],[106.62931,25.12144],[106.59711,25.10489],[106.58768,25.08589],[106.57116,25.0835]]]}},{"type":"Feature","id":"datav:451300","properties":{"boundaryId":"datav:451300","nodeId":"geo:cn-gx-lib","parentNodeId":"geo:cn-gx","bounds":[108.41595,23.27756,110.45622,24.46743]},"geometry":{"type":"Polygon","coordinates":[[[108.91689,24.255],[108.86216,24.26724],[108.8483,24.30373],[108.85744,24.31929],[108.8359,24.35124],[108.81786,24.36123],[108.77713,24.36227],[108.75392,24.37788],[108.72728,24.33792],[108.74014,24.31187],[108.70847,24.29149],[108.68655,24.29521],[108.67095,24.28811],[108.69378,24.25855],[108.68747,24.23587],[108.70147,24.2315],[108.68442,24.20614],[108.67445,24.17154],[108.67734,24.15437],[108.6641,24.14354],[108.61158,24.13358],[108.59719,24.14666],[108.58486,24.09573],[108.59734,24.04687],[108.58166,24.03581],[108.55555,24.04172],[108.5621,24.00833],[108.53774,24.00368],[108.50554,24.01178],[108.50151,24.02481],[108.47989,24.01906],[108.49877,23.99043],[108.47654,23.97789],[108.46124,23.98676],[108.43369,23.96283],[108.43788,23.93944],[108.4228,23.92443],[108.45531,23.91255],[108.46535,23.89836],[108.45698,23.84273],[108.43026,23.83231],[108.41595,23.8174],[108.44374,23.80249],[108.48712,23.76086],[108.48925,23.7133],[108.50136,23.66275],[108.52906,23.67192],[108.54893,23.70726],[108.59293,23.74408],[108.62802,23.75587],[108.63829,23.76909],[108.6711,23.77282],[108.67308,23.78505],[108.71342,23.78351],[108.7288,23.79854],[108.74768,23.7805],[108.77302,23.77819],[108.7836,23.7681],[108.77751,23.73256],[108.80431,23.71472],[108.77721,23.68103],[108.78041,23.64551],[108.79708,23.6342],[108.78277,23.61543],[108.8037,23.58885],[108.812,23.54083],[108.82631,23.51886],[108.82235,23.49396],[108.83437,23.47829],[108.86946,23.4574],[108.86962,23.44388],[108.89002,23.4413],[108.91917,23.41798],[108.92077,23.38971],[108.93904,23.36006],[108.98768,23.34933],[109.05199,23.35582],[109.05047,23.3375],[109.06387,23.32259],[109.08663,23.31438],[109.11038,23.29083],[109.14143,23.29952],[109.16526,23.28956],[109.17074,23.27756],[109.19274,23.28207],[109.21702,23.29683],[109.20705,23.30993],[109.21085,23.33227],[109.25013,23.35225],[109.26581,23.34685],[109.27616,23.37436],[109.29626,23.38179],[109.32336,23.41638],[109.35274,23.41671],[109.37382,23.40099],[109.38044,23.37783],[109.40107,23.38278],[109.42931,23.35989],[109.44811,23.38063],[109.48297,23.38388],[109.48358,23.36809],[109.50322,23.34685],[109.50178,23.33651],[109.53968,23.3064],[109.55392,23.30806],[109.57843,23.3512],[109.59616,23.35566],[109.63003,23.39235],[109.64648,23.42062],[109.66147,23.42898],[109.67746,23.42166],[109.68956,23.40335],[109.7146,23.41061],[109.74056,23.46752],[109.75182,23.45488],[109.78181,23.46686],[109.79727,23.48594],[109.83791,23.47791],[109.86813,23.45526],[109.89401,23.47566],[109.89858,23.51891],[109.8934,23.55402],[109.90216,23.57786],[109.91761,23.59461],[109.92766,23.63519],[109.92294,23.665],[109.92849,23.68498],[109.94752,23.68816],[109.95506,23.72603],[109.9718,23.73662],[109.98741,23.76871],[109.99723,23.77677],[110.02806,23.78094],[110.0684,23.80134],[110.08948,23.82886],[110.13234,23.87002],[110.1503,23.88093],[110.18044,23.86087],[110.1997,23.86948],[110.20625,23.9029],[110.21926,23.9086],[110.24119,23.89156],[110.26303,23.89556],[110.28632,23.85194],[110.29949,23.86548],[110.29538,23.88203],[110.31494,23.90882],[110.29553,23.95516],[110.30535,23.97592],[110.30916,24.01616],[110.34334,24.03477],[110.36868,24.03313],[110.3919,24.04216],[110.37378,24.04211],[110.34341,24.06038],[110.35491,24.07713],[110.37432,24.08173],[110.36473,24.10481],[110.3868,24.12631],[110.41192,24.11876],[110.44792,24.11635],[110.45462,24.13845],[110.40773,24.14376],[110.45622,24.184],[110.41907,24.20111],[110.41336,24.21434],[110.38322,24.21401],[110.36564,24.22729],[110.36556,24.26232],[110.35194,24.2786],[110.32667,24.26609],[110.31692,24.29641],[110.28899,24.29991],[110.26014,24.3223],[110.26037,24.36025],[110.22056,24.34627],[110.19871,24.34791],[110.20061,24.37089],[110.18882,24.38257],[110.21188,24.39993],[110.18714,24.44762],[110.14741,24.436],[110.1162,24.46083],[110.07905,24.46743],[110.06893,24.45733],[110.07213,24.43906],[110.05584,24.41941],[110.04564,24.39054],[110.04868,24.36658],[110.03445,24.34403],[110.01717,24.3365],[110.0308,24.31848],[110.03323,24.27303],[109.99883,24.25505],[109.97599,24.2615],[109.93184,24.23489],[109.90771,24.24527],[109.90551,24.27226],[109.93291,24.27183],[109.92705,24.29373],[109.90269,24.301],[109.88008,24.27631],[109.84963,24.275],[109.85154,24.26041],[109.82025,24.25265],[109.80313,24.25615],[109.79376,24.23429],[109.76202,24.21199],[109.74581,24.21428],[109.71026,24.17689],[109.70547,24.15333],[109.68415,24.15508],[109.65904,24.14529],[109.64366,24.15026],[109.61527,24.14086],[109.59814,24.08391],[109.58193,24.07084],[109.54905,24.06394],[109.50117,24.04769],[109.48731,24.01118],[109.50299,23.99032],[109.49523,23.97055],[109.45123,23.93983],[109.42855,23.9086],[109.3841,23.91518],[109.35928,23.91222],[109.34817,23.95297],[109.32884,23.96097],[109.3248,23.98775],[109.29139,24.00685],[109.29504,24.0276],[109.2786,24.04725],[109.23224,24.05863],[109.21786,24.05174],[109.22197,24.03203],[109.21146,24.01901],[109.18398,24.01649],[109.17226,24.02826],[109.15529,24.0218],[109.14242,24.04681],[109.12568,24.06454],[109.11472,24.05743],[109.08937,24.06307],[109.10589,24.08391],[109.07673,24.09874],[109.05093,24.10536],[109.03647,24.12177],[109.00404,24.1314],[108.97215,24.12976],[108.95807,24.16186],[108.93515,24.1852],[108.93043,24.21702],[108.94474,24.22811],[108.94086,24.24341],[108.91689,24.255]]]}},{"type":"Feature","id":"datav:451400","properties":{"boundaryId":"datav:451400","nodeId":"geo:cn-gx-coz","parentNodeId":"geo:cn-gx","bounds":[106.56225,21.59415,108.11574,23.35147]},"geometry":{"type":"Polygon","coordinates":[[[106.67072,22.8891],[106.68549,22.89114],[106.71677,22.88142],[106.70947,22.86629],[106.77797,22.81438],[106.8222,22.81658],[106.841,22.79957],[106.82105,22.76874],[106.79647,22.76675],[106.79144,22.75111],[106.7683,22.73862],[106.77394,22.70429],[106.75628,22.68969],[106.7269,22.6168],[106.73436,22.59898],[106.71198,22.57513],[106.69698,22.58166],[106.66661,22.57264],[106.65131,22.57419],[106.63342,22.60225],[106.61447,22.60208],[106.58524,22.51635],[106.58136,22.46618],[106.56225,22.46242],[106.57078,22.43794],[106.564,22.41943],[106.59011,22.39101],[106.58821,22.37372],[106.56492,22.36131],[106.56279,22.34545],[106.62444,22.33049],[106.65253,22.33647],[106.66341,22.33104],[106.67209,22.28136],[106.69378,22.2757],[106.68868,22.26034],[106.70551,22.21668],[106.69774,22.20231],[106.67339,22.18261],[106.70056,22.15131],[106.69371,22.13272],[106.71776,22.07441],[106.70711,22.05542],[106.7065,22.02153],[106.68115,21.99492],[106.69919,21.95979],[106.72621,21.97924],[106.73869,22.0082],[106.75103,22.01286],[106.78604,22.00781],[106.80271,21.98158],[106.82874,21.97552],[106.85942,21.98575],[106.92039,21.97007],[106.92838,21.96424],[106.93911,21.93144],[106.96827,21.92099],[106.9994,21.94762],[107.02071,21.94417],[107.05991,21.91521],[107.05892,21.8869],[107.01858,21.85932],[107.00983,21.83584],[107.01782,21.81932],[107.03883,21.80997],[107.08808,21.80513],[107.11624,21.78688],[107.14897,21.75894],[107.19464,21.73673],[107.19944,21.71875],[107.24739,21.70299],[107.27182,21.72704],[107.31087,21.73367],[107.36347,21.65526],[107.36339,21.602],[107.38844,21.59415],[107.40077,21.61409],[107.43114,21.64184],[107.4695,21.6595],[107.48153,21.65554],[107.49843,21.67398],[107.55727,21.72454],[107.55323,21.75916],[107.56754,21.7841],[107.5578,21.81559],[107.57158,21.84641],[107.56838,21.86277],[107.54296,21.88807],[107.55437,21.91754],[107.58261,21.93878],[107.57234,21.95212],[107.5798,21.9753],[107.61611,22.00481],[107.63247,22.03686],[107.65348,22.04131],[107.65713,22.06447],[107.6786,22.08191],[107.65767,22.09807],[107.66094,22.124],[107.64275,22.14121],[107.62828,22.18167],[107.65972,22.18001],[107.706,22.1916],[107.728,22.18672],[107.73942,22.19976],[107.80115,22.20953],[107.82117,22.21724],[107.87415,22.21102],[107.88336,22.21924],[107.9116,22.21019],[107.91061,22.22822],[107.96107,22.28596],[107.98551,22.29689],[107.97957,22.31036],[108.00674,22.33542],[108.03049,22.33315],[108.04663,22.35471],[108.06627,22.35083],[108.09588,22.37167],[108.11574,22.38857],[108.1006,22.40824],[108.08294,22.41118],[108.08773,22.45837],[108.06863,22.45671],[108.05888,22.47017],[108.01405,22.47909],[107.98619,22.50456],[108.01344,22.53329],[108.01847,22.54779],[107.99533,22.58161],[108.00613,22.60756],[108.05866,22.62344],[108.08606,22.62128],[108.10334,22.64318],[108.08583,22.70197],[108.07472,22.67554],[108.04145,22.65579],[108.02258,22.67747],[107.99867,22.69428],[107.99966,22.71667],[108.01169,22.72027],[108.02379,22.782],[107.97333,22.79316],[107.9817,22.8167],[107.97082,22.8347],[107.94379,22.84641],[107.8829,22.84973],[107.85984,22.8732],[107.83243,22.87286],[107.79354,22.88109],[107.74391,22.94397],[107.71232,22.94915],[107.6977,22.93878],[107.6378,22.94766],[107.63567,22.93503],[107.66718,22.91858],[107.67495,22.90229],[107.70212,22.87601],[107.69238,22.86199],[107.67357,22.85514],[107.64838,22.88711],[107.64594,22.90224],[107.61397,22.90417],[107.5833,22.88982],[107.57432,22.86044],[107.5428,22.85878],[107.50421,22.84542],[107.48815,22.87193],[107.48884,22.89583],[107.47848,22.91637],[107.49957,22.93563],[107.49264,22.95026],[107.49987,22.97995],[107.49036,22.98679],[107.47826,23.03163],[107.44735,23.05],[107.43251,23.04404],[107.41318,23.0511],[107.38136,23.04476],[107.3675,23.03152],[107.33767,23.04746],[107.35335,23.06588],[107.35342,23.08082],[107.37694,23.08358],[107.35106,23.12106],[107.33318,23.12911],[107.33774,23.14807],[107.35654,23.14812],[107.3465,23.18862],[107.36971,23.19799],[107.37923,23.23825],[107.3857,23.24436],[107.38273,23.26848],[107.35289,23.29518],[107.3433,23.33337],[107.31437,23.34047],[107.30341,23.35147],[107.27441,23.34372],[107.24777,23.32308],[107.22288,23.31505],[107.19875,23.33348],[107.18033,23.32506],[107.11639,23.28362],[107.0577,23.27695],[107.02604,23.30321],[107.00587,23.3102],[106.9943,23.29985],[106.96294,23.29892],[106.94467,23.29176],[106.92305,23.26897],[106.91681,23.24282],[106.89968,23.22349],[106.83856,23.19826],[106.80553,23.19187],[106.77949,23.18058],[106.78551,23.15303],[106.76549,23.11858],[106.77196,23.09995],[106.76183,23.08711],[106.7763,23.07404],[106.79464,23.08485],[106.80956,23.06621],[106.79594,23.04857],[106.79776,23.02375],[106.76526,23.00422],[106.7479,22.97454],[106.72735,22.96576],[106.71198,22.94159],[106.6673,22.90743],[106.67072,22.8891]]]}}]}