{"type":"FeatureCollection","features":[{"type":"Feature","id":"datav:130100","properties":{"boundaryId":"datav:130100","nodeId":"geo:cn-he-sjw","parentNodeId":"geo:cn-he","bounds":[113.52547,37.4355,115.46678,38.76332]},"geometry":{"type":"Polygon","coordinates":[[[113.83955,38.75841],[113.8029,38.76332],[113.77567,38.70984],[113.71,38.69828],[113.71384,38.66368],[113.66707,38.64694],[113.61286,38.64601],[113.6028,38.58685],[113.56205,38.55832],[113.55725,38.50402],[113.58352,38.46599],[113.53803,38.41802],[113.52547,38.38302],[113.55725,38.34346],[113.54482,38.27049],[113.57032,38.23743],[113.63676,38.23268],[113.67911,38.20541],[113.75658,38.17171],[113.82885,38.16897],[113.81008,38.11257],[113.87626,38.05505],[113.87235,37.99038],[113.90125,37.98481],[113.92919,37.93202],[113.95686,37.91142],[113.97154,37.86879],[113.97019,37.83392],[114.00665,37.8135],[114.04387,37.77746],[114.04118,37.75682],[114.00082,37.73536],[113.99377,37.70689],[114.06803,37.72156],[114.12826,37.69821],[114.13973,37.67593],[114.11538,37.61988],[114.11833,37.59063],[114.03676,37.49418],[114.02267,37.4355],[114.06899,37.44738],[114.09648,37.49094],[114.15619,37.50524],[114.18458,37.53082],[114.21501,37.51125],[114.27293,37.49445],[114.30362,37.50781],[114.33463,37.50295],[114.4121,37.54991],[114.48347,37.57681],[114.51993,37.57466],[114.58522,37.55301],[114.68017,37.56528],[114.70734,37.61577],[114.72598,37.63067],[114.79742,37.62824],[114.80857,37.65983],[114.8415,37.67613],[114.84778,37.69673],[114.89597,37.71255],[114.90404,37.7293],[114.96017,37.72008],[115.01251,37.75157],[115.04102,37.73354],[115.07005,37.74565],[115.07229,37.79414],[115.09747,37.80785],[115.15052,37.80852],[115.15277,37.75951],[115.24324,37.72264],[115.26143,37.68818],[115.25509,37.64562],[115.29738,37.62959],[115.30141,37.66017],[115.32557,37.68246],[115.33377,37.71322],[115.38099,37.70743],[115.38618,37.72708],[115.34447,37.74814],[115.36548,37.90632],[115.44859,37.93658],[115.45602,37.97455],[115.43821,38.0011],[115.46678,38.06355],[115.43987,38.08204],[115.38323,38.0886],[115.36484,38.13793],[115.3469,38.13967],[115.34242,38.19625],[115.32473,38.24818],[115.27361,38.2403],[115.25221,38.29093],[115.22587,38.26989],[115.21017,38.23649],[115.16859,38.25961],[115.0662,38.26468],[114.98906,38.25814],[114.9701,38.28111],[114.88334,38.28485],[114.92288,38.31563],[114.93287,38.34419],[114.92339,38.38822],[114.88225,38.42415],[114.83785,38.43574],[114.81075,38.49237],[114.76526,38.49663],[114.73124,38.48191],[114.70208,38.4891],[114.6737,38.47345],[114.59572,38.5689],[114.58432,38.59643],[114.55228,38.61298],[114.49846,38.6783],[114.45265,38.69941],[114.4135,38.70393],[114.36641,38.6862],[114.3115,38.70652],[114.21283,38.68819],[114.18221,38.67657],[114.0861,38.65837],[114.05214,38.6864],[113.99166,38.67677],[113.88325,38.74667],[113.83955,38.75841]]]}},{"type":"Feature","id":"datav:130200","properties":{"boundaryId":"datav:130200","nodeId":"geo:cn-he-tgs","parentNodeId":"geo:cn-he","bounds":[117.50741,38.90904,119.31904,40.46469]},"geometry":{"type":"MultiPolygon","coordinates":[[[[119.31904,39.42955],[119.2574,39.42975],[119.2123,39.46345],[119.18577,39.45899],[119.01566,39.4821],[119.0081,39.50935],[118.96607,39.52949],[118.93845,39.55757],[118.89514,39.54701],[118.86131,39.57475],[118.78724,39.71592],[118.77443,39.7642],[118.82543,39.79944],[118.81684,39.82584],[118.85356,39.88409],[118.85964,39.93362],[118.88425,39.96179],[118.88508,40.0054],[118.8656,40.02378],[118.86631,40.06194],[118.91827,40.09221],[118.92474,40.14965],[118.90674,40.16968],[118.84914,40.17897],[118.79448,40.20484],[118.77558,40.19418],[118.70856,40.21608],[118.66563,40.24258],[118.57138,40.26984],[118.56895,40.28756],[118.53333,40.29885],[118.53999,40.36105],[118.57151,40.41464],[118.54806,40.42267],[118.50321,40.40337],[118.40268,40.41684],[118.38731,40.43672],[118.30658,40.41956],[118.27794,40.42571],[118.23968,40.46469],[118.15312,40.40952],[118.16523,40.40045],[118.12186,40.3547],[118.07931,40.35353],[118.06156,40.31909],[118.00089,40.29256],[117.90946,40.28588],[117.89799,40.27043],[117.80778,40.26193],[117.75152,40.22972],[117.69411,40.23816],[117.64625,40.20516],[117.57545,40.19282],[117.65016,40.12819],[117.67489,40.08212],[117.70827,40.09364],[117.75165,40.08199],[117.75831,40.04436],[117.79708,40.01023],[117.78202,39.96831],[117.75633,39.96512],[117.70667,39.98605],[117.63459,39.9689],[117.58923,39.99687],[117.54732,39.97686],[117.50741,39.90902],[117.53726,39.83518],[117.56142,39.80002],[117.54611,39.77616],[117.57763,39.72691],[117.60243,39.70538],[117.64478,39.70185],[117.66836,39.66709],[117.66201,39.63637],[117.63619,39.60373],[117.6608,39.57541],[117.73775,39.57403],[117.76773,39.59901],[117.82655,39.59082],[117.86826,39.59685],[117.934,39.57416],[117.90529,39.53015],[117.89818,39.47252],[117.87031,39.45498],[117.87185,39.41155],[117.85237,39.38078],[117.80528,39.37328],[117.84955,39.32737],[117.97225,39.3144],[117.97763,39.30064],[118.06477,39.25606],[118.0262,39.20176],[118.07771,39.20202],[118.12532,39.18277],[118.16299,39.1366],[118.1826,39.09416],[118.22501,39.03484],[118.30991,39.01177],[118.37359,39.01204],[118.37802,38.97177],[118.49104,38.90904],[118.53973,38.90984],[118.60445,38.97151],[118.57049,38.99921],[118.53288,39.09105],[118.58862,39.10762],[118.57875,39.13092],[118.63731,39.15738],[118.76072,39.1335],[118.81441,39.13864],[118.85791,39.16285],[118.89725,39.15151],[118.89001,39.11884],[118.92628,39.12346],[118.97798,39.16338],[119.02399,39.18693],[119.03828,39.21178],[119.09607,39.24196],[119.12151,39.28155],[119.18558,39.34204],[119.27278,39.36362],[119.31705,39.41076],[119.31904,39.42955]]],[[[117.78458,39.37703],[117.78215,39.39479],[117.7373,39.41056],[117.66912,39.41201],[117.57116,39.40465],[117.52086,39.35724],[117.53624,39.33803],[117.59525,39.34914],[117.66932,39.32414],[117.67098,39.35783],[117.7446,39.3546],[117.78458,39.37703]]]]}},{"type":"Feature","id":"datav:130300","properties":{"boundaryId":"datav:130300","nodeId":"geo:cn-he-shp","parentNodeId":"geo:cn-he","bounds":[118.56895,39.42955,119.87236,40.61442]},"geometry":{"type":"Polygon","coordinates":[[[119.31904,39.42955],[119.27002,39.49858],[119.33493,39.65615],[119.35812,39.72174],[119.39689,39.76112],[119.46474,39.80924],[119.50664,39.81649],[119.54105,39.88814],[119.58795,39.90994],[119.61294,39.89891],[119.63703,39.92318],[119.68354,39.92194],[119.72628,39.94106],[119.78721,39.95038],[119.81688,39.97822],[119.87236,39.96062],[119.84103,40.01179],[119.83501,40.05029],[119.79529,40.04039],[119.76043,40.06565],[119.77158,40.08225],[119.73672,40.10484],[119.76248,40.14478],[119.74595,40.20796],[119.7168,40.19607],[119.67624,40.22452],[119.62517,40.22413],[119.65189,40.27238],[119.59814,40.33421],[119.58667,40.37544],[119.60493,40.45498],[119.55354,40.50176],[119.57103,40.54089],[119.50389,40.55395],[119.47781,40.53332],[119.44186,40.53985],[119.30219,40.53028],[119.25612,40.54328],[119.22062,40.56913],[119.23081,40.60389],[119.15847,40.61442],[119.10549,40.60363],[119.06339,40.60615],[118.98337,40.56364],[118.966,40.5361],[118.91904,40.53093],[118.88694,40.54244],[118.864,40.52724],[118.82133,40.53196],[118.77295,40.47977],[118.72349,40.47375],[118.7028,40.49141],[118.61835,40.42519],[118.64379,40.38095],[118.6402,40.35457],[118.56895,40.28756],[118.57138,40.26984],[118.66563,40.24258],[118.70856,40.21608],[118.77558,40.19418],[118.79448,40.20484],[118.84914,40.17897],[118.90674,40.16968],[118.92474,40.14965],[118.91827,40.09221],[118.86631,40.06194],[118.8656,40.02378],[118.88508,40.0054],[118.88425,39.96179],[118.85964,39.93362],[118.85356,39.88409],[118.81684,39.82584],[118.82543,39.79944],[118.77443,39.7642],[118.78724,39.71592],[118.86131,39.57475],[118.89514,39.54701],[118.93845,39.55757],[118.96607,39.52949],[119.0081,39.50935],[119.01566,39.4821],[119.18577,39.45899],[119.2123,39.46345],[119.2574,39.42975],[119.31904,39.42955]]]}},{"type":"Feature","id":"datav:130400","properties":{"boundaryId":"datav:130400","nodeId":"geo:cn-he-hds","parentNodeId":"geo:cn-he","bounds":[113.46537,36.06781,115.48357,37.01205]},"geometry":{"type":"Polygon","coordinates":[[[115.47831,36.7547],[115.42366,36.76608],[115.39066,36.76315],[115.33569,36.77583],[115.3075,36.83713],[115.28334,36.86259],[115.20056,36.86837],[115.10651,36.92396],[115.12502,36.93647],[115.0967,36.96455],[115.02161,36.96142],[114.94959,36.94878],[114.89244,36.96965],[114.86271,36.96972],[114.78749,36.91396],[114.77269,36.92845],[114.71817,36.9381],[114.70715,36.91804],[114.67107,36.91743],[114.64884,36.89845],[114.55171,36.88409],[114.55523,36.84598],[114.50775,36.82794],[114.46233,36.84768],[114.42119,36.83944],[114.35353,36.85204],[114.29997,36.84544],[114.25268,36.85653],[114.2259,36.84305],[114.10045,36.83904],[114.06367,36.87933],[114.02818,36.88124],[113.99108,36.91491],[113.98442,36.9415],[113.94174,36.98338],[113.88389,37.01089],[113.82878,37.01205],[113.79495,36.995],[113.7617,36.95605],[113.79284,36.89471],[113.7421,36.85108],[113.73159,36.87865],[113.69692,36.88226],[113.67629,36.85565],[113.68411,36.8248],[113.65579,36.78571],[113.59998,36.75293],[113.5493,36.75231],[113.53623,36.73234],[113.49939,36.74059],[113.46537,36.70779],[113.50202,36.68153],[113.47703,36.65519],[113.48683,36.63519],[113.53546,36.62925],[113.53976,36.59408],[113.56968,36.58588],[113.58871,36.5481],[113.55994,36.52862],[113.55443,36.49471],[113.58723,36.46098],[113.6292,36.45469],[113.67021,36.42512],[113.70833,36.42334],[113.73242,36.3576],[113.79758,36.34718],[113.81821,36.33115],[113.85595,36.32937],[113.88152,36.3539],[113.91118,36.31477],[113.99447,36.34417],[114.02625,36.32512],[114.06053,36.27651],[114.17663,36.26313],[114.20303,36.24557],[114.25646,36.26402],[114.2901,36.24715],[114.34514,36.25579],[114.3561,36.23034],[114.41754,36.2059],[114.46617,36.19774],[114.48027,36.17782],[114.53287,36.17151],[114.55805,36.15076],[114.63039,36.12424],[114.65518,36.14025],[114.72067,36.14005],[114.73444,36.15578],[114.77865,36.13318],[114.85746,36.12775],[114.87944,36.14781],[114.91243,36.14046],[114.90705,36.11723],[114.95459,36.06781],[114.99842,36.06973],[115.04589,36.11222],[115.04846,36.16203],[115.06268,36.17824],[115.10458,36.17219],[115.11041,36.19938],[115.14283,36.20968],[115.17071,36.19101],[115.20178,36.21277],[115.24215,36.19121],[115.31307,36.08823],[115.36926,36.10273],[115.37791,36.1285],[115.43129,36.14918],[115.48357,36.14898],[115.47652,36.24653],[115.46268,36.2761],[115.41706,36.29276],[115.42296,36.32217],[115.35978,36.31874],[115.36869,36.34259],[115.33998,36.39808],[115.29744,36.41348],[115.31705,36.454],[115.29142,36.46057],[115.27284,36.49737],[115.29648,36.50886],[115.33127,36.55022],[115.33428,36.58247],[115.40643,36.66324],[115.44666,36.69463],[115.47831,36.7547]]]}},{"type":"Feature","id":"datav:130500","properties":{"boundaryId":"datav:130500","nodeId":"geo:cn-he-xts","parentNodeId":"geo:cn-he","bounds":[113.75818,36.7547,115.8539,37.80852]},"geometry":{"type":"Polygon","coordinates":[[[115.25509,37.64562],[115.26143,37.68818],[115.24324,37.72264],[115.15277,37.75951],[115.15052,37.80852],[115.09747,37.80785],[115.07229,37.79414],[115.07005,37.74565],[115.04102,37.73354],[115.01251,37.75157],[114.96017,37.72008],[114.90404,37.7293],[114.89597,37.71255],[114.84778,37.69673],[114.8415,37.67613],[114.80857,37.65983],[114.79742,37.62824],[114.72598,37.63067],[114.70734,37.61577],[114.68017,37.56528],[114.58522,37.55301],[114.51993,37.57466],[114.48347,37.57681],[114.4121,37.54991],[114.33463,37.50295],[114.30362,37.50781],[114.27293,37.49445],[114.21501,37.51125],[114.18458,37.53082],[114.15619,37.50524],[114.09648,37.49094],[114.06899,37.44738],[114.02267,37.4355],[113.97391,37.40313],[113.95981,37.34898],[113.90215,37.30995],[113.88645,37.23914],[113.85307,37.21509],[113.83192,37.16752],[113.77317,37.15186],[113.77349,37.10696],[113.75818,37.07567],[113.78823,37.05979],[113.77189,37.0168],[113.79495,36.995],[113.82878,37.01205],[113.88389,37.01089],[113.94174,36.98338],[113.98442,36.9415],[113.99108,36.91491],[114.02818,36.88124],[114.06367,36.87933],[114.10045,36.83904],[114.2259,36.84305],[114.25268,36.85653],[114.29997,36.84544],[114.35353,36.85204],[114.42119,36.83944],[114.46233,36.84768],[114.50775,36.82794],[114.55523,36.84598],[114.55171,36.88409],[114.64884,36.89845],[114.67107,36.91743],[114.70715,36.91804],[114.71817,36.9381],[114.77269,36.92845],[114.78749,36.91396],[114.86271,36.96972],[114.89244,36.96965],[114.94959,36.94878],[115.02161,36.96142],[115.0967,36.96455],[115.12502,36.93647],[115.10651,36.92396],[115.20056,36.86837],[115.28334,36.86259],[115.3075,36.83713],[115.33569,36.77583],[115.39066,36.76315],[115.42366,36.76608],[115.47831,36.7547],[115.53873,36.78414],[115.57212,36.77535],[115.68418,36.81295],[115.71128,36.88239],[115.7578,36.90301],[115.79682,36.96876],[115.77644,36.99207],[115.8539,37.05924],[115.82738,37.10601],[115.76997,37.14155],[115.75632,37.20988],[115.67258,37.27584],[115.63292,37.27706],[115.62344,37.29791],[115.52938,37.32686],[115.50663,37.369],[115.4286,37.38793],[115.36004,37.46143],[115.40418,37.46204],[115.39797,37.49735],[115.40579,37.53594],[115.36087,37.52394],[115.28258,37.57601],[115.20056,37.5725],[115.17276,37.60054],[115.20293,37.63713],[115.25509,37.64562]]]}},{"type":"Feature","id":"datav:130600","properties":{"boundaryId":"datav:130600","nodeId":"geo:cn-he-bds","parentNodeId":"geo:cn-he","bounds":[113.76753,38.23649,116.33534,39.95006]},"geometry":{"type":"Polygon","coordinates":[[[115.32473,38.24818],[115.35619,38.27176],[115.42091,38.33792],[115.4621,38.32731],[115.51682,38.35734],[115.51644,38.31817],[115.5905,38.33278],[115.64497,38.32611],[115.65016,38.34079],[115.69981,38.34993],[115.70532,38.36754],[115.73146,38.39262],[115.71596,38.43841],[115.74569,38.48131],[115.77042,38.48817],[115.8161,38.52545],[115.94072,38.53051],[115.93406,38.54668],[115.96058,38.58439],[115.9734,38.63551],[115.96629,38.70897],[115.94405,38.73546],[115.99512,38.77798],[116.04875,38.8607],[116.04554,38.89779],[116.11275,38.9097],[116.12108,38.93439],[116.15203,38.94835],[116.2095,38.92162],[116.29139,38.94868],[116.33534,38.984],[116.29376,39.00734],[116.31862,39.03742],[116.31759,39.07791],[116.26243,39.13811],[116.2218,39.14781],[116.20656,39.20743],[116.18612,39.22246],[116.20111,39.25191],[116.20873,39.3302],[116.19823,39.35132],[116.13582,39.35184],[116.11679,39.37624],[116.15133,39.47101],[116.18214,39.49635],[116.24468,39.51735],[116.24615,39.55718],[116.19688,39.58898],[116.12147,39.57495],[116.03619,39.57167],[116.02619,39.58741],[115.95956,39.56085],[115.92374,39.59731],[115.88299,39.54813],[115.85551,39.55501],[115.81924,39.53074],[115.82033,39.50974],[115.75254,39.51539],[115.73857,39.54629],[115.69789,39.57934],[115.68533,39.60367],[115.58704,39.58997],[115.49107,39.66846],[115.49927,39.69622],[115.48235,39.74248],[115.43987,39.7521],[115.43411,39.78231],[115.48376,39.79872],[115.50529,39.7846],[115.55488,39.79558],[115.56917,39.81421],[115.51432,39.83773],[115.52304,39.89891],[115.48069,39.93584],[115.4268,39.95006],[115.39989,39.89134],[115.36568,39.86751],[115.33005,39.80656],[115.28322,39.74517],[115.25086,39.73882],[115.21504,39.70807],[115.17763,39.70047],[115.16885,39.67265],[115.09529,39.70479],[115.05006,39.70925],[115.01149,39.67475],[114.93633,39.66368],[114.89103,39.63473],[114.83843,39.58918],[114.82164,39.61022],[114.71676,39.61867],[114.71208,39.59436],[114.65499,39.59921],[114.63353,39.55587],[114.58432,39.58584],[114.56343,39.55816],[114.53659,39.51289],[114.53268,39.48617],[114.50231,39.47711],[114.4968,39.43856],[114.47091,39.40879],[114.46662,39.32967],[114.43824,39.31914],[114.4251,39.28511],[114.43702,39.25942],[114.41594,39.24289],[114.46739,39.22588],[114.4697,39.19332],[114.44362,39.17413],[114.3882,39.17697],[114.36077,39.13396],[114.36968,39.10756],[114.34918,39.07679],[114.3001,39.07923],[114.22635,39.06649],[114.19701,39.05043],[114.15722,39.06113],[114.10871,39.05228],[114.0968,39.08372],[114.06527,39.09349],[114.05079,39.13587],[114.00646,39.12287],[113.99512,39.09548],[113.96173,39.10082],[113.93027,39.06345],[113.89805,39.06761],[113.80681,38.98969],[113.77676,38.98698],[113.76753,38.95967],[113.77618,38.88567],[113.8013,38.85487],[113.85557,38.82896],[113.83654,38.79595],[113.83955,38.75841],[113.88325,38.74667],[113.99166,38.67677],[114.05214,38.6864],[114.0861,38.65837],[114.18221,38.67657],[114.21283,38.68819],[114.3115,38.70652],[114.36641,38.6862],[114.4135,38.70393],[114.45265,38.69941],[114.49846,38.6783],[114.55228,38.61298],[114.58432,38.59643],[114.59572,38.5689],[114.6737,38.47345],[114.70208,38.4891],[114.73124,38.48191],[114.76526,38.49663],[114.81075,38.49237],[114.83785,38.43574],[114.88225,38.42415],[114.92339,38.38822],[114.93287,38.34419],[114.92288,38.31563],[114.88334,38.28485],[114.9701,38.28111],[114.98906,38.25814],[115.0662,38.26468],[115.16859,38.25961],[115.21017,38.23649],[115.22587,38.26989],[115.25221,38.29093],[115.27361,38.2403],[115.32473,38.24818]]]}},{"type":"Feature","id":"datav:130700","properties":{"boundaryId":"datav:130700","nodeId":"geo:cn-he-zjk","parentNodeId":"geo:cn-he","bounds":[113.8234,39.55587,116.46585,42.14087]},"geometry":{"type":"Polygon","coordinates":[[[116.36507,40.94322],[116.33355,40.98446],[116.29837,40.98664],[116.26473,41.03825],[116.29613,41.06212],[116.26877,41.10265],[116.23327,41.13085],[116.2459,41.16358],[116.22136,41.18593],[116.2352,41.21185],[116.2136,41.23329],[116.19163,41.28816],[116.2095,41.30772],[116.17484,41.35633],[116.14159,41.37344],[116.08751,41.37695],[116.03612,41.39769],[116.00447,41.43291],[115.98211,41.48513],[115.97391,41.52966],[115.92477,41.56862],[115.92925,41.59611],[115.90997,41.64292],[115.97289,41.6801],[116.0144,41.71536],[116.05631,41.73371],[116.08104,41.77635],[116.01665,41.77705],[115.99493,41.82861],[115.94694,41.88563],[115.91637,41.94514],[115.85307,41.92774],[115.82885,41.93698],[115.72442,41.86803],[115.68815,41.86771],[115.65387,41.82905],[115.5741,41.8054],[115.51977,41.76779],[115.48876,41.76093],[115.43007,41.72875],[115.34703,41.71231],[115.31903,41.69147],[115.36094,41.66136],[115.34549,41.63567],[115.37759,41.60248],[115.31154,41.59268],[115.29033,41.62295],[115.26425,41.61189],[115.25759,41.5811],[115.20422,41.57142],[115.19505,41.60209],[115.14239,41.61609],[115.05595,41.60228],[115.02501,41.61526],[114.93832,41.61323],[114.86073,41.60095],[114.89558,41.63644],[114.90289,41.68931],[114.89616,41.76766],[114.8663,41.80458],[114.92236,41.82512],[114.93921,41.84617],[114.92153,41.87594],[114.91685,41.98101],[114.9018,42.01553],[114.86085,42.05483],[114.8613,42.102],[114.82305,42.14087],[114.75488,42.11576],[114.67549,42.12043],[114.62481,42.11222],[114.56029,42.13241],[114.51096,42.1109],[114.5025,42.0674],[114.46611,42.03796],[114.5107,41.97329],[114.4763,41.95394],[114.42171,41.94217],[114.37404,41.95678],[114.28703,41.86866],[114.20296,41.79342],[114.20674,41.7384],[114.2325,41.71771],[114.21539,41.68506],[114.25935,41.6234],[114.22167,41.58224],[114.23103,41.51367],[114.10122,41.53775],[114.03215,41.5296],[113.97756,41.50666],[113.92124,41.45727],[113.88491,41.43814],[113.8712,41.41333],[113.94399,41.3908],[113.92259,41.29116],[114.00703,41.25075],[113.99678,41.19246],[113.97365,41.17428],[113.92041,41.17203],[113.87793,41.11559],[113.8234,41.09309],[113.86845,41.06885],[113.97295,40.98298],[113.99114,40.9402],[114.04138,40.91738],[114.05284,40.8703],[114.07354,40.85731],[114.04477,40.83111],[114.10417,40.76807],[114.14729,40.73346],[114.18323,40.67168],[114.20008,40.66219],[114.23615,40.60699],[114.28293,40.59078],[114.29343,40.55142],[114.28261,40.49516],[114.26723,40.4742],[114.29965,40.44009],[114.28709,40.42344],[114.31445,40.3696],[114.38224,40.36209],[114.44657,40.37285],[114.47078,40.3497],[114.53063,40.3451],[114.51096,40.30301],[114.46995,40.26809],[114.40639,40.24615],[114.36257,40.25011],[114.29311,40.23011],[114.25525,40.23621],[114.23583,40.19834],[114.18003,40.19152],[114.14511,40.17735],[114.09776,40.1936],[114.06803,40.17975],[114.10122,40.10874],[114.09116,40.07529],[114.04381,40.05686],[114.01946,40.10282],[113.97384,40.09716],[113.97557,40.05107],[113.932,40.00944],[114.02126,39.99178],[114.0474,39.91613],[114.06777,39.92233],[114.17413,39.8976],[114.212,39.91875],[114.22943,39.8995],[114.19944,39.87939],[114.22488,39.8517],[114.27697,39.87449],[114.28607,39.85824],[114.39544,39.86725],[114.40671,39.83348],[114.3907,39.81858],[114.40883,39.78238],[114.40812,39.65196],[114.43164,39.61402],[114.49584,39.60819],[114.51538,39.56498],[114.56343,39.55816],[114.58432,39.58584],[114.63353,39.55587],[114.65499,39.59921],[114.71208,39.59436],[114.71676,39.61867],[114.82164,39.61022],[114.83843,39.58918],[114.89103,39.63473],[114.93633,39.66368],[115.01149,39.67475],[115.05006,39.70925],[115.09529,39.70479],[115.16885,39.67265],[115.17763,39.70047],[115.21504,39.70807],[115.25086,39.73882],[115.28322,39.74517],[115.33005,39.80656],[115.36568,39.86751],[115.39989,39.89134],[115.4268,39.95006],[115.42853,39.98435],[115.45454,40.02971],[115.47857,40.03615],[115.52803,40.07633],[115.55546,40.08264],[115.59909,40.12],[115.71589,40.1334],[115.75485,40.14543],[115.77305,40.17618],[115.80656,40.15323],[115.87031,40.18606],[115.8985,40.23452],[115.96891,40.26426],[115.92265,40.32591],[115.9183,40.35392],[115.86448,40.35936],[115.79643,40.42681],[115.77042,40.44417],[115.78221,40.49206],[115.73601,40.50383],[115.75504,40.54005],[115.82738,40.58703],[115.88543,40.59524],[115.90779,40.61732],[115.97199,40.60234],[116.00511,40.58412],[116.09936,40.63056],[116.21886,40.74281],[116.24795,40.79184],[116.30792,40.75215],[116.31702,40.77226],[116.45394,40.76588],[116.46585,40.77451],[116.43683,40.82075],[116.33444,40.90465],[116.36507,40.94322]]]}},{"type":"Feature","id":"datav:130800","properties":{"boundaryId":"datav:130800","nodeId":"geo:cn-he-cds","parentNodeId":"geo:cn-he","bounds":[115.90997,40.19282,119.24837,42.61859]},"geometry":{"type":"Polygon","coordinates":[[[119.15847,40.61442],[119.14656,40.63579],[119.18583,40.67574],[119.15335,40.68871],[119.1151,40.66651],[119.05423,40.66496],[119.02706,40.69245],[118.98772,40.69793],[118.94934,40.74783],[118.91167,40.75608],[118.84625,40.8221],[118.87303,40.84804],[118.90347,40.96178],[118.94646,40.95812],[119.0006,40.96705],[119.01354,41.00764],[118.95197,41.01842],[118.93685,41.05262],[118.96466,41.07931],[119.03751,41.06738],[119.08063,41.09598],[119.0812,41.13142],[119.12637,41.13866],[119.18891,41.19816],[119.20954,41.24448],[119.24837,41.27665],[119.23946,41.31449],[119.2007,41.28234],[119.15495,41.29768],[119.09312,41.29366],[118.97472,41.30657],[118.89072,41.30075],[118.84491,41.34247],[118.84612,41.37382],[118.77001,41.35307],[118.74188,41.32407],[118.67697,41.35045],[118.62995,41.34643],[118.57997,41.35403],[118.47329,41.34566],[118.41242,41.33193],[118.38019,41.31212],[118.34912,41.34279],[118.34867,41.42832],[118.32708,41.45083],[118.27217,41.4713],[118.3158,41.51252],[118.30158,41.56964],[118.23052,41.58218],[118.21534,41.59567],[118.20688,41.65074],[118.16901,41.67076],[118.15517,41.71262],[118.1307,41.74228],[118.14037,41.78397],[118.16587,41.81327],[118.23603,41.80756],[118.24699,41.77401],[118.29229,41.77286],[118.34021,41.87246],[118.2689,41.93014],[118.30651,41.94027],[118.31401,41.98777],[118.25628,42.01072],[118.29728,42.04877],[118.27223,42.08331],[118.22661,42.09026],[118.20419,42.03487],[118.14185,42.03133],[118.15517,42.08116],[118.08886,42.11714],[118.10635,42.17196],[118.03363,42.19913],[117.97744,42.22988],[117.9711,42.24801],[118.04747,42.28056],[118.05996,42.29831],[118.01627,42.33329],[118.01941,42.3952],[117.94015,42.46277],[117.87409,42.51019],[117.84961,42.54662],[117.79759,42.58528],[117.7799,42.61859],[117.70725,42.58803],[117.66733,42.58246],[117.60031,42.603],[117.53996,42.60544],[117.5249,42.59073],[117.47351,42.60244],[117.43315,42.55577],[117.39637,42.53634],[117.4163,42.51233],[117.41284,42.47249],[117.39073,42.46208],[117.33006,42.46189],[117.27547,42.48191],[117.17596,42.46553],[117.09491,42.48366],[117.07954,42.46063],[117.01674,42.45649],[117.00669,42.43295],[116.91442,42.40268],[116.88681,42.36661],[116.89744,42.29762],[116.91852,42.22988],[116.9034,42.19087],[116.78923,42.20026],[116.82517,42.15556],[116.85022,42.15632],[116.89065,42.09266],[116.87963,42.01837],[116.83196,42.00535],[116.79621,41.9781],[116.74463,41.98215],[116.72746,41.95109],[116.66915,41.94774],[116.63481,41.92995],[116.56638,41.92875],[116.53371,41.93888],[116.51416,41.97007],[116.48264,41.97589],[116.45387,41.94596],[116.39313,41.94299],[116.41402,41.98221],[116.37372,42.00997],[116.32727,42.00567],[116.29837,41.96811],[116.2334,41.94141],[116.19316,41.86182],[116.13473,41.86384],[116.10571,41.83476],[116.12922,41.80661],[116.08104,41.77635],[116.05631,41.73371],[116.0144,41.71536],[115.97289,41.6801],[115.90997,41.64292],[115.92925,41.59611],[115.92477,41.56862],[115.97391,41.52966],[115.98211,41.48513],[116.00447,41.43291],[116.03612,41.39769],[116.08751,41.37695],[116.14159,41.37344],[116.17484,41.35633],[116.2095,41.30772],[116.19163,41.28816],[116.2136,41.23329],[116.2352,41.21185],[116.22136,41.18593],[116.2459,41.16358],[116.23327,41.13085],[116.26877,41.10265],[116.29613,41.06212],[116.26473,41.03825],[116.29837,40.98664],[116.33355,40.98446],[116.36507,40.94322],[116.39852,40.906],[116.45868,40.9006],[116.47361,40.91976],[116.44747,40.95382],[116.45554,40.98048],[116.51679,40.97527],[116.56972,40.99127],[116.61431,40.98292],[116.63084,41.06077],[116.68863,41.04467],[116.69888,41.02125],[116.67774,40.97123],[116.72233,40.92741],[116.71324,40.91198],[116.7595,40.88986],[116.81364,40.84843],[116.87617,40.8212],[116.89462,40.7816],[116.92339,40.77374],[116.92653,40.74487],[116.97997,40.70283],[117.03103,40.69213],[117.11067,40.70825],[117.11779,40.70006],[117.20236,40.69561],[117.2904,40.66019],[117.40925,40.68729],[117.49286,40.67542],[117.50126,40.63676],[117.43026,40.62604],[117.41271,40.60512],[117.43001,40.57611],[117.38746,40.56086],[117.34274,40.5816],[117.26944,40.56047],[117.20858,40.50112],[117.26336,40.44235],[117.23408,40.41716],[117.2285,40.38639],[117.29635,40.27809],[117.33147,40.28977],[117.35094,40.22998],[117.38638,40.22712],[117.41912,40.24979],[117.45006,40.25251],[117.51433,40.22771],[117.57167,40.21926],[117.57545,40.19282],[117.64625,40.20516],[117.69411,40.23816],[117.75152,40.22972],[117.80778,40.26193],[117.89799,40.27043],[117.90946,40.28588],[118.00089,40.29256],[118.06156,40.31909],[118.07931,40.35353],[118.12186,40.3547],[118.16523,40.40045],[118.15312,40.40952],[118.23968,40.46469],[118.27794,40.42571],[118.30658,40.41956],[118.38731,40.43672],[118.40268,40.41684],[118.50321,40.40337],[118.54806,40.42267],[118.57151,40.41464],[118.53999,40.36105],[118.53333,40.29885],[118.56895,40.28756],[118.6402,40.35457],[118.64379,40.38095],[118.61835,40.42519],[118.7028,40.49141],[118.72349,40.47375],[118.77295,40.47977],[118.82133,40.53196],[118.864,40.52724],[118.88694,40.54244],[118.91904,40.53093],[118.966,40.5361],[118.98337,40.56364],[119.06339,40.60615],[119.10549,40.60363],[119.15847,40.61442]]]}},{"type":"Feature","id":"datav:130900","properties":{"boundaryId":"datav:130900","nodeId":"geo:cn-he-cgz","parentNodeId":"geo:cn-he","bounds":[115.70532,37.47338,117.95802,38.94835]},"geometry":{"type":"Polygon","coordinates":[[[116.33592,37.58126],[116.3677,37.56629],[116.36891,37.52636],[116.40217,37.50983],[116.43414,37.47338],[116.45612,37.51368],[116.48642,37.52421],[116.53851,37.56845],[116.57465,37.60998],[116.60451,37.62514],[116.66396,37.68778],[116.67979,37.72876],[116.74418,37.75735],[116.75367,37.79299],[116.78814,37.8434],[116.84375,37.83446],[116.91936,37.84588],[117.02719,37.83238],[117.07435,37.84877],[117.15014,37.83957],[117.18532,37.84978],[117.27137,37.8399],[117.34428,37.86268],[117.4063,37.84353],[117.43859,37.85388],[117.48114,37.91484],[117.51279,37.94343],[117.52797,37.99627],[117.58378,38.07065],[117.70449,38.07608],[117.74319,38.12341],[117.76882,38.13191],[117.76696,38.15867],[117.7892,38.18074],[117.80854,38.22841],[117.94835,38.34646],[117.95802,38.37615],[117.93746,38.38775],[117.84641,38.36801],[117.78119,38.37381],[117.73051,38.42495],[117.72512,38.45733],[117.6788,38.47705],[117.64785,38.50868],[117.63856,38.57003],[117.63901,38.62674],[117.55783,38.61378],[117.54143,38.60361],[117.4789,38.61724],[117.43244,38.60135],[117.39195,38.57269],[117.30564,38.55659],[117.25317,38.55619],[117.23837,38.581],[117.25951,38.60308],[117.23068,38.62402],[117.1511,38.6177],[117.09818,38.58692],[117.07153,38.6074],[117.05173,38.64349],[117.06813,38.68062],[116.99445,38.6957],[116.87726,38.68069],[116.85913,38.7413],[116.76635,38.74196],[116.75886,38.73207],[116.77404,38.65226],[116.73374,38.61405],[116.70279,38.6191],[116.66223,38.58127],[116.66826,38.53004],[116.61059,38.47965],[116.5594,38.49676],[116.51948,38.48817],[116.46573,38.4941],[116.44977,38.51826],[116.45483,38.58034],[116.38198,38.61917],[116.37084,38.69251],[116.40633,38.7036],[116.4358,38.7332],[116.42299,38.77042],[116.33829,38.80689],[116.27197,38.81663],[116.2475,38.84891],[116.2022,38.88726],[116.2095,38.92162],[116.15203,38.94835],[116.12108,38.93439],[116.11275,38.9097],[116.04554,38.89779],[116.04875,38.8607],[115.99512,38.77798],[115.94405,38.73546],[115.96629,38.70897],[115.9734,38.63551],[115.96058,38.58439],[115.93406,38.54668],[115.94072,38.53051],[115.8161,38.52545],[115.77042,38.48817],[115.74569,38.48131],[115.71596,38.43841],[115.73146,38.39262],[115.70532,38.36754],[115.73877,38.36954],[115.80463,38.34546],[115.84154,38.34606],[115.85019,38.30942],[115.83718,38.2725],[115.86448,38.25527],[115.87127,38.21758],[115.89952,38.20314],[115.88754,38.17131],[115.9354,38.16723],[115.93867,38.14435],[115.98673,38.12588],[116.04977,38.14603],[116.03151,38.08277],[116.05547,38.07173],[116.04247,38.02671],[116.10065,37.94893],[116.09103,37.91095],[116.15395,37.91457],[116.17016,37.95959],[116.20912,37.96637],[116.22635,37.95121],[116.27825,37.96248],[116.32919,38.00814],[116.3709,38.0186],[116.41722,38.00948],[116.56324,38.01987],[116.56517,37.98012],[116.51346,37.86395],[116.47342,37.8655],[116.48142,37.83003],[116.45118,37.7587],[116.38653,37.69639],[116.37519,37.61726],[116.3281,37.60506],[116.33592,37.58126]]]}},{"type":"Feature","id":"datav:131000","properties":{"boundaryId":"datav:131000","nodeId":"geo:cn-he-lfs","parentNodeId":"geo:cn-he","bounds":[116.11679,38.47965,117.2278,40.08225]},"geometry":{"type":"MultiPolygon","coordinates":[[[[116.24468,39.51735],[116.18214,39.49635],[116.15133,39.47101],[116.11679,39.37624],[116.13582,39.35184],[116.19823,39.35132],[116.20873,39.3302],[116.20111,39.25191],[116.18612,39.22246],[116.20656,39.20743],[116.2218,39.14781],[116.26243,39.13811],[116.31759,39.07791],[116.31862,39.03742],[116.29376,39.00734],[116.33534,38.984],[116.29139,38.94868],[116.2095,38.92162],[116.2022,38.88726],[116.2475,38.84891],[116.27197,38.81663],[116.33829,38.80689],[116.42299,38.77042],[116.4358,38.7332],[116.40633,38.7036],[116.37084,38.69251],[116.38198,38.61917],[116.45483,38.58034],[116.44977,38.51826],[116.46573,38.4941],[116.51948,38.48817],[116.5594,38.49676],[116.61059,38.47965],[116.66826,38.53004],[116.66223,38.58127],[116.70279,38.6191],[116.73374,38.61405],[116.77404,38.65226],[116.75886,38.73207],[116.76635,38.74196],[116.7463,38.75423],[116.73848,38.80702],[116.75123,38.83128],[116.7231,38.85255],[116.72233,38.89706],[116.70811,38.93188],[116.72861,38.97534],[116.75463,39.00325],[116.75661,39.0503],[116.86047,39.05056],[116.9241,39.11937],[116.90923,39.15078],[116.87008,39.15369],[116.8558,39.21567],[116.89264,39.22397],[116.86797,39.30255],[116.88963,39.33816],[116.82921,39.33888],[116.81812,39.37355],[116.83414,39.40267],[116.83247,39.43547],[116.78512,39.46588],[116.82075,39.48243],[116.78769,39.55456],[116.81165,39.57698],[116.74867,39.61992],[116.70074,39.62103],[116.62052,39.6017],[116.60777,39.61972],[116.52442,39.59652],[116.50846,39.55108],[116.44381,39.50987],[116.45471,39.45334],[116.35046,39.45301],[116.30644,39.489],[116.25794,39.50055],[116.24468,39.51735]]],[[[117.20979,40.08225],[117.05205,40.0594],[117.02853,40.03394],[117.00066,40.0299],[116.92813,40.05491],[116.86784,40.04189],[116.82273,40.04644],[116.78154,40.03485],[116.77539,39.99276],[116.75732,39.96147],[116.78058,39.94973],[116.78468,39.8914],[116.82728,39.87704],[116.86605,39.84387],[116.92589,39.83537],[116.95261,39.78983],[116.9018,39.76361],[116.91666,39.73136],[116.88277,39.71847],[116.9446,39.69517],[116.96363,39.64344],[117.01578,39.65405],[117.12708,39.61697],[117.17769,39.6456],[117.16187,39.74739],[117.20588,39.76387],[117.15751,39.79676],[117.15636,39.81747],[117.2278,39.85275],[117.16687,39.86894],[117.13746,39.92162],[117.19813,39.99276],[117.1841,40.06259],[117.20979,40.08225]]]]}},{"type":"Feature","id":"datav:131100","properties":{"boundaryId":"datav:131100","nodeId":"geo:cn-he-hgs","parentNodeId":"geo:cn-he","bounds":[115.17276,37.05924,116.56517,38.36954]},"geometry":{"type":"Polygon","coordinates":[[[115.8539,37.05924],[115.88543,37.12873],[115.87998,37.15199],[115.91183,37.1762],[115.91202,37.2071],[115.96943,37.23948],[115.96827,37.28708],[116.00947,37.34317],[116.05618,37.36907],[116.10654,37.36879],[116.16882,37.38414],[116.19547,37.36568],[116.23603,37.36156],[116.28524,37.40266],[116.26307,37.42239],[116.22443,37.47973],[116.24135,37.49148],[116.29023,37.48405],[116.27844,37.52475],[116.28786,37.5493],[116.33592,37.58126],[116.3281,37.60506],[116.37519,37.61726],[116.38653,37.69639],[116.45118,37.7587],[116.48142,37.83003],[116.47342,37.8655],[116.51346,37.86395],[116.56517,37.98012],[116.56324,38.01987],[116.41722,38.00948],[116.3709,38.0186],[116.32919,38.00814],[116.27825,37.96248],[116.22635,37.95121],[116.20912,37.96637],[116.17016,37.95959],[116.15395,37.91457],[116.09103,37.91095],[116.10065,37.94893],[116.04247,38.02671],[116.05547,38.07173],[116.03151,38.08277],[116.04977,38.14603],[115.98673,38.12588],[115.93867,38.14435],[115.9354,38.16723],[115.88754,38.17131],[115.89952,38.20314],[115.87127,38.21758],[115.86448,38.25527],[115.83718,38.2725],[115.85019,38.30942],[115.84154,38.34606],[115.80463,38.34546],[115.73877,38.36954],[115.70532,38.36754],[115.69981,38.34993],[115.65016,38.34079],[115.64497,38.32611],[115.5905,38.33278],[115.51644,38.31817],[115.51682,38.35734],[115.4621,38.32731],[115.42091,38.33792],[115.35619,38.27176],[115.32473,38.24818],[115.34242,38.19625],[115.3469,38.13967],[115.36484,38.13793],[115.38323,38.0886],[115.43987,38.08204],[115.46678,38.06355],[115.43821,38.0011],[115.45602,37.97455],[115.44859,37.93658],[115.36548,37.90632],[115.34447,37.74814],[115.38618,37.72708],[115.38099,37.70743],[115.33377,37.71322],[115.32557,37.68246],[115.30141,37.66017],[115.29738,37.62959],[115.25509,37.64562],[115.20293,37.63713],[115.17276,37.60054],[115.20056,37.5725],[115.28258,37.57601],[115.36087,37.52394],[115.40579,37.53594],[115.39797,37.49735],[115.40418,37.46204],[115.36004,37.46143],[115.4286,37.38793],[115.50663,37.369],[115.52938,37.32686],[115.62344,37.29791],[115.63292,37.27706],[115.67258,37.27584],[115.75632,37.20988],[115.76997,37.14155],[115.82738,37.10601],[115.8539,37.05924]]]}}]}