{"type":"FeatureCollection","features":[{"type":"Feature","id":"datav:630100","properties":{"boundaryId":"datav:630100","nodeId":"geo:cn-qh-xnn","parentNodeId":"geo:cn-qh","bounds":[100.86927,36.23105,101.9145,37.47028]},"geometry":{"type":"Polygon","coordinates":[[[100.91737,36.74132],[100.95373,36.69035],[100.94936,36.66313],[100.99036,36.62525],[100.99323,36.56459],[101.00908,36.52651],[101.07523,36.48255],[101.08138,36.446],[101.14137,36.3843],[101.18319,36.37339],[101.20055,36.34018],[101.27517,36.30591],[101.30756,36.33747],[101.34323,36.34831],[101.37822,36.39288],[101.43849,36.37286],[101.45598,36.35321],[101.5414,36.32542],[101.60317,36.32233],[101.60317,36.28202],[101.6454,36.26762],[101.66836,36.23105],[101.70608,36.25013],[101.71619,36.27893],[101.82156,36.2943],[101.82867,36.32715],[101.86352,36.38174],[101.8519,36.44284],[101.89741,36.49668],[101.89195,36.5332],[101.91176,36.57308],[101.87951,36.61377],[101.77564,36.67656],[101.79095,36.70595],[101.80434,36.82115],[101.80516,36.90673],[101.83755,36.93304],[101.83127,36.9816],[101.85573,37.03409],[101.88457,37.04745],[101.88457,37.12211],[101.9145,37.14813],[101.8709,37.17927],[101.76225,37.22053],[101.61178,37.26474],[101.5403,37.27791],[101.53525,37.32254],[101.49766,37.33785],[101.32956,37.35257],[101.28528,37.38356],[101.2533,37.36588],[101.21367,37.37799],[101.12976,37.37724],[101.0196,37.41387],[100.96371,37.4498],[100.95414,37.47028],[100.88143,37.4155],[100.86927,37.35332],[100.89633,37.33763],[100.932,37.2614],[101.00744,37.24919],[101.04912,37.22038],[101.08056,37.22894],[101.12894,37.21033],[101.15791,37.14723],[101.19768,37.11063],[101.22501,37.10862],[101.28952,36.9993],[101.27968,36.96233],[101.29772,36.92512],[101.27544,36.89918],[101.23007,36.91525],[101.18005,36.88699],[101.08862,36.80378],[101.02288,36.78364],[100.9674,36.82152],[100.90699,36.79854],[100.91737,36.74132]]]}},{"type":"Feature","id":"datav:630200","properties":{"boundaryId":"datav:630200","nodeId":null,"bounds":[101.66686,35.44832,103.0491,37.14813]},"geometry":{"type":"Polygon","coordinates":[[[102.45064,35.44832],[102.43807,35.45533],[102.49861,35.54522],[102.53018,35.58105],[102.58717,35.5418],[102.69527,35.52848],[102.7457,35.49507],[102.80871,35.56044],[102.7632,35.61184],[102.74393,35.65781],[102.70798,35.70497],[102.68598,35.77214],[102.71509,35.81544],[102.77399,35.85751],[102.91408,35.84508],[102.95617,35.86244],[102.94237,35.92682],[102.97175,35.99531],[102.91011,36.08822],[102.94114,36.10492],[102.94852,36.14887],[102.98747,36.19378],[103.0491,36.19922],[103.02136,36.23346],[103.02505,36.25608],[102.92378,36.29769],[102.89672,36.33182],[102.84533,36.3322],[102.83331,36.36985],[102.76675,36.46555],[102.78875,36.48187],[102.77317,36.52095],[102.7345,36.56227],[102.76456,36.57548],[102.63063,36.65091],[102.6022,36.70955],[102.70484,36.79173],[102.64744,36.8344],[102.63746,36.8537],[102.58867,36.86881],[102.56161,36.91899],[102.46704,36.95449],[102.45037,36.96853],[102.50613,37.01924],[102.4885,37.07856],[102.38791,37.10675],[102.30441,37.08647],[102.19412,37.07737],[102.16378,37.05558],[102.11827,37.06148],[102.04529,37.09676],[102.00278,37.10042],[101.9145,37.14813],[101.88457,37.12211],[101.88457,37.04745],[101.85573,37.03409],[101.83127,36.9816],[101.83755,36.93304],[101.80516,36.90673],[101.80434,36.82115],[101.79095,36.70595],[101.77564,36.67656],[101.87951,36.61377],[101.91176,36.57308],[101.89195,36.5332],[101.89741,36.49668],[101.8519,36.44284],[101.86352,36.38174],[101.82867,36.32715],[101.82156,36.2943],[101.71619,36.27893],[101.70608,36.25013],[101.66836,36.23105],[101.66686,36.1608],[101.72699,36.16752],[101.76963,36.1565],[101.79997,36.11799],[101.85067,36.12441],[101.88757,36.10976],[101.935,36.06283],[101.95604,36.02624],[102.01795,35.99236],[102.04132,35.95437],[102.05349,35.90698],[102.09435,35.91932],[102.11512,35.87168],[102.07822,35.86153],[102.10077,35.83015],[102.08205,35.81378],[102.14191,35.75021],[102.12414,35.73534],[102.16241,35.69374],[102.21284,35.70801],[102.22637,35.65409],[102.26915,35.62407],[102.34992,35.60872],[102.35456,35.5904],[102.42672,35.53967],[102.41292,35.46355],[102.45064,35.44832]]]}},{"type":"Feature","id":"datav:632200","properties":{"boundaryId":"datav:632200","nodeId":"geo:cn-qh-hbz","parentNodeId":"geo:cn-qh","bounds":[98.09329,36.74132,102.64211,39.08769]},"geometry":{"type":"Polygon","coordinates":[[[101.9145,37.14813],[102.00278,37.10042],[102.04529,37.09676],[102.11827,37.06148],[102.16378,37.05558],[102.19412,37.07737],[102.30441,37.08647],[102.38791,37.10675],[102.4885,37.07856],[102.61177,37.10444],[102.64211,37.09967],[102.60084,37.17428],[102.56845,37.18002],[102.53305,37.2174],[102.48959,37.22381],[102.45761,37.24889],[102.42836,37.30826],[102.36837,37.32767],[102.29894,37.37004],[102.24878,37.41149],[102.1974,37.42055],[102.17321,37.4613],[102.10337,37.49284],[102.13084,37.54735],[102.03531,37.62759],[102.04734,37.65431],[102.0334,37.6885],[101.99909,37.72505],[101.94634,37.72808],[101.85436,37.66468],[101.78904,37.69716],[101.6592,37.73333],[101.67041,37.75425],[101.59839,37.82748],[101.5004,37.85797],[101.44313,37.86808],[101.38259,37.82216],[101.36236,37.79121],[101.27913,37.83671],[101.20274,37.84756],[101.16105,37.86757],[101.15217,37.89118],[101.0345,37.97658],[100.96412,38.01106],[100.91847,37.99957],[100.89482,38.01357],[100.88731,38.04958],[100.9227,38.08558],[100.92503,38.14891],[100.91327,38.17868],[100.86298,38.14928],[100.82198,38.162],[100.75187,38.23878],[100.71483,38.25361],[100.61903,38.26573],[100.59511,38.24231],[100.5466,38.24693],[100.52063,38.27109],[100.43535,38.30132],[100.39667,38.29325],[100.31823,38.32839],[100.33148,38.34174],[100.29718,38.38859],[100.2596,38.36638],[100.24005,38.4417],[100.16475,38.46044],[100.06403,38.51855],[100.02576,38.50794],[100.00116,38.46696],[100.02193,38.43298],[100.09204,38.40822],[100.12389,38.34768],[100.16434,38.32802],[100.16639,38.26962],[100.18416,38.23526],[100.16024,38.21704],[100.12785,38.23063],[100.09915,38.27065],[100.05009,38.28327],[99.99856,38.31644],[99.95975,38.32069],[99.83074,38.36865],[99.7583,38.41049],[99.67904,38.43665],[99.64596,38.46894],[99.58542,38.4985],[99.52747,38.54751],[99.51422,38.59766],[99.49604,38.61293],[99.4508,38.60446],[99.4124,38.66551],[99.37154,38.69055],[99.36211,38.7182],[99.29104,38.7659],[99.22216,38.78893],[99.14125,38.85274],[99.06882,38.89707],[99.0654,38.9157],[99.109,38.94639],[99.05447,38.97656],[98.94965,38.98848],[98.90291,39.01254],[98.88719,39.03927],[98.82009,39.06359],[98.81325,39.08769],[98.74383,39.08689],[98.66333,38.99452],[98.61454,38.98049],[98.62397,38.95926],[98.57299,38.93243],[98.52639,38.95555],[98.45751,38.95294],[98.40107,39.00149],[98.38398,39.02939],[98.31688,39.0405],[98.28107,39.02706],[98.2875,38.99219],[98.27014,38.95454],[98.23542,38.91905],[98.25128,38.89125],[98.09329,38.78631],[98.14194,38.73739],[98.13661,38.71062],[98.18253,38.66756],[98.2957,38.66325],[98.36813,38.61563],[98.41815,38.59839],[98.53896,38.57954],[98.60853,38.52689],[98.68301,38.53033],[98.71157,38.52089],[98.73563,38.48526],[98.88186,38.47501],[98.94814,38.44404],[98.98354,38.39687],[98.90919,38.36352],[98.93871,38.32487],[98.90783,38.2887],[98.94746,38.2716],[99.00295,38.2785],[99.03998,38.25699],[99.12294,38.27321],[99.17269,38.30822],[99.24744,38.32869],[99.25031,38.30184],[99.28393,38.27454],[99.36402,38.2473],[99.43864,38.25846],[99.4985,38.25068],[99.52419,38.20955],[99.58501,38.20022],[99.59471,38.16251],[99.57927,38.10963],[99.64733,38.07667],[99.55959,38.02948],[99.49946,38.03264],[99.38069,38.00708],[99.35896,37.96736],[99.39231,37.94724],[99.37523,37.92408],[99.51244,37.85775],[99.60045,37.83678],[99.66154,37.81204],[99.64842,37.79305],[99.65772,37.73584],[99.68915,37.71987],[99.68614,37.66727],[99.63585,37.65402],[99.59075,37.611],[99.54155,37.59677],[99.54305,37.5635],[99.50096,37.54408],[99.46365,37.48268],[99.47609,37.41179],[99.41705,37.37011],[99.41828,37.33057],[99.43932,37.2803],[99.4232,37.2422],[99.43071,37.18285],[99.45436,37.15662],[99.51299,37.1438],[99.54893,37.11734],[99.63134,37.08632],[99.68819,37.04275],[99.74081,37.03655],[99.83976,36.96659],[100.27818,36.86732],[100.53662,36.81456],[100.69638,36.77623],[100.72563,36.75398],[100.80107,36.75735],[100.86271,36.78035],[100.91737,36.74132],[100.90699,36.79854],[100.9674,36.82152],[101.02288,36.78364],[101.08862,36.80378],[101.18005,36.88699],[101.23007,36.91525],[101.27544,36.89918],[101.29772,36.92512],[101.27968,36.96233],[101.28952,36.9993],[101.22501,37.10862],[101.19768,37.11063],[101.15791,37.14723],[101.12894,37.21033],[101.08056,37.22894],[101.04912,37.22038],[101.00744,37.24919],[100.932,37.2614],[100.89633,37.33763],[100.86927,37.35332],[100.88143,37.4155],[100.95414,37.47028],[100.96371,37.4498],[101.0196,37.41387],[101.12976,37.37724],[101.21367,37.37799],[101.2533,37.36588],[101.28528,37.38356],[101.32956,37.35257],[101.49766,37.33785],[101.53525,37.32254],[101.5403,37.27791],[101.61178,37.26474],[101.76225,37.22053],[101.8709,37.17927],[101.9145,37.14813]]]}},{"type":"Feature","id":"datav:632300","properties":{"boundaryId":"datav:632300","nodeId":"geo:cn-qh-hn7","parentNodeId":"geo:cn-qh","bounds":[100.68764,34.10007,102.45064,36.16752]},"geometry":{"type":"MultiPolygon","coordinates":[[[[100.95059,34.38365],[100.98694,34.37463],[101.02398,34.34306],[101.07072,34.32885],[101.16912,34.3192],[101.19385,34.33673],[101.23526,34.32514],[101.32328,34.24843],[101.37166,34.24774],[101.41566,34.22841],[101.53033,34.21048],[101.5824,34.19548],[101.65223,34.14875],[101.64964,34.12677],[101.75747,34.10007],[101.78835,34.13165],[101.8381,34.12468],[101.89564,34.13397],[101.95509,34.10967],[101.96752,34.15564],[102.00319,34.1619],[102.01522,34.22432],[102.06497,34.23321],[102.06059,34.2795],[102.08506,34.2917],[102.1333,34.27293],[102.16952,34.30839],[102.18646,34.35278],[102.21926,34.33981],[102.25931,34.35556],[102.22487,34.38342],[102.17567,34.4476],[102.15585,34.50756],[102.09298,34.53637],[102.00374,34.5383],[101.97436,34.54893],[101.93459,34.5875],[101.91983,34.62521],[101.91791,34.78409],[101.92748,34.80298],[101.91723,34.87511],[101.98597,34.89988],[102.0282,34.89628],[102.09503,34.9868],[102.13248,35.01475],[102.10105,35.06444],[102.05472,35.07852],[102.04173,35.13986],[102.01563,35.16539],[102.05212,35.18389],[102.0159,35.24897],[101.98474,35.28012],[101.99144,35.3011],[101.9365,35.33803],[101.91641,35.30667],[101.88443,35.30355],[101.86871,35.25202],[101.84849,35.24179],[101.79505,35.25363],[101.75282,35.22194],[101.73164,35.25477],[101.54987,35.25836],[101.50668,35.21674],[101.45994,35.21934],[101.44696,35.2563],[101.4061,35.22904],[101.41894,35.18664],[101.39885,35.17212],[101.34528,35.18068],[101.35553,35.20498],[101.34132,35.27706],[101.40664,35.28897],[101.39175,35.33589],[101.29007,35.36914],[101.2421,35.36876],[101.16215,35.40314],[101.04338,35.41106],[100.96453,35.401],[100.93487,35.41701],[100.84207,35.4324],[100.81651,35.41358],[100.71237,35.42295],[100.68764,35.40489],[100.73301,35.34253],[100.81241,35.33399],[100.91109,35.30362],[100.87337,35.24782],[100.78125,35.18106],[100.75419,35.17342],[100.69693,35.11738],[100.69748,35.07974],[100.73848,35.04446],[100.81173,35.00725],[100.87309,35.00005],[100.91942,34.98228],[100.96808,34.93193],[101.05541,34.88953],[101.13153,34.88278],[101.14834,34.83514],[101.12607,34.8039],[101.08083,34.7814],[101.10092,34.74107],[101.06566,34.71549],[101.03696,34.65144],[101.00033,34.64098],[100.95974,34.66359],[100.88963,34.66359],[100.91027,34.62621],[100.91669,34.57018],[100.94676,34.53976],[100.97013,34.54246],[100.97628,34.44744],[100.95059,34.38365]]],[[[101.54987,35.25836],[101.73164,35.25477],[101.75282,35.22194],[101.79505,35.25363],[101.84849,35.24179],[101.86871,35.25202],[101.88443,35.30355],[101.91641,35.30667],[101.9365,35.33803],[101.99144,35.3011],[101.98474,35.28012],[102.0159,35.24897],[102.05212,35.18389],[102.01563,35.16539],[102.04173,35.13986],[102.05472,35.07852],[102.10105,35.06444],[102.13248,35.01475],[102.21393,35.0365],[102.29511,35.07064],[102.31028,35.12824],[102.40349,35.17816],[102.36563,35.23858],[102.37083,35.26279],[102.3122,35.28248],[102.31766,35.34283],[102.28213,35.385],[102.31479,35.43438],[102.40868,35.41007],[102.45064,35.44832],[102.41292,35.46355],[102.42672,35.53967],[102.35456,35.5904],[102.34992,35.60872],[102.26915,35.62407],[102.22637,35.65409],[102.21284,35.70801],[102.16241,35.69374],[102.12414,35.73534],[102.14191,35.75021],[102.08205,35.81378],[102.10077,35.83015],[102.07822,35.86153],[102.11512,35.87168],[102.09435,35.91932],[102.05349,35.90698],[102.04132,35.95437],[102.01795,35.99236],[101.95604,36.02624],[101.935,36.06283],[101.88757,36.10976],[101.85067,36.12441],[101.79997,36.11799],[101.76963,36.1565],[101.72699,36.16752],[101.66686,36.1608],[101.63843,36.11648],[101.65661,36.05777],[101.64554,35.99985],[101.68175,35.96452],[101.67998,35.92886],[101.73369,35.90251],[101.66522,35.81514],[101.66303,35.77639],[101.68517,35.75772],[101.76457,35.74725],[101.7725,35.71689],[101.75911,35.66298],[101.72781,35.64421],[101.67765,35.57603],[101.66399,35.52635],[101.59374,35.49606],[101.54864,35.49149],[101.53306,35.46911],[101.48632,35.49111],[101.38983,35.49781],[101.3953,35.45502],[101.45584,35.4023],[101.47976,35.35229],[101.43739,35.33437],[101.39175,35.33589],[101.40664,35.28897],[101.45926,35.28134],[101.506,35.32743],[101.54932,35.31224],[101.54987,35.25836]]]]}},{"type":"Feature","id":"datav:632500","properties":{"boundaryId":"datav:632500","nodeId":"geo:cn-qh-hnn","parentNodeId":"geo:cn-qh","bounds":[98.92122,34.64098,101.7725,37.16705]},"geometry":{"type":"MultiPolygon","coordinates":[[[[100.91737,36.74132],[100.86271,36.78035],[100.80107,36.75735],[100.72563,36.75398],[100.69638,36.77623],[100.53662,36.81456],[100.27818,36.86732],[99.83976,36.96659],[99.74081,37.03655],[99.68819,37.04275],[99.63134,37.08632],[99.54893,37.11734],[99.51299,37.1438],[99.45436,37.15662],[99.38274,37.16705],[99.35965,37.13508],[99.32179,37.12368],[99.27177,37.08908],[99.23104,36.97667],[99.16011,36.95456],[99.26453,36.90523],[99.29746,36.84966],[99.38739,36.79832],[99.43099,36.7605],[99.42279,36.74072],[99.44684,36.68698],[99.37427,36.65496],[99.3345,36.6209],[99.26316,36.60424],[99.08549,36.53305],[98.97712,36.49818],[98.92122,36.48676],[98.92983,36.44675],[98.98901,36.40982],[99.06595,36.32399],[99.04969,36.2882],[99.04381,36.23324],[98.99338,36.19129],[98.96769,36.12932],[98.98026,36.08785],[99.04026,36.04651],[99.08946,35.99992],[99.07114,35.96815],[99.11679,35.91145],[99.10244,35.88342],[99.12472,35.86615],[99.12677,35.80263],[99.1638,35.7911],[99.20822,35.7279],[99.20562,35.68257],[99.15601,35.61982],[99.21109,35.60462],[99.31468,35.55047],[99.31318,35.5141],[99.26576,35.47474],[99.21314,35.48015],[99.2212,35.45045],[99.27819,35.4452],[99.31209,35.41244],[99.292,35.37608],[99.25633,35.37044],[99.17938,35.30004],[99.18171,35.27058],[99.23432,35.22117],[99.2663,35.21262],[99.33177,35.13412],[99.37058,35.09841],[99.47745,34.96581],[99.55371,34.95983],[99.59294,34.9396],[99.65375,34.93615],[99.67207,34.91047],[99.70787,34.9018],[99.73821,34.86476],[99.79917,34.8498],[99.81543,34.83123],[99.87215,34.84228],[99.96945,34.80797],[100.02467,34.80643],[100.07414,34.82969],[100.10612,34.88654],[100.18621,34.89536],[100.25208,34.89076],[100.298,34.91024],[100.31836,34.89283],[100.31741,34.85041],[100.35649,34.82148],[100.48537,34.80636],[100.5563,34.74146],[100.58787,34.73439],[100.59826,34.70319],[100.64295,34.73086],[100.69556,34.6732],[100.76772,34.67244],[100.79328,34.69496],[100.85287,34.72156],[100.8787,34.70941],[100.88963,34.66359],[100.95974,34.66359],[101.00033,34.64098],[101.03696,34.65144],[101.06566,34.71549],[101.10092,34.74107],[101.08083,34.7814],[101.12607,34.8039],[101.14834,34.83514],[101.13153,34.88278],[101.05541,34.88953],[100.96808,34.93193],[100.91942,34.98228],[100.87309,35.00005],[100.81173,35.00725],[100.73848,35.04446],[100.69748,35.07974],[100.69693,35.11738],[100.75419,35.17342],[100.78125,35.18106],[100.87337,35.24782],[100.91109,35.30362],[100.81241,35.33399],[100.73301,35.34253],[100.68764,35.40489],[100.71237,35.42295],[100.81651,35.41358],[100.84207,35.4324],[100.93487,35.41701],[100.96453,35.401],[101.04338,35.41106],[101.16215,35.40314],[101.2421,35.36876],[101.29007,35.36914],[101.39175,35.33589],[101.43739,35.33437],[101.47976,35.35229],[101.45584,35.4023],[101.3953,35.45502],[101.38983,35.49781],[101.48632,35.49111],[101.53306,35.46911],[101.54864,35.49149],[101.59374,35.49606],[101.66399,35.52635],[101.67765,35.57603],[101.72781,35.64421],[101.75911,35.66298],[101.7725,35.71689],[101.76457,35.74725],[101.68517,35.75772],[101.66303,35.77639],[101.66522,35.81514],[101.73369,35.90251],[101.67998,35.92886],[101.68175,35.96452],[101.64554,35.99985],[101.65661,36.05777],[101.63843,36.11648],[101.66686,36.1608],[101.66836,36.23105],[101.6454,36.26762],[101.60317,36.28202],[101.60317,36.32233],[101.5414,36.32542],[101.45598,36.35321],[101.43849,36.37286],[101.37822,36.39288],[101.34323,36.34831],[101.30756,36.33747],[101.27517,36.30591],[101.20055,36.34018],[101.18319,36.37339],[101.14137,36.3843],[101.08138,36.446],[101.07523,36.48255],[101.00908,36.52651],[100.99323,36.56459],[100.99036,36.62525],[100.94936,36.66313],[100.95373,36.69035],[100.91737,36.74132]]],[[[101.40664,35.28897],[101.34132,35.27706],[101.35553,35.20498],[101.34528,35.18068],[101.39885,35.17212],[101.41894,35.18664],[101.4061,35.22904],[101.44696,35.2563],[101.45994,35.21934],[101.50668,35.21674],[101.54987,35.25836],[101.54932,35.31224],[101.506,35.32743],[101.45926,35.28134],[101.40664,35.28897]]]]}},{"type":"Feature","id":"datav:632600","properties":{"boundaryId":"datav:632600","nodeId":"geo:cn-qh-gol","parentNodeId":"geo:cn-qh","bounds":[96.93531,32.54512,101.77728,35.61982]},"geometry":{"type":"Polygon","coordinates":[[[97.66402,34.1195],[97.78757,34.17119],[97.79672,34.1995],[97.89526,34.20885],[97.94856,34.19184],[98.05038,34.1147],[98.09821,34.12298],[98.14317,34.10425],[98.2562,34.08311],[98.34927,34.09426],[98.40134,34.08791],[98.39683,34.05298],[98.42813,34.02904],[98.44056,33.99223],[98.40886,33.93562],[98.42416,33.91467],[98.40694,33.86725],[98.43947,33.84155],[98.46352,33.84838],[98.49291,33.79603],[98.53965,33.74667],[98.58174,33.73221],[98.59595,33.69846],[98.6524,33.65543],[98.61755,33.63722],[98.62274,33.6102],[98.65253,33.59501],[98.68,33.52154],[98.72551,33.50322],[98.74424,33.45432],[98.73399,33.41024],[98.77922,33.37167],[98.76433,33.32106],[98.78565,33.27683],[98.81421,33.24986],[98.80437,33.22014],[98.86068,33.15011],[98.90277,33.12591],[98.96605,33.11605],[98.96987,33.09952],[99.02577,33.09506],[99.09274,33.07814],[99.12458,33.04601],[99.17938,33.04483],[99.23473,32.98336],[99.23323,32.95442],[99.26904,32.8786],[99.35404,32.88551],[99.37618,32.8998],[99.49016,32.85096],[99.55713,32.84011],[99.60742,32.78086],[99.70623,32.76412],[99.71771,32.73219],[99.76022,32.76994],[99.76691,32.82354],[99.79206,32.88308],[99.77443,32.92248],[99.83238,32.95152],[99.85438,32.94485],[99.87775,32.99372],[99.87734,33.04554],[99.90276,33.04711],[99.92107,33.00697],[99.94745,32.98689],[99.95661,32.94806],[100.03833,32.92915],[100.1232,32.83729],[100.11705,32.80248],[100.13919,32.7244],[100.08794,32.66909],[100.10967,32.64012],[100.18812,32.63083],[100.2298,32.65051],[100.23828,32.72157],[100.26438,32.74273],[100.33449,32.71827],[100.40228,32.75508],[100.44997,32.69411],[100.4702,32.69451],[100.53853,32.59594],[100.54482,32.5701],[100.61534,32.54512],[100.65812,32.54669],[100.65866,32.59972],[100.67643,32.62784],[100.71757,32.61705],[100.69064,32.67806],[100.7736,32.64099],[100.7997,32.65492],[100.88758,32.63256],[100.93213,32.60067],[100.99719,32.62784],[101.03054,32.66059],[101.07673,32.68302],[101.1303,32.66059],[101.1575,32.66153],[101.2231,32.72582],[101.23772,32.82511],[101.22378,32.85551],[101.17636,32.89415],[101.12388,32.91],[101.12907,32.98948],[101.17226,33.00854],[101.18456,33.04146],[101.14698,33.05667],[101.14315,33.08276],[101.16351,33.11941],[101.12033,33.18666],[101.12784,33.22382],[101.18347,33.27011],[101.29649,33.26237],[101.37439,33.17139],[101.38683,33.20739],[101.42824,33.23031],[101.48536,33.22694],[101.51707,33.19088],[101.63337,33.1014],[101.66098,33.1357],[101.65415,33.16279],[101.71004,33.21294],[101.74011,33.27065],[101.70676,33.29856],[101.6782,33.29746],[101.64936,33.32458],[101.66276,33.38167],[101.69569,33.43396],[101.76922,33.45604],[101.77728,33.53549],[101.73587,33.49636],[101.62258,33.50236],[101.60262,33.63239],[101.58253,33.67504],[101.54222,33.69519],[101.49165,33.69994],[101.42824,33.68018],[101.42851,33.6594],[101.38546,33.64477],[101.34979,33.65714],[101.25959,33.66951],[101.16666,33.66002],[101.1642,33.72265],[101.18893,33.74465],[101.19167,33.78593],[101.15012,33.83052],[101.15354,33.8445],[101.05432,33.8636],[101.04502,33.8844],[100.9991,33.8896],[100.96562,33.94679],[100.92708,33.97626],[100.87022,34.08396],[100.80626,34.15541],[100.76499,34.17784],[100.80968,34.24712],[100.79943,34.26227],[100.82184,34.31735],[100.86845,34.33279],[100.89728,34.37578],[100.95059,34.38365],[100.97628,34.44744],[100.97013,34.54246],[100.94676,34.53976],[100.91669,34.57018],[100.91027,34.62621],[100.88963,34.66359],[100.8787,34.70941],[100.85287,34.72156],[100.79328,34.69496],[100.76772,34.67244],[100.69556,34.6732],[100.64295,34.73086],[100.59826,34.70319],[100.58787,34.73439],[100.5563,34.74146],[100.48537,34.80636],[100.35649,34.82148],[100.31741,34.85041],[100.31836,34.89283],[100.298,34.91024],[100.25208,34.89076],[100.18621,34.89536],[100.10612,34.88654],[100.07414,34.82969],[100.02467,34.80643],[99.96945,34.80797],[99.87215,34.84228],[99.81543,34.83123],[99.79917,34.8498],[99.73821,34.86476],[99.70787,34.9018],[99.67207,34.91047],[99.65375,34.93615],[99.59294,34.9396],[99.55371,34.95983],[99.47745,34.96581],[99.37058,35.09841],[99.33177,35.13412],[99.2663,35.21262],[99.23432,35.22117],[99.18171,35.27058],[99.17938,35.30004],[99.25633,35.37044],[99.292,35.37608],[99.31209,35.41244],[99.27819,35.4452],[99.2212,35.45045],[99.21314,35.48015],[99.26576,35.47474],[99.31318,35.5141],[99.31468,35.55047],[99.21109,35.60462],[99.15601,35.61982],[99.12567,35.61754],[99.07839,35.58622],[99.02919,35.60081],[99.01046,35.58348],[98.91111,35.60005],[98.91247,35.58059],[98.86505,35.56926],[98.81708,35.60021],[98.77116,35.5815],[98.76077,35.53898],[98.71444,35.51654],[98.63777,35.49865],[98.59459,35.46127],[98.49755,35.44809],[98.43469,35.47345],[98.35692,35.4599],[98.29652,35.47642],[98.30909,35.50268],[98.26098,35.51296],[98.22012,35.46515],[98.22408,35.43613],[98.20372,35.40687],[98.17912,35.3201],[98.12923,35.33261],[98.08823,35.32384],[98.07306,35.29347],[98.0214,35.28554],[97.8943,35.29599],[97.86711,35.31499],[97.78798,35.3227],[97.75067,35.34855],[97.66744,35.34931],[97.6673,35.37684],[97.61701,35.37661],[97.60922,35.32727],[97.61933,35.27332],[97.59104,35.25737],[97.53432,35.26638],[97.41283,35.30225],[97.34818,35.29881],[97.3434,35.26271],[97.37114,35.2324],[97.33821,35.2104],[97.27616,35.14873],[97.24172,35.07729],[97.204,35.03673],[97.2204,35.00526],[97.12132,34.95056],[97.0795,34.91162],[97.0072,34.89866],[97.02305,34.87304],[96.99599,34.82393],[96.95609,34.81204],[96.93531,34.78547],[96.95144,34.74868],[96.98096,34.72847],[97.01157,34.75621],[97.07512,34.74591],[97.11312,34.7234],[97.11845,34.68474],[97.07348,34.67466],[97.07362,34.64521],[97.10546,34.63036],[97.19717,34.60743],[97.20004,34.56371],[97.18159,34.5259],[97.14633,34.5034],[97.1779,34.48529],[97.2096,34.49801],[97.3244,34.46556],[97.34695,34.42863],[97.30363,34.39669],[97.3162,34.37594],[97.36021,34.36251],[97.40408,34.32252],[97.4131,34.29479],[97.47487,34.26683],[97.49633,34.20576],[97.54116,34.17831],[97.58257,34.17405],[97.58872,34.20545],[97.62767,34.19965],[97.63764,34.1585],[97.66402,34.1195]]]}},{"type":"Feature","id":"datav:632700","properties":{"boundaryId":"datav:632700","nodeId":"geo:cn-qh-ysz","parentNodeId":"geo:cn-qh","bounds":[89.4047,31.59898,97.75354,36.25985]},"geometry":{"type":"Polygon","coordinates":[[[92.56088,32.73188],[92.6001,32.74359],[92.63618,32.72047],[92.66775,32.73188],[92.68798,32.76601],[92.75631,32.7432],[92.78939,32.72008],[92.82273,32.72975],[92.87699,32.69695],[92.93836,32.72008],[92.96446,32.71465],[93.00054,32.74084],[93.02377,32.70309],[93.04755,32.69396],[93.06723,32.6265],[93.11725,32.64744],[93.15962,32.64477],[93.17534,32.67043],[93.21046,32.65531],[93.23971,32.66232],[93.2628,32.62524],[93.30298,32.61792],[93.30845,32.58042],[93.33838,32.5712],[93.38567,32.52517],[93.41396,32.55781],[93.46357,32.55481],[93.4771,32.50397],[93.51646,32.47597],[93.555,32.48599],[93.62046,32.52399],[93.65148,32.57168],[93.722,32.57814],[93.82259,32.54756],[93.86865,32.47392],[93.95994,32.48496],[94.01119,32.44615],[94.05274,32.47061],[94.09182,32.46335],[94.13761,32.43384],[94.19678,32.51619],[94.29423,32.51981],[94.35354,32.5329],[94.39522,32.59421],[94.43417,32.56317],[94.50893,32.60374],[94.53544,32.59822],[94.56565,32.62744],[94.5938,32.62894],[94.60118,32.66334],[94.73757,32.58743],[94.76026,32.52715],[94.78582,32.52447],[94.80686,32.4863],[94.85429,32.46335],[94.88996,32.47234],[94.91251,32.41569],[94.94421,32.40432],[94.99423,32.42066],[95.0817,32.38474],[95.13172,32.38711],[95.15454,32.40172],[95.20771,32.38822],[95.22725,32.34494],[95.19349,32.3323],[95.09687,32.32218],[95.07951,32.28061],[95.10548,32.25951],[95.17805,32.28212],[95.24105,32.32053],[95.23941,32.28694],[95.26989,32.19481],[95.3128,32.14891],[95.36706,32.15191],[95.38906,32.1861],[95.44018,32.15753],[95.45466,32.0625],[95.42132,32.03389],[95.36105,31.95919],[95.36843,31.92912],[95.40574,31.89944],[95.44182,31.83004],[95.50099,31.7741],[95.51288,31.74913],[95.5465,31.73983],[95.6147,31.7834],[95.77966,31.74905],[95.82503,31.682],[95.85332,31.71414],[95.86863,31.7729],[95.89924,31.81717],[95.98329,31.81645],[95.9889,31.78745],[96.06488,31.72059],[96.13568,31.70205],[96.14839,31.68654],[96.14839,31.63115],[96.16041,31.60105],[96.20497,31.59898],[96.24897,31.6614],[96.25266,31.69617],[96.17791,31.77561],[96.1831,31.83584],[96.20251,31.84076],[96.21877,31.90539],[96.25307,31.92976],[96.29407,31.91928],[96.38933,31.91992],[96.40778,31.84576],[96.43334,31.79969],[96.51916,31.74921],[96.56522,31.71319],[96.61606,31.73681],[96.66116,31.70571],[96.69177,31.72226],[96.7228,31.68702],[96.77514,31.67389],[96.79058,31.69839],[96.83719,31.7155],[96.79837,31.79381],[96.76612,31.81892],[96.76038,31.86046],[96.79441,31.86927],[96.80958,31.89817],[96.75519,31.94341],[96.74125,31.97387],[96.74712,32.01367],[96.79687,32.01827],[96.86315,31.99568],[96.89445,32.01375],[96.94283,31.98695],[96.9662,32.00939],[96.93586,32.04815],[97.00665,32.06781],[97.02879,32.04879],[97.13075,32.04388],[97.16956,32.02422],[97.20181,32.09205],[97.21972,32.10908],[97.25607,32.07288],[97.29324,32.09672],[97.31374,32.12895],[97.27138,32.14123],[97.26413,32.18262],[97.29967,32.295],[97.34436,32.2969],[97.36704,32.27382],[97.41788,32.30093],[97.41624,32.36026],[97.38659,32.42808],[97.34149,32.43976],[97.349,32.46303],[97.38877,32.5001],[97.3311,32.53755],[97.37429,32.5463],[97.44863,32.58672],[97.46394,32.55473],[97.50221,32.53101],[97.54088,32.537],[97.66962,32.51721],[97.70557,32.5329],[97.63136,32.57546],[97.60635,32.61524],[97.54375,32.6217],[97.53009,32.63941],[97.47077,32.66413],[97.42376,32.70497],[97.42485,32.72779],[97.38577,32.78023],[97.38713,32.86643],[97.35433,32.88747],[97.37579,32.95669],[97.5238,32.98862],[97.50016,33.0116],[97.54198,33.03746],[97.51697,33.09748],[97.48772,33.10673],[97.48799,33.16819],[97.57655,33.22335],[97.60662,33.2626],[97.62165,33.33426],[97.67605,33.34106],[97.75354,33.41016],[97.67482,33.43302],[97.62548,33.4615],[97.55264,33.46563],[97.51205,33.51944],[97.52517,33.57578],[97.45027,33.58201],[97.40599,33.6285],[97.43551,33.68033],[97.41788,33.72856],[97.42321,33.75491],[97.4064,33.79517],[97.36882,33.82415],[97.39807,33.8483],[97.38877,33.88611],[97.46066,33.88735],[97.5048,33.91226],[97.52503,33.90256],[97.60184,33.93003],[97.63395,33.91909],[97.65978,33.95633],[97.65281,33.99843],[97.70229,34.03671],[97.69504,34.07661],[97.66402,34.1195],[97.63764,34.1585],[97.62767,34.19965],[97.58872,34.20545],[97.58257,34.17405],[97.54116,34.17831],[97.49633,34.20576],[97.47487,34.26683],[97.4131,34.29479],[97.40408,34.32252],[97.36021,34.36251],[97.3162,34.37594],[97.30363,34.39669],[97.34695,34.42863],[97.3244,34.46556],[97.2096,34.49801],[97.1779,34.48529],[97.14633,34.5034],[97.18159,34.5259],[97.20004,34.56371],[97.19717,34.60743],[97.10546,34.63036],[97.07362,34.64521],[97.07348,34.67466],[97.11845,34.68474],[97.11312,34.7234],[97.07512,34.74591],[97.01157,34.75621],[96.98096,34.72847],[96.95144,34.74868],[96.93531,34.78547],[96.95609,34.81204],[96.99599,34.82393],[97.02305,34.87304],[97.0072,34.89866],[97.0795,34.91162],[97.12132,34.95056],[97.2204,35.00526],[97.204,35.03673],[97.24172,35.07729],[97.27616,35.14873],[97.33821,35.2104],[97.37114,35.2324],[97.3434,35.26271],[97.34818,35.29881],[97.21794,35.33437],[97.17735,35.33345],[97.09795,35.35565],[97.04342,35.40786],[97.04478,35.43286],[97.00037,35.47269],[96.92985,35.4985],[96.89445,35.48106],[96.78758,35.50588],[96.772,35.52711],[96.67496,35.59207],[96.58135,35.58135],[96.56645,35.60218],[96.466,35.62233],[96.35434,35.65249],[96.33863,35.63449],[96.29325,35.64839],[96.24214,35.64778],[96.2241,35.62939],[96.13417,35.64771],[96.1175,35.62506],[96.07267,35.61343],[96.05245,35.55465],[95.97988,35.53305],[95.9453,35.59085],[95.88517,35.63616],[95.68782,35.64862],[95.63302,35.65926],[95.57111,35.65333],[95.47899,35.65789],[95.46027,35.61731],[95.43375,35.60127],[95.37171,35.60279],[95.321,35.64049],[95.2498,35.64717],[95.1432,35.62993],[95.15618,35.59587],[95.11874,35.5796],[95.12694,35.53533],[95.02129,35.55207],[94.9766,35.57222],[94.94148,35.56675],[94.8946,35.58956],[94.82818,35.5831],[94.76832,35.60804],[94.71803,35.60735],[94.68687,35.58789],[94.64232,35.60629],[94.57986,35.60173],[94.40739,35.61404],[94.31377,35.63829],[94.28042,35.63304],[94.23901,35.661],[94.214,35.64885],[94.15524,35.66943],[94.12244,35.64041],[94.06203,35.63646],[94.00846,35.67361],[93.93397,35.70657],[93.88915,35.70217],[93.83585,35.72221],[93.78145,35.73056],[93.76191,35.75628],[93.62757,35.7559],[93.53942,35.78124],[93.51605,35.75712],[93.44853,35.77358],[93.2654,35.77752],[93.08691,35.80718],[93.0671,35.84152],[93.01626,35.84918],[92.99398,35.83333],[92.83982,35.86789],[92.6955,35.87744],[92.5919,35.8785],[92.45223,35.89827],[92.40631,35.91516],[92.35123,35.89653],[92.31433,35.91137],[92.25803,35.90781],[92.15102,35.92833],[92.03362,35.96164],[91.97431,35.9885],[91.96775,36.00658],[91.88547,36.02496],[91.79322,36.00552],[91.67952,36.03713],[91.63264,36.03774],[91.58289,36.06079],[91.54886,36.09525],[91.57141,36.15506],[91.47725,36.0917],[91.39197,36.06533],[91.29193,36.08135],[91.25503,36.10794],[91.10483,36.15673],[91.12479,36.1155],[91.08133,36.08838],[90.97924,36.10681],[90.9273,36.03131],[90.85241,36.01717],[90.81592,36.03577],[90.77629,36.08634],[90.66299,36.13392],[90.61557,36.12645],[90.52701,36.1485],[90.47972,36.13226],[90.42396,36.134],[90.32925,36.15786],[90.23673,36.16058],[90.19819,36.18744],[90.13012,36.20782],[90.12848,36.24674],[90.02776,36.25985],[90.00904,36.18427],[89.94658,36.14155],[89.94713,36.06994],[89.91228,36.07923],[89.81224,36.07953],[89.7942,36.071],[89.68937,36.09125],[89.63785,36.05013],[89.60519,36.03826],[89.47412,36.02261],[89.41754,36.04477],[89.4047,36.02155],[89.4349,35.99319],[89.42807,35.91743],[89.54164,35.88206],[89.55052,35.85713],[89.60724,35.86115],[89.66026,35.84819],[89.77875,35.86153],[89.78162,35.7779],[89.74691,35.75469],[89.74076,35.71553],[89.74882,35.66275],[89.72532,35.64983],[89.76591,35.59975],[89.70919,35.57686],[89.70536,35.5074],[89.74103,35.50733],[89.73898,35.46865],[89.68637,35.41472],[89.65849,35.42554],[89.59931,35.39193],[89.49722,35.36136],[89.51622,35.3333],[89.49517,35.29355],[89.5318,35.27638],[89.45868,35.23851],[89.51307,35.13932],[89.59302,35.10422],[89.5907,35.05793],[89.56118,34.93109],[89.58441,34.90778],[89.64154,34.88225],[89.69921,34.90663],[89.74705,34.90357],[89.7875,34.92174],[89.82139,34.90288],[89.86608,34.90019],[89.90449,34.87174],[90.01983,34.91338],[90.08981,34.90288],[90.12124,34.86629],[90.16771,34.87941],[90.22115,34.94228],[90.25258,34.9432],[90.30506,34.92289],[90.34059,34.93646],[90.42246,34.9396],[90.44337,34.92703],[90.63825,34.91928],[90.65383,34.8959],[90.71711,34.90012],[90.78134,34.89045],[90.91883,34.83445],[90.94821,34.79814],[90.96106,34.75575],[91.00384,34.74515],[91.02434,34.76627],[91.06001,34.76243],[91.05919,34.79645],[91.12643,34.78102],[91.16661,34.79952],[91.23275,34.80282],[91.26378,34.78939],[91.32159,34.78992],[91.35001,34.76197],[91.45347,34.72432],[91.54572,34.70849],[91.67542,34.66175],[91.72653,34.66721],[91.76083,34.62513],[91.82862,34.62075],[91.85363,34.59266],[91.95859,34.57657],[91.96638,34.55532],[91.93057,34.51758],[91.94028,34.48722],[92.00492,34.47389],[92.06628,34.44243],[92.23206,34.37764],[92.36531,34.37933],[92.42421,34.38975],[92.49132,34.37825],[92.51373,34.4159],[92.54079,34.37995],[92.57865,34.29039],[92.61281,34.23955],[92.63181,34.18712],[92.6616,34.13846],[92.65258,34.1219],[92.7134,34.07033],[92.75385,34.06801],[92.91184,34.09325],[92.90269,34.06871],[92.82957,34.03051],[92.78228,34.0357],[92.73991,33.99463],[92.7067,33.94493],[92.74278,33.91575],[92.75276,33.86942],[92.74169,33.84745],[92.76192,33.7916],[92.75276,33.76533],[92.77381,33.72358],[92.75645,33.70375],[92.79772,33.68461],[92.78433,33.63683],[92.81289,33.61643],[92.80756,33.57079],[92.85198,33.53417],[92.84897,33.49917],[92.7939,33.46938],[92.73431,33.45822],[92.69809,33.47297],[92.65723,33.40915],[92.65559,33.38198],[92.59915,33.35215],[92.5986,33.3016],[92.6791,33.26698],[92.72105,33.2321],[92.7119,33.19135],[92.67062,33.14729],[92.71805,33.10164],[92.7298,33.03825],[92.70329,33.02351],[92.697,32.98297],[92.65655,32.94085],[92.64903,32.9027],[92.59628,32.86996],[92.58138,32.75484],[92.56088,32.73188]]]}},{"type":"Feature","id":"datav:632800","properties":{"boundaryId":"datav:632800","nodeId":"geo:cn-qh-hxz","parentNodeId":"geo:cn-qh","bounds":[89.65138,32.72079,99.68915,39.20834]},"geometry":{"type":"MultiPolygon","coordinates":[[[[98.09329,38.78631],[98.06869,38.81626],[98.01197,38.85806],[97.87585,38.89824],[97.82898,38.93003],[97.70147,38.96326],[97.68684,39.00549],[97.58147,39.05234],[97.50057,39.07818],[97.45888,39.11809],[97.40135,39.14674],[97.37565,39.14036],[97.34203,39.16827],[97.30062,39.16595],[97.22081,39.19306],[97.14113,39.19994],[97.0605,39.19762],[97.01745,39.20834],[96.96306,39.19835],[97.01157,39.14007],[96.96989,39.09777],[96.95773,39.04166],[96.96565,39.01697],[96.939,38.95548],[96.94078,38.90784],[96.98369,38.87095],[96.98766,38.7917],[97.02305,38.75555],[97.00911,38.70266],[97.05749,38.67281],[97.04724,38.65391],[97.05599,38.59452],[96.96073,38.55782],[96.87682,38.58071],[96.84675,38.59941],[96.79441,38.60804],[96.80534,38.57055],[96.76735,38.55249],[96.80042,38.52777],[96.78061,38.50428],[96.70681,38.50546],[96.66635,38.48372],[96.70817,38.45913],[96.69806,38.42214],[96.62672,38.35626],[96.65419,38.2978],[96.66526,38.23019],[96.46368,38.27777],[96.3784,38.27732],[96.33576,38.2462],[96.30186,38.18324],[96.31321,38.162],[96.26428,38.1459],[96.20934,38.15023],[96.15508,38.17442],[96.0739,38.18831],[96.04411,38.18052],[96.00694,38.2072],[95.93847,38.23731],[95.89364,38.29039],[95.85961,38.28305],[95.83774,38.34247],[95.77611,38.35596],[95.67429,38.39064],[95.60842,38.33925],[95.59092,38.34416],[95.51616,38.29479],[95.4876,38.31438],[95.40806,38.30037],[95.36173,38.31335],[95.26005,38.30228],[95.20443,38.33199],[95.16917,38.38756],[95.12215,38.41701],[95.07336,38.40243],[95.04535,38.4187],[94.97387,38.43013],[94.88394,38.41489],[94.86153,38.39372],[94.81206,38.38551],[94.66104,38.38602],[94.52998,38.36088],[94.52711,38.42603],[94.51112,38.44514],[94.37008,38.76276],[94.28138,38.76006],[93.97292,38.72484],[93.95133,38.71514],[93.87193,38.72258],[93.80031,38.75081],[93.77353,38.77107],[93.76997,38.82092],[93.88423,38.82623],[93.88464,38.86767],[93.83434,38.86767],[93.72911,38.9245],[93.45318,38.91541],[93.27401,38.89613],[93.23793,38.91614],[93.1793,38.92385],[93.19816,39.04602],[93.16577,39.09052],[93.12668,39.1228],[93.1424,39.16073],[93.11534,39.17958],[93.04318,39.14645],[92.93904,39.16965],[92.88916,39.15993],[92.86688,39.13869],[92.78078,39.1397],[92.66352,39.11091],[92.54571,39.11134],[92.49405,39.10213],[92.46057,39.0662],[92.42312,39.0466],[92.41847,39.01304],[92.38007,39.00004],[92.26418,39.00215],[92.17302,38.96057],[91.99043,38.93861],[91.88055,38.89926],[91.85828,38.87699],[91.78284,38.86177],[91.70562,38.86818],[91.61337,38.83905],[91.50144,38.81531],[91.44636,38.81349],[91.30778,38.75102],[91.24997,38.75277],[91.19107,38.73184],[90.99277,38.695],[90.96543,38.6969],[90.83396,38.66909],[90.72463,38.65814],[90.65028,38.67391],[90.64563,38.63499],[90.60518,38.60701],[90.53261,38.581],[90.49995,38.55541],[90.46359,38.55673],[90.46373,38.52016],[90.42027,38.49097],[90.35891,38.48131],[90.31517,38.50187],[90.19723,38.49126],[90.13081,38.49419],[90.11208,38.47772],[90.11085,38.42456],[90.17919,38.39701],[90.13778,38.34057],[90.28087,38.23812],[90.35289,38.23349],[90.36164,38.30015],[90.40182,38.31123],[90.5307,38.31908],[90.51635,38.2044],[90.51963,37.73118],[90.57935,37.72054],[90.61475,37.69694],[90.65875,37.70382],[90.67693,37.68273],[90.74226,37.66468],[90.8546,37.60418],[90.88248,37.57573],[90.86594,37.53066],[90.91172,37.51954],[90.95792,37.47763],[91.00042,37.49455],[91.07477,37.47518],[91.10907,37.42768],[91.11139,37.39195],[91.13668,37.35458],[91.13476,37.32417],[91.19189,37.27784],[91.19093,37.20571],[91.28031,37.16378],[91.28756,37.10347],[91.30355,37.08177],[91.29111,37.04275],[91.30368,37.01259],[91.21635,37.0102],[91.1908,37.02469],[91.13367,37.00774],[91.11071,36.97017],[91.04894,36.96644],[91.03705,36.92953],[90.98375,36.91368],[90.87359,36.92056],[90.81373,36.8819],[90.78913,36.8457],[90.72244,36.79817],[90.72709,36.75601],[90.7551,36.72124],[90.70809,36.68466],[90.73556,36.63343],[90.74103,36.58585],[90.81291,36.58562],[90.833,36.55806],[90.90694,36.55956],[91.01135,36.53981],[91.03978,36.4748],[91.0283,36.44329],[91.05263,36.42644],[91.03281,36.39657],[91.02639,36.32368],[91.07408,36.29762],[91.04784,36.2444],[91.09691,36.21936],[91.10483,36.15673],[91.25503,36.10794],[91.29193,36.08135],[91.39197,36.06533],[91.47725,36.0917],[91.57141,36.15506],[91.54886,36.09525],[91.58289,36.06079],[91.63264,36.03774],[91.67952,36.03713],[91.79322,36.00552],[91.88547,36.02496],[91.96775,36.00658],[91.97431,35.9885],[92.03362,35.96164],[92.15102,35.92833],[92.25803,35.90781],[92.31433,35.91137],[92.35123,35.89653],[92.40631,35.91516],[92.45223,35.89827],[92.5919,35.8785],[92.6955,35.87744],[92.83982,35.86789],[92.99398,35.83333],[93.01626,35.84918],[93.0671,35.84152],[93.08691,35.80718],[93.2654,35.77752],[93.44853,35.77358],[93.51605,35.75712],[93.53942,35.78124],[93.62757,35.7559],[93.76191,35.75628],[93.78145,35.73056],[93.83585,35.72221],[93.88915,35.70217],[93.93397,35.70657],[94.00846,35.67361],[94.06203,35.63646],[94.12244,35.64041],[94.15524,35.66943],[94.214,35.64885],[94.23901,35.661],[94.28042,35.63304],[94.31377,35.63829],[94.40739,35.61404],[94.57986,35.60173],[94.64232,35.60629],[94.68687,35.58789],[94.71803,35.60735],[94.76832,35.60804],[94.82818,35.5831],[94.8946,35.58956],[94.94148,35.56675],[94.9766,35.57222],[95.02129,35.55207],[95.12694,35.53533],[95.11874,35.5796],[95.15618,35.59587],[95.1432,35.62993],[95.2498,35.64717],[95.321,35.64049],[95.37171,35.60279],[95.43375,35.60127],[95.46027,35.61731],[95.47899,35.65789],[95.57111,35.65333],[95.63302,35.65926],[95.68782,35.64862],[95.88517,35.63616],[95.9453,35.59085],[95.97988,35.53305],[96.05245,35.55465],[96.07267,35.61343],[96.1175,35.62506],[96.13417,35.64771],[96.2241,35.62939],[96.24214,35.64778],[96.29325,35.64839],[96.33863,35.63449],[96.35434,35.65249],[96.466,35.62233],[96.56645,35.60218],[96.58135,35.58135],[96.67496,35.59207],[96.772,35.52711],[96.78758,35.50588],[96.89445,35.48106],[96.92985,35.4985],[97.00037,35.47269],[97.04478,35.43286],[97.04342,35.40786],[97.09795,35.35565],[97.17735,35.33345],[97.21794,35.33437],[97.34818,35.29881],[97.41283,35.30225],[97.53432,35.26638],[97.59104,35.25737],[97.61933,35.27332],[97.60922,35.32727],[97.61701,35.37661],[97.6673,35.37684],[97.66744,35.34931],[97.75067,35.34855],[97.78798,35.3227],[97.86711,35.31499],[97.8943,35.29599],[98.0214,35.28554],[98.07306,35.29347],[98.08823,35.32384],[98.12923,35.33261],[98.17912,35.3201],[98.20372,35.40687],[98.22408,35.43613],[98.22012,35.46515],[98.26098,35.51296],[98.30909,35.50268],[98.29652,35.47642],[98.35692,35.4599],[98.43469,35.47345],[98.49755,35.44809],[98.59459,35.46127],[98.63777,35.49865],[98.71444,35.51654],[98.76077,35.53898],[98.77116,35.5815],[98.81708,35.60021],[98.86505,35.56926],[98.91247,35.58059],[98.91111,35.60005],[99.01046,35.58348],[99.02919,35.60081],[99.07839,35.58622],[99.12567,35.61754],[99.15601,35.61982],[99.20562,35.68257],[99.20822,35.7279],[99.1638,35.7911],[99.12677,35.80263],[99.12472,35.86615],[99.10244,35.88342],[99.11679,35.91145],[99.07114,35.96815],[99.08946,35.99992],[99.04026,36.04651],[98.98026,36.08785],[98.96769,36.12932],[98.99338,36.19129],[99.04381,36.23324],[99.04969,36.2882],[99.06595,36.32399],[98.98901,36.40982],[98.92983,36.44675],[98.92122,36.48676],[98.97712,36.49818],[99.08549,36.53305],[99.26316,36.60424],[99.3345,36.6209],[99.37427,36.65496],[99.44684,36.68698],[99.42279,36.74072],[99.43099,36.7605],[99.38739,36.79832],[99.29746,36.84966],[99.26453,36.90523],[99.16011,36.95456],[99.23104,36.97667],[99.27177,37.08908],[99.32179,37.12368],[99.35965,37.13508],[99.38274,37.16705],[99.45436,37.15662],[99.43071,37.18285],[99.4232,37.2422],[99.43932,37.2803],[99.41828,37.33057],[99.41705,37.37011],[99.47609,37.41179],[99.46365,37.48268],[99.50096,37.54408],[99.54305,37.5635],[99.54155,37.59677],[99.59075,37.611],[99.63585,37.65402],[99.68614,37.66727],[99.68915,37.71987],[99.65772,37.73584],[99.64842,37.79305],[99.66154,37.81204],[99.60045,37.83678],[99.51244,37.85775],[99.37523,37.92408],[99.39231,37.94724],[99.35896,37.96736],[99.38069,38.00708],[99.49946,38.03264],[99.55959,38.02948],[99.64733,38.07667],[99.57927,38.10963],[99.59471,38.16251],[99.58501,38.20022],[99.52419,38.20955],[99.4985,38.25068],[99.43864,38.25846],[99.36402,38.2473],[99.28393,38.27454],[99.25031,38.30184],[99.24744,38.32869],[99.17269,38.30822],[99.12294,38.27321],[99.03998,38.25699],[99.00295,38.2785],[98.94746,38.2716],[98.90783,38.2887],[98.93871,38.32487],[98.90919,38.36352],[98.98354,38.39687],[98.94814,38.44404],[98.88186,38.47501],[98.73563,38.48526],[98.71157,38.52089],[98.68301,38.53033],[98.60853,38.52689],[98.53896,38.57954],[98.41815,38.59839],[98.36813,38.61563],[98.2957,38.66325],[98.18253,38.66756],[98.13661,38.71062],[98.14194,38.73739],[98.09329,38.78631]]],[[[92.56088,32.73188],[92.58138,32.75484],[92.59628,32.86996],[92.64903,32.9027],[92.65655,32.94085],[92.697,32.98297],[92.70329,33.02351],[92.7298,33.03825],[92.71805,33.10164],[92.67062,33.14729],[92.7119,33.19135],[92.72105,33.2321],[92.6791,33.26698],[92.5986,33.3016],[92.59915,33.35215],[92.65559,33.38198],[92.65723,33.40915],[92.69809,33.47297],[92.73431,33.45822],[92.7939,33.46938],[92.84897,33.49917],[92.85198,33.53417],[92.80756,33.57079],[92.81289,33.61643],[92.78433,33.63683],[92.79772,33.68461],[92.75645,33.70375],[92.77381,33.72358],[92.75276,33.76533],[92.76192,33.7916],[92.74169,33.84745],[92.75276,33.86942],[92.74278,33.91575],[92.7067,33.94493],[92.73991,33.99463],[92.78228,34.0357],[92.82957,34.03051],[92.90269,34.06871],[92.91184,34.09325],[92.75385,34.06801],[92.7134,34.07033],[92.65258,34.1219],[92.6616,34.13846],[92.63181,34.18712],[92.61281,34.23955],[92.57865,34.29039],[92.54079,34.37995],[92.51373,34.4159],[92.49132,34.37825],[92.42421,34.38975],[92.36531,34.37933],[92.23206,34.37764],[92.06628,34.44243],[92.00492,34.47389],[91.94028,34.48722],[91.93057,34.51758],[91.96638,34.55532],[91.95859,34.57657],[91.85363,34.59266],[91.82862,34.62075],[91.76083,34.62513],[91.72653,34.66721],[91.67542,34.66175],[91.54572,34.70849],[91.45347,34.72432],[91.35001,34.76197],[91.32159,34.78992],[91.26378,34.78939],[91.23275,34.80282],[91.16661,34.79952],[91.12643,34.78102],[91.05919,34.79645],[91.06001,34.76243],[91.02434,34.76627],[91.00384,34.74515],[90.96106,34.75575],[90.94821,34.79814],[90.91883,34.83445],[90.78134,34.89045],[90.71711,34.90012],[90.65383,34.8959],[90.63825,34.91928],[90.44337,34.92703],[90.42246,34.9396],[90.34059,34.93646],[90.30506,34.92289],[90.25258,34.9432],[90.22115,34.94228],[90.16771,34.87941],[90.12124,34.86629],[90.08981,34.90288],[90.01983,34.91338],[89.90449,34.87174],[89.86608,34.90019],[89.82139,34.90288],[89.81155,34.87105],[89.84627,34.85732],[89.8516,34.8214],[89.80759,34.76881],[89.73256,34.73224],[89.72354,34.70403],[89.74336,34.64475],[89.79871,34.62882],[89.77793,34.57441],[89.81497,34.54877],[89.80814,34.47473],[89.82331,34.45538],[89.79953,34.39623],[89.82057,34.36907],[89.86212,34.35626],[89.86499,34.32291],[89.82549,34.29371],[89.83793,34.26428],[89.82235,34.22548],[89.81702,34.16949],[89.75689,34.1253],[89.71206,34.13188],[89.65616,34.09689],[89.65138,34.03663],[89.6917,33.95795],[89.79502,33.86554],[89.83725,33.86903],[89.87415,33.82757],[89.9336,33.79704],[89.9023,33.75841],[89.98375,33.72583],[90.00425,33.69371],[89.98403,33.61215],[89.98813,33.58364],[90.02421,33.54671],[90.08106,33.53058],[90.09186,33.46977],[90.24643,33.42405],[90.33308,33.31075],[90.40715,33.26049],[90.48095,33.26581],[90.59589,33.207],[90.63224,33.17453],[90.70563,33.13578],[90.74021,33.14228],[90.8043,33.1144],[90.88425,33.11918],[90.91145,33.11017],[91.0119,33.12153],[91.03759,33.09866],[91.07149,33.11323],[91.13367,33.07406],[91.16237,33.10939],[91.22592,33.14142],[91.26145,33.14134],[91.31161,33.10798],[91.37393,33.09968],[91.43598,33.06615],[91.5013,33.10759],[91.53561,33.09999],[91.58071,33.03942],[91.66448,33.01308],[91.68321,32.99011],[91.72557,32.98399],[91.78079,32.9461],[91.83832,32.9494],[91.86005,32.90223],[91.92251,32.86949],[91.95777,32.81961],[92.01968,32.82943],[92.03977,32.86148],[92.10209,32.86038],[92.11863,32.87679],[92.20527,32.86619],[92.23069,32.84027],[92.19871,32.75484],[92.25529,32.72079],[92.30108,32.74934],[92.41096,32.74784],[92.45387,32.76467],[92.48804,32.74383],[92.56088,32.73188]]]]}}]}