{"type":"FeatureCollection","features":[{"type":"Feature","id":"datav:140100","properties":{"boundaryId":"datav:140100","nodeId":"geo:cn-sx-tyn","parentNodeId":"geo:cn-sx","bounds":[111.51591,37.45886,113.15663,38.41575]},"geometry":{"type":"Polygon","coordinates":[[[113.06685,38.05647],[113.01213,38.08492],[112.91987,38.15714],[113.00076,38.24857],[113.02632,38.25547],[113.0767,38.30707],[113.10898,38.30701],[113.15663,38.34525],[113.1457,38.41166],[113.08555,38.41575],[113.06937,38.38811],[113.03929,38.3817],[113.00345,38.34335],[112.97824,38.34226],[112.85083,38.30609],[112.79612,38.25101],[112.69388,38.24147],[112.62076,38.20654],[112.56904,38.21064],[112.56253,38.23915],[112.52473,38.24997],[112.49961,38.23731],[112.45869,38.24997],[112.44693,38.27608],[112.40648,38.26679],[112.36374,38.27804],[112.34061,38.30303],[112.274,38.31391],[112.24801,38.29173],[112.26997,38.26789],[112.22089,38.25058],[112.25148,38.21957],[112.26775,38.18249],[112.25148,38.1501],[112.21473,38.1324],[112.16035,38.15004],[112.13475,38.14098],[112.10138,38.16737],[112.01173,38.1842],[111.95133,38.16792],[111.91514,38.18071],[111.86914,38.22006],[111.81763,38.21431],[111.80643,38.19546],[111.71631,38.17496],[111.68975,38.13467],[111.62501,38.10183],[111.56768,38.09552],[111.51591,38.05126],[111.51687,38.01967],[111.5456,37.95597],[111.58009,37.90271],[111.57024,37.85237],[111.68346,37.86387],[111.70615,37.87899],[111.74716,37.87051],[111.76781,37.83232],[111.81984,37.79609],[111.91227,37.79295],[111.92138,37.75793],[111.97498,37.71316],[112.10277,37.71618],[112.17593,37.67453],[112.17411,37.6355],[112.25569,37.56171],[112.29045,37.56689],[112.2957,37.52145],[112.33011,37.45892],[112.35897,37.485],[112.39485,37.46288],[112.43278,37.45886],[112.50824,37.47864],[112.50976,37.50755],[112.54469,37.51836],[112.59065,37.50681],[112.62376,37.5259],[112.57915,37.6339],[112.65049,37.71002],[112.66763,37.7402],[112.65296,37.77541],[112.70564,37.85121],[112.75823,37.88157],[112.76821,37.93945],[112.81764,37.98335],[112.93884,37.99053],[112.98917,38.00231],[113.02285,38.02642],[113.02428,38.0504],[113.06685,38.05647]]]}},{"type":"Feature","id":"datav:140200","properties":{"boundaryId":"datav:140200","nodeId":"geo:cn-sx-dtg","parentNodeId":"geo:cn-sx","bounds":[112.58045,39.05041,114.56892,40.73994]},"geometry":{"type":"Polygon","coordinates":[[[113.57729,39.43812],[113.59916,39.42405],[113.6495,39.43463],[113.69831,39.41881],[113.73923,39.42086],[113.79131,39.37844],[113.89957,39.37302],[113.89819,39.34508],[113.96718,39.28152],[113.95859,39.22291],[113.9401,39.20692],[113.96176,39.10082],[114.0508,39.13586],[114.06525,39.09351],[114.0968,39.08372],[114.10873,39.05228],[114.1572,39.06117],[114.19699,39.05041],[114.22637,39.06649],[114.30014,39.07925],[114.34913,39.07677],[114.36966,39.10753],[114.36076,39.13399],[114.38819,39.17699],[114.4436,39.17415],[114.47484,39.21923],[114.41596,39.24287],[114.43861,39.31942],[114.46664,39.32966],[114.4709,39.40877],[114.4968,39.43854],[114.50231,39.47708],[114.52987,39.4852],[114.56892,39.57397],[114.51537,39.56502],[114.4958,39.60817],[114.43167,39.61405],[114.40815,39.65195],[114.41023,39.76171],[114.3907,39.81861],[114.39543,39.86722],[114.28508,39.85969],[114.22147,39.86118],[114.17417,39.89763],[114.06777,39.9223],[114.04737,39.91615],[114.02125,39.99178],[113.93203,40.00944],[113.97556,40.05106],[113.97985,40.11231],[114.01995,40.10248],[114.04382,40.0569],[114.09116,40.07531],[114.10122,40.10873],[114.06803,40.17975],[114.09775,40.19355],[114.1451,40.17737],[114.23588,40.19831],[114.25523,40.23619],[114.29311,40.23012],[114.36259,40.25009],[114.40641,40.24617],[114.46994,40.26804],[114.51095,40.30297],[114.53061,40.34512],[114.47081,40.34969],[114.44655,40.37289],[114.40372,40.35379],[114.31442,40.36957],[114.28708,40.42342],[114.29871,40.44559],[114.26721,40.4742],[114.29641,40.53596],[114.27432,40.55288],[114.28296,40.5908],[114.23614,40.607],[114.18324,40.6717],[114.13954,40.73994],[114.09324,40.73192],[114.06408,40.70713],[114.07046,40.6603],[114.04182,40.60865],[114.07688,40.57583],[114.06191,40.52886],[114.0114,40.51589],[113.94778,40.51678],[113.89011,40.46644],[113.85097,40.46058],[113.8327,40.48706],[113.7907,40.50251],[113.76345,40.47397],[113.68877,40.44819],[113.55989,40.34862],[113.50014,40.3345],[113.38762,40.31912],[113.31597,40.32013],[113.27397,40.39009],[113.24776,40.41298],[113.11536,40.38114],[113.03313,40.36892],[112.89297,40.32642],[112.89045,40.30517],[112.84502,40.2039],[112.75073,40.16803],[112.67791,40.20116],[112.62432,40.23684],[112.60319,40.20295],[112.62206,40.16374],[112.58045,40.1544],[112.58965,40.10105],[112.64263,40.03448],[112.61738,39.94869],[112.59655,39.92045],[112.60388,39.8806],[112.59112,39.83595],[112.62037,39.8094],[112.62102,39.76039],[112.64836,39.74069],[112.69371,39.76907],[112.73441,39.75332],[112.75281,39.77421],[112.82081,39.77679],[112.96683,39.86817],[112.93944,39.91257],[113.05192,39.91645],[113.12278,39.90833],[113.16843,39.91675],[113.23552,39.9583],[113.32521,39.93263],[113.38119,39.90606],[113.4396,39.85215],[113.37321,39.83452],[113.3444,39.80581],[113.33993,39.77655],[113.39317,39.74368],[113.41057,39.71482],[113.38614,39.68252],[113.38319,39.6492],[113.45874,39.57877],[113.51155,39.52041],[113.51853,39.48111],[113.57729,39.43812]]]}},{"type":"Feature","id":"datav:140300","properties":{"boundaryId":"datav:140300","nodeId":"geo:cn-sx-yqs","parentNodeId":"geo:cn-sx","bounds":[112.91987,37.66294,114.04386,38.52105]},"geometry":{"type":"Polygon","coordinates":[[[113.55555,38.52105],[113.48486,38.50856],[113.41669,38.51788],[113.29449,38.46802],[113.28486,38.45156],[113.20302,38.41539],[113.1457,38.41166],[113.15663,38.34525],[113.10898,38.30701],[113.0767,38.30707],[113.02632,38.25547],[113.00076,38.24857],[112.91987,38.15714],[113.01213,38.08492],[113.06685,38.05647],[113.1325,38.08246],[113.16422,38.05488],[113.21191,38.0821],[113.25383,38.09025],[113.26524,38.03347],[113.3017,37.98697],[113.34175,37.96211],[113.32608,37.90284],[113.36969,37.86725],[113.37256,37.83854],[113.44194,37.76538],[113.44381,37.74389],[113.48087,37.70016],[113.53298,37.67884],[113.61383,37.68081],[113.6462,37.66442],[113.70582,37.68525],[113.75928,37.6834],[113.77243,37.66294],[113.8367,37.67576],[113.90526,37.70614],[113.97985,37.6752],[113.99691,37.70447],[114.00081,37.73533],[114.04117,37.75682],[114.04386,37.77744],[113.97018,37.83399],[113.95924,37.90634],[113.93655,37.92317],[113.90127,37.98482],[113.87237,37.99034],[113.87627,38.05506],[113.81005,38.11255],[113.82546,38.16914],[113.75659,38.17165],[113.67909,38.20538],[113.6498,38.22979],[113.57035,38.23743],[113.54483,38.27052],[113.55728,38.34348],[113.52543,38.38298],[113.53802,38.41807],[113.58349,38.46595],[113.54657,38.49302],[113.55555,38.52105]]]}},{"type":"Feature","id":"datav:140400","properties":{"boundaryId":"datav:140400","nodeId":"geo:cn-sx-czs","parentNodeId":"geo:cn-sx","bounds":[111.98552,35.82576,113.73641,37.12097]},"geometry":{"type":"Polygon","coordinates":[[[111.99641,36.68715],[112.01937,36.67828],[112.04159,36.60205],[112.08711,36.58011],[112.10607,36.5447],[112.16179,36.51292],[112.18097,36.45876],[112.21282,36.40964],[112.25717,36.41046],[112.35489,36.34312],[112.44367,36.34268],[112.47222,36.27083],[112.5407,36.25557],[112.56096,36.2248],[112.56478,36.11447],[112.49813,36.08251],[112.50334,36.03259],[112.52213,36.03108],[112.62992,36.0623],[112.68767,36.005],[112.79703,35.97753],[112.82463,35.98717],[112.87366,35.97608],[112.88047,35.92691],[112.96748,35.92975],[113.03968,35.9148],[113.06568,35.89102],[113.12213,35.88711],[113.1407,35.87146],[113.19989,35.89784],[113.23956,35.89216],[113.2767,35.86326],[113.3217,35.88566],[113.3539,35.8815],[113.3897,35.8329],[113.41773,35.83372],[113.4452,35.8649],[113.52634,35.85335],[113.58527,35.82576],[113.66104,35.83726],[113.63739,35.86989],[113.65444,35.9172],[113.64889,35.99416],[113.69593,35.9999],[113.66143,36.04291],[113.68577,36.05601],[113.6738,36.11158],[113.71376,36.13296],[113.67731,36.22254],[113.71624,36.2626],[113.70908,36.2997],[113.73641,36.32468],[113.7296,36.38162],[113.70838,36.42336],[113.6702,36.42512],[113.62923,36.45469],[113.58723,36.46101],[113.55442,36.4947],[113.55945,36.531],[113.58814,36.56272],[113.53975,36.59411],[113.53546,36.62924],[113.48686,36.63524],[113.47705,36.65523],[113.502,36.68153],[113.46538,36.70775],[113.49935,36.74058],[113.54353,36.74433],[113.52188,36.75444],[113.49532,36.8072],[113.37833,36.87893],[113.3729,36.90714],[113.31194,36.97654],[113.22775,36.93123],[113.15611,36.92196],[113.00883,36.93049],[112.9286,36.87438],[112.87796,36.894],[112.8796,36.97013],[112.83309,37.00633],[112.79434,37.00726],[112.71684,37.09539],[112.6514,37.12097],[112.59377,37.07973],[112.54105,37.09135],[112.52139,37.12029],[112.48563,37.09483],[112.48615,37.04947],[112.51319,36.9947],[112.54278,36.96023],[112.48242,36.96198],[112.44849,36.93908],[112.35489,36.95563],[112.33189,36.9341],[112.27904,36.97871],[112.24866,36.98394],[112.21585,37.01715],[112.10082,36.97734],[112.06137,36.97548],[112.08611,36.9392],[112.0684,36.90832],[112.02887,36.88696],[112.00765,36.81929],[111.9883,36.81063],[111.98552,36.77059],[112.00778,36.74657],[111.99641,36.68715]]]}},{"type":"Feature","id":"datav:140500","properties":{"boundaryId":"datav:140500","nodeId":"geo:cn-sx-jcg","parentNodeId":"geo:cn-sx","bounds":[111.94217,35.2041,113.62485,36.0623]},"geometry":{"type":"Polygon","coordinates":[[[112.05881,35.27991],[112.09392,35.27921],[112.21724,35.25327],[112.28854,35.21752],[112.3673,35.2202],[112.39073,35.23883],[112.45773,35.22637],[112.61898,35.22007],[112.61833,35.25403],[112.70742,35.21695],[112.76726,35.2041],[112.82219,35.2581],[112.86906,35.24379],[112.92964,35.25689],[112.93606,35.28442],[112.99156,35.30235],[112.98531,35.33812],[112.99955,35.36232],[113.06711,35.35355],[113.12656,35.33221],[113.15463,35.38086],[113.18523,35.40904],[113.19004,35.44908],[113.23005,35.45327],[113.26538,35.43462],[113.29736,35.43855],[113.31233,35.48124],[113.34817,35.46836],[113.39178,35.50685],[113.48542,35.52073],[113.50673,35.56597],[113.57855,35.63353],[113.62485,35.63201],[113.61491,35.68301],[113.58679,35.74402],[113.59912,35.77511],[113.58527,35.82576],[113.52634,35.85335],[113.4452,35.8649],[113.41773,35.83372],[113.3897,35.8329],[113.3539,35.8815],[113.3217,35.88566],[113.2767,35.86326],[113.23956,35.89216],[113.19989,35.89784],[113.1407,35.87146],[113.12213,35.88711],[113.06568,35.89102],[113.03968,35.9148],[112.96748,35.92975],[112.88047,35.92691],[112.87366,35.97608],[112.82463,35.98717],[112.79703,35.97753],[112.68767,36.005],[112.62992,36.0623],[112.52213,36.03108],[112.53232,35.9849],[112.51696,35.96272],[112.46333,35.94072],[112.41199,35.90553],[112.32733,35.895],[112.27812,35.90383],[112.24037,35.89695],[112.19103,35.91714],[112.14417,35.91039],[112.15931,35.86976],[112.18344,35.87355],[112.21351,35.82999],[112.18674,35.8173],[112.12954,35.82008],[112.0356,35.85594],[112.03074,35.81099],[112.05374,35.77303],[112.02514,35.75211],[112.0274,35.7011],[111.96443,35.66485],[111.94217,35.62695],[111.94838,35.57642],[111.96673,35.56667],[111.96508,35.52548],[111.94699,35.50653],[111.97406,35.43144],[112.03278,35.39019],[112.02214,35.354],[112.0691,35.31569],[112.05881,35.27991]]]}},{"type":"Feature","id":"datav:140600","properties":{"boundaryId":"datav:140600","nodeId":"geo:cn-sx-szj","parentNodeId":"geo:cn-sx","bounds":[111.89578,39.08843,113.57729,40.30006]},"geometry":{"type":"Polygon","coordinates":[[[112.62432,40.23684],[112.51154,40.26917],[112.45617,40.30006],[112.41816,40.29525],[112.34556,40.25645],[112.31032,40.25639],[112.2855,40.19819],[112.23278,40.16963],[112.22327,40.1288],[112.18392,40.08479],[112.18183,40.06149],[112.14239,40.02733],[112.13358,40.00168],[112.07708,39.92087],[112.04254,39.88616],[112.03512,39.85437],[111.97619,39.79809],[111.95636,39.68774],[111.92394,39.66574],[111.93028,39.61141],[111.94273,39.58531],[112.00223,39.53716],[111.98752,39.52611],[111.90602,39.51758],[111.89578,39.49739],[111.91488,39.46326],[111.9873,39.44841],[112.01967,39.35707],[112.06419,39.3049],[112.08541,39.25312],[112.1348,39.27917],[112.18283,39.26663],[112.21868,39.17566],[112.2635,39.17548],[112.27409,39.12699],[112.2944,39.09907],[112.33146,39.12475],[112.36535,39.10808],[112.43773,39.10439],[112.50538,39.14046],[112.54617,39.1381],[112.58934,39.08843],[112.64997,39.08976],[112.6553,39.11901],[112.72595,39.14003],[112.75103,39.18338],[112.78093,39.19268],[112.81976,39.17493],[112.83369,39.20626],[112.87292,39.21253],[112.92109,39.28713],[113.036,39.32117],[113.05426,39.34966],[113.10894,39.36188],[113.13007,39.32539],[113.21217,39.29532],[113.25865,39.31473],[113.3624,39.3143],[113.38063,39.30171],[113.42268,39.33219],[113.51506,39.34695],[113.5339,39.38488],[113.57729,39.43812],[113.51853,39.48111],[113.51155,39.52041],[113.45874,39.57877],[113.38319,39.6492],[113.38614,39.68252],[113.41057,39.71482],[113.39317,39.74368],[113.33993,39.77655],[113.3444,39.80581],[113.37321,39.83452],[113.4396,39.85215],[113.38119,39.90606],[113.32521,39.93263],[113.23552,39.9583],[113.16843,39.91675],[113.12278,39.90833],[113.05192,39.91645],[112.93944,39.91257],[112.96683,39.86817],[112.82081,39.77679],[112.75281,39.77421],[112.73441,39.75332],[112.69371,39.76907],[112.64836,39.74069],[112.62102,39.76039],[112.62037,39.8094],[112.59112,39.83595],[112.60388,39.8806],[112.59655,39.92045],[112.61738,39.94869],[112.64263,40.03448],[112.58965,40.10105],[112.58045,40.1544],[112.62206,40.16374],[112.60319,40.20295],[112.62432,40.23684]]]}},{"type":"Feature","id":"datav:140700","properties":{"boundaryId":"datav:140700","nodeId":"geo:cn-sx-jzn","parentNodeId":"geo:cn-sx","bounds":[111.41468,36.65692,114.13972,38.09025]},"geometry":{"type":"Polygon","coordinates":[[[113.54353,36.74433],[113.59994,36.75288],[113.65574,36.78569],[113.68412,36.82478],[113.67627,36.85563],[113.69693,36.88229],[113.7316,36.87862],[113.74206,36.85114],[113.79283,36.89475],[113.76167,36.95607],[113.79495,36.99501],[113.77187,37.01684],[113.78823,37.05979],[113.75815,37.07563],[113.77352,37.10694],[113.77317,37.15189],[113.83192,37.16753],[113.8531,37.21511],[113.88643,37.23917],[113.90218,37.30999],[113.95985,37.349],[113.97386,37.40315],[114.02533,37.4413],[114.03679,37.49421],[114.12327,37.60145],[114.11537,37.6199],[114.13972,37.67588],[114.12826,37.69819],[114.06803,37.72154],[113.99691,37.70447],[113.97985,37.6752],[113.90526,37.70614],[113.8367,37.67576],[113.77243,37.66294],[113.75928,37.6834],[113.70582,37.68525],[113.6462,37.66442],[113.61383,37.68081],[113.53298,37.67884],[113.48087,37.70016],[113.44381,37.74389],[113.44194,37.76538],[113.37256,37.83854],[113.36969,37.86725],[113.32608,37.90284],[113.34175,37.96211],[113.3017,37.98697],[113.26524,38.03347],[113.25383,38.09025],[113.21191,38.0821],[113.16422,38.05488],[113.1325,38.08246],[113.06685,38.05647],[113.02428,38.0504],[113.02285,38.02642],[112.98917,38.00231],[112.93884,37.99053],[112.81764,37.98335],[112.76821,37.93945],[112.75823,37.88157],[112.70564,37.85121],[112.65296,37.77541],[112.66763,37.7402],[112.65049,37.71002],[112.57915,37.6339],[112.62376,37.5259],[112.59065,37.50681],[112.54469,37.51836],[112.50976,37.50755],[112.50824,37.47864],[112.43278,37.45886],[112.39485,37.46288],[112.35897,37.485],[112.33011,37.45892],[112.26385,37.42133],[112.25964,37.39412],[112.21724,37.33823],[112.13961,37.2665],[112.095,37.31544],[112.06927,37.31749],[112.04549,37.28001],[111.98044,37.27127],[111.94642,37.2094],[111.95124,37.17944],[111.92334,37.10626],[111.88003,37.05718],[111.8264,37.04431],[111.73536,36.99756],[111.68068,36.98804],[111.63729,36.94318],[111.52715,36.99905],[111.54143,36.93186],[111.58474,36.91878],[111.54334,36.89251],[111.50511,36.88653],[111.42058,36.84429],[111.41468,36.80402],[111.46193,36.7719],[111.54234,36.78824],[111.54646,36.74551],[111.5722,36.71649],[111.65833,36.65692],[111.67222,36.69539],[111.75953,36.7173],[111.83716,36.69651],[111.93614,36.70494],[111.99641,36.68715],[112.00778,36.74657],[111.98552,36.77059],[111.9883,36.81063],[112.00765,36.81929],[112.02887,36.88696],[112.0684,36.90832],[112.08611,36.9392],[112.06137,36.97548],[112.10082,36.97734],[112.21585,37.01715],[112.24866,36.98394],[112.27904,36.97871],[112.33189,36.9341],[112.35489,36.95563],[112.44849,36.93908],[112.48242,36.96198],[112.54278,36.96023],[112.51319,36.9947],[112.48615,37.04947],[112.48563,37.09483],[112.52139,37.12029],[112.54105,37.09135],[112.59377,37.07973],[112.6514,37.12097],[112.71684,37.09539],[112.79434,37.00726],[112.83309,37.00633],[112.8796,36.97013],[112.87796,36.894],[112.9286,36.87438],[113.00883,36.93049],[113.15611,36.92196],[113.22775,36.93123],[113.31194,36.97654],[113.3729,36.90714],[113.37833,36.87893],[113.49532,36.8072],[113.52188,36.75444],[113.54353,36.74433]]]}},{"type":"Feature","id":"datav:140800","properties":{"boundaryId":"datav:140800","nodeId":"geo:cn-sx-yce","parentNodeId":"geo:cn-sx","bounds":[110.22959,34.58347,112.07869,35.81244]},"geometry":{"type":"Polygon","coordinates":[[[110.57722,35.73688],[110.57761,35.70148],[110.60933,35.63214],[110.58907,35.60213],[110.5675,35.53949],[110.53166,35.51148],[110.47759,35.41387],[110.45003,35.32776],[110.37483,35.25193],[110.36433,35.19799],[110.36472,35.14026],[110.32085,35.00514],[110.30154,34.98862],[110.23098,34.88073],[110.24686,34.78889],[110.24318,34.72581],[110.22959,34.69265],[110.26908,34.62949],[110.29551,34.61104],[110.35079,34.60661],[110.40772,34.58924],[110.48848,34.61078],[110.53318,34.58347],[110.61098,34.60732],[110.7064,34.60399],[110.74915,34.65223],[110.79185,34.64974],[110.8243,34.61584],[110.88371,34.6441],[110.90372,34.66883],[110.91977,34.73022],[110.97631,34.70647],[111.03537,34.74091],[111.11821,34.75658],[111.1485,34.80749],[111.23984,34.79356],[111.25525,34.81958],[111.29413,34.80769],[111.3403,34.83134],[111.39558,34.81497],[111.43937,34.83818],[111.50264,34.82993],[111.5278,34.85013],[111.57081,34.84329],[111.62158,34.91631],[111.68155,34.95225],[111.66961,34.98818],[111.73935,35.00425],[111.80952,35.03684],[111.81841,35.06846],[111.90008,35.07987],[111.96313,35.07929],[112.06215,35.05577],[112.05625,35.09847],[112.06723,35.13624],[112.04206,35.20028],[112.07869,35.21937],[112.05881,35.27991],[112.0691,35.31569],[112.02214,35.354],[112.03278,35.39019],[111.97406,35.43144],[111.94933,35.39362],[111.89179,35.38791],[111.8513,35.39933],[111.83399,35.47249],[111.85326,35.51148],[111.90277,35.52333],[111.90884,35.54114],[111.84384,35.5533],[111.82336,35.59935],[111.76465,35.61138],[111.72282,35.64486],[111.68341,35.63992],[111.61264,35.64998],[111.58521,35.55875],[111.50658,35.57478],[111.36187,35.55121],[111.29625,35.53619],[111.26627,35.59802],[111.33678,35.70963],[111.29144,35.70464],[111.26518,35.67978],[111.19602,35.71937],[111.18382,35.76481],[111.14485,35.81149],[111.10111,35.81244],[111.05703,35.74105],[111.00265,35.7341],[110.97636,35.80783],[110.95171,35.78604],[110.95383,35.71905],[110.91248,35.69041],[110.84548,35.71912],[110.75956,35.73246],[110.74659,35.74434],[110.68475,35.7291],[110.65615,35.78819],[110.57722,35.73688]]]}},{"type":"Feature","id":"datav:140900","properties":{"boundaryId":"datav:140900","nodeId":"geo:cn-sx-xzs","parentNodeId":"geo:cn-sx","bounds":[110.94529,38.1324,113.96718,39.6631]},"geometry":{"type":"Polygon","coordinates":[[[111.93028,39.61141],[111.8789,39.60589],[111.84254,39.62011],[111.78765,39.58969],[111.72268,39.60601],[111.64653,39.64428],[111.61663,39.63331],[111.55762,39.65423],[111.50194,39.6631],[111.43811,39.64302],[111.44336,39.62017],[111.42249,39.54215],[111.42648,39.5034],[111.38864,39.49217],[111.33722,39.42092],[111.17219,39.42339],[111.1196,39.37723],[111.15505,39.36826],[111.1554,39.3387],[111.22717,39.28435],[111.21901,39.24565],[111.16308,39.15247],[111.17414,39.13514],[111.14733,39.10052],[111.13835,39.06431],[111.09417,39.03021],[111.03824,39.0201],[110.9833,38.98034],[111.0099,38.93263],[111.01012,38.84158],[110.94529,38.72947],[110.9495,38.68584],[110.98595,38.68432],[111.02509,38.65933],[111.15175,38.72388],[111.20244,38.72935],[111.22752,38.66736],[111.27621,38.5943],[111.34694,38.60343],[111.37363,38.57306],[111.44631,38.56362],[111.45078,38.53031],[111.55176,38.50685],[111.60956,38.54218],[111.68437,38.5666],[111.71926,38.60233],[111.74976,38.58188],[111.76903,38.53713],[111.72876,38.50002],[111.79355,38.45083],[111.78886,38.3878],[111.82331,38.36906],[111.82154,38.33676],[111.84236,38.30407],[111.77727,38.29271],[111.77918,38.24802],[111.81763,38.21431],[111.86914,38.22006],[111.91514,38.18071],[111.95133,38.16792],[112.01173,38.1842],[112.10138,38.16737],[112.13475,38.14098],[112.16035,38.15004],[112.21473,38.1324],[112.25148,38.1501],[112.26775,38.18249],[112.25148,38.21957],[112.22089,38.25058],[112.26997,38.26789],[112.24801,38.29173],[112.274,38.31391],[112.34061,38.30303],[112.36374,38.27804],[112.40648,38.26679],[112.44693,38.27608],[112.45869,38.24997],[112.49961,38.23731],[112.52473,38.24997],[112.56253,38.23915],[112.56904,38.21064],[112.62076,38.20654],[112.69388,38.24147],[112.79612,38.25101],[112.85083,38.30609],[112.97824,38.34226],[113.00345,38.34335],[113.03929,38.3817],[113.06937,38.38811],[113.08555,38.41575],[113.1457,38.41166],[113.20302,38.41539],[113.28486,38.45156],[113.29449,38.46802],[113.41669,38.51788],[113.48486,38.50856],[113.55555,38.52105],[113.56206,38.55832],[113.6028,38.58688],[113.61287,38.64602],[113.66707,38.64699],[113.71381,38.66371],[113.70999,38.6983],[113.77564,38.70985],[113.80294,38.7633],[113.83956,38.75838],[113.83657,38.79596],[113.85553,38.82897],[113.80133,38.85487],[113.77621,38.88567],[113.76753,38.95964],[113.89801,39.06764],[113.9303,39.06347],[113.96176,39.10082],[113.9401,39.20692],[113.95859,39.22291],[113.96718,39.28152],[113.89819,39.34508],[113.89957,39.37302],[113.79131,39.37844],[113.73923,39.42086],[113.69831,39.41881],[113.6495,39.43463],[113.59916,39.42405],[113.57729,39.43812],[113.5339,39.38488],[113.51506,39.34695],[113.42268,39.33219],[113.38063,39.30171],[113.3624,39.3143],[113.25865,39.31473],[113.21217,39.29532],[113.13007,39.32539],[113.10894,39.36188],[113.05426,39.34966],[113.036,39.32117],[112.92109,39.28713],[112.87292,39.21253],[112.83369,39.20626],[112.81976,39.17493],[112.78093,39.19268],[112.75103,39.18338],[112.72595,39.14003],[112.6553,39.11901],[112.64997,39.08976],[112.58934,39.08843],[112.54617,39.1381],[112.50538,39.14046],[112.43773,39.10439],[112.36535,39.10808],[112.33146,39.12475],[112.2944,39.09907],[112.27409,39.12699],[112.2635,39.17548],[112.21868,39.17566],[112.18283,39.26663],[112.1348,39.27917],[112.08541,39.25312],[112.06419,39.3049],[112.01967,39.35707],[111.9873,39.44841],[111.91488,39.46326],[111.89578,39.49739],[111.90602,39.51758],[111.98752,39.52611],[112.00223,39.53716],[111.94273,39.58531],[111.93028,39.61141]]]}},{"type":"Feature","id":"datav:141000","properties":{"boundaryId":"datav:141000","nodeId":"geo:cn-sx-lfn","parentNodeId":"geo:cn-sx","bounds":[110.3777,35.38791,112.56478,36.93372]},"geometry":{"type":"Polygon","coordinates":[[[110.41055,36.89948],[110.3777,36.8732],[110.42452,36.85557],[110.41957,36.79834],[110.4033,36.77296],[110.45181,36.72654],[110.42235,36.66179],[110.44743,36.62112],[110.49681,36.58223],[110.50341,36.48819],[110.47308,36.44849],[110.49213,36.42318],[110.45997,36.32788],[110.47355,36.3105],[110.47394,36.24816],[110.45416,36.22367],[110.44708,36.16434],[110.46796,36.07464],[110.49221,36.03466],[110.49295,35.99593],[110.51426,35.9757],[110.50323,35.94324],[110.51669,35.92174],[110.5117,35.87973],[110.55123,35.87538],[110.55075,35.83808],[110.57128,35.80069],[110.57722,35.73688],[110.65615,35.78819],[110.68475,35.7291],[110.74659,35.74434],[110.75956,35.73246],[110.84548,35.71912],[110.91248,35.69041],[110.95383,35.71905],[110.95171,35.78604],[110.97636,35.80783],[111.00265,35.7341],[111.05703,35.74105],[111.10111,35.81244],[111.14485,35.81149],[111.18382,35.76481],[111.19602,35.71937],[111.26518,35.67978],[111.29144,35.70464],[111.33678,35.70963],[111.26627,35.59802],[111.29625,35.53619],[111.36187,35.55121],[111.50658,35.57478],[111.58521,35.55875],[111.61264,35.64998],[111.68341,35.63992],[111.72282,35.64486],[111.76465,35.61138],[111.82336,35.59935],[111.84384,35.5533],[111.90884,35.54114],[111.90277,35.52333],[111.85326,35.51148],[111.83399,35.47249],[111.8513,35.39933],[111.89179,35.38791],[111.94933,35.39362],[111.97406,35.43144],[111.94699,35.50653],[111.96508,35.52548],[111.96673,35.56667],[111.94838,35.57642],[111.94217,35.62695],[111.96443,35.66485],[112.0274,35.7011],[112.02514,35.75211],[112.05374,35.77303],[112.03074,35.81099],[112.0356,35.85594],[112.12954,35.82008],[112.18674,35.8173],[112.21351,35.82999],[112.18344,35.87355],[112.15931,35.86976],[112.14417,35.91039],[112.19103,35.91714],[112.24037,35.89695],[112.27812,35.90383],[112.32733,35.895],[112.41199,35.90553],[112.46333,35.94072],[112.51696,35.96272],[112.53232,35.9849],[112.52213,36.03108],[112.50334,36.03259],[112.49813,36.08251],[112.56478,36.11447],[112.56096,36.2248],[112.5407,36.25557],[112.47222,36.27083],[112.44367,36.34268],[112.35489,36.34312],[112.25717,36.41046],[112.21282,36.40964],[112.18097,36.45876],[112.16179,36.51292],[112.10607,36.5447],[112.08711,36.58011],[112.04159,36.60205],[112.01937,36.67828],[111.99641,36.68715],[111.93614,36.70494],[111.83716,36.69651],[111.75953,36.7173],[111.67222,36.69539],[111.65833,36.65692],[111.5722,36.71649],[111.54646,36.74551],[111.54234,36.78824],[111.46193,36.7719],[111.41468,36.80402],[111.36568,36.77826],[111.32524,36.73996],[111.27725,36.75855],[111.21164,36.74894],[111.18508,36.84036],[111.13526,36.84603],[111.09638,36.83662],[111.06783,36.85513],[111.0808,36.93111],[111.04218,36.92912],[110.97106,36.89618],[110.93743,36.90639],[110.89521,36.87594],[110.83893,36.85893],[110.79141,36.86448],[110.76577,36.90017],[110.72532,36.91081],[110.71782,36.9326],[110.66175,36.93372],[110.63033,36.87189],[110.57431,36.86149],[110.49972,36.87961],[110.46978,36.87675],[110.41055,36.89948]]]}},{"type":"Feature","id":"datav:141100","properties":{"boundaryId":"datav:141100","nodeId":"geo:cn-sx-llh","parentNodeId":"geo:cn-sx","bounds":[110.40556,36.73996,112.33011,38.72947]},"geometry":{"type":"Polygon","coordinates":[[[112.33011,37.45892],[112.2957,37.52145],[112.29045,37.56689],[112.25569,37.56171],[112.17411,37.6355],[112.17593,37.67453],[112.10277,37.71618],[111.97498,37.71316],[111.92138,37.75793],[111.91227,37.79295],[111.81984,37.79609],[111.76781,37.83232],[111.74716,37.87051],[111.70615,37.87899],[111.68346,37.86387],[111.57024,37.85237],[111.58009,37.90271],[111.5456,37.95597],[111.51687,38.01967],[111.51591,38.05126],[111.56768,38.09552],[111.62501,38.10183],[111.68975,38.13467],[111.71631,38.17496],[111.80643,38.19546],[111.81763,38.21431],[111.77918,38.24802],[111.77727,38.29271],[111.84236,38.30407],[111.82154,38.33676],[111.82331,38.36906],[111.78886,38.3878],[111.79355,38.45083],[111.72876,38.50002],[111.76903,38.53713],[111.74976,38.58188],[111.71926,38.60233],[111.68437,38.5666],[111.60956,38.54218],[111.55176,38.50685],[111.45078,38.53031],[111.44631,38.56362],[111.37363,38.57306],[111.34694,38.60343],[111.27621,38.5943],[111.22752,38.66736],[111.20244,38.72935],[111.15175,38.72388],[111.02509,38.65933],[110.98595,38.68432],[110.9495,38.68584],[110.94529,38.72947],[110.91539,38.70426],[110.91621,38.67399],[110.8808,38.62692],[110.90944,38.56319],[110.90766,38.52111],[110.87104,38.5102],[110.87425,38.45369],[110.84071,38.43997],[110.79684,38.45345],[110.77761,38.44089],[110.75032,38.36949],[110.70163,38.35331],[110.66861,38.31367],[110.57748,38.29723],[110.56724,38.21755],[110.52393,38.21052],[110.50788,38.18494],[110.5212,38.12444],[110.50189,38.09809],[110.50141,38.03899],[110.52706,37.98813],[110.5225,37.95492],[110.58798,37.92661],[110.68037,37.79006],[110.73574,37.77037],[110.75071,37.73613],[110.70658,37.70534],[110.7754,37.68087],[110.79332,37.65079],[110.76368,37.63957],[110.77228,37.59269],[110.79493,37.56615],[110.7711,37.53837],[110.75835,37.47116],[110.74498,37.45076],[110.64817,37.43815],[110.62968,37.38366],[110.64149,37.36008],[110.69503,37.34962],[110.65138,37.25658],[110.58455,37.18068],[110.54029,37.14463],[110.53556,37.11514],[110.49863,37.0898],[110.46049,37.04475],[110.42599,37.04083],[110.40556,36.99146],[110.42426,36.96372],[110.41055,36.89948],[110.46978,36.87675],[110.49972,36.87961],[110.57431,36.86149],[110.63033,36.87189],[110.66175,36.93372],[110.71782,36.9326],[110.72532,36.91081],[110.76577,36.90017],[110.79141,36.86448],[110.83893,36.85893],[110.89521,36.87594],[110.93743,36.90639],[110.97106,36.89618],[111.04218,36.92912],[111.0808,36.93111],[111.06783,36.85513],[111.09638,36.83662],[111.13526,36.84603],[111.18508,36.84036],[111.21164,36.74894],[111.27725,36.75855],[111.32524,36.73996],[111.36568,36.77826],[111.41468,36.80402],[111.42058,36.84429],[111.50511,36.88653],[111.54334,36.89251],[111.58474,36.91878],[111.54143,36.93186],[111.52715,36.99905],[111.63729,36.94318],[111.68068,36.98804],[111.73536,36.99756],[111.8264,37.04431],[111.88003,37.05718],[111.92334,37.10626],[111.95124,37.17944],[111.94642,37.2094],[111.98044,37.27127],[112.04549,37.28001],[112.06927,37.31749],[112.095,37.31544],[112.13961,37.2665],[112.21724,37.33823],[112.25964,37.39412],[112.26385,37.42133],[112.33011,37.45892]]]}}]}