{"type":"FeatureCollection","features":[{"type":"Feature","id":"datav:460100","properties":{"boundaryId":"datav:460100","nodeId":"geo:cn-hi-hak","parentNodeId":"geo:cn-hi","bounds":[110.10653,19.52684,110.69957,20.11347]},"geometry":{"type":"Polygon","coordinates":[[[110.10653,20.02685],[110.1619,19.97769],[110.14393,19.88911],[110.18625,19.86419],[110.22828,19.75377],[110.20847,19.71668],[110.26245,19.68732],[110.34004,19.72062],[110.39337,19.69805],[110.37263,19.654],[110.40115,19.60663],[110.45569,19.57456],[110.5193,19.56334],[110.54022,19.53553],[110.61152,19.52684],[110.64133,19.54912],[110.63615,19.59399],[110.67281,19.64721],[110.62346,19.66411],[110.623,19.73546],[110.69957,19.86151],[110.63467,19.9654],[110.598,19.98305],[110.52661,20.07521],[110.38736,20.11347],[110.31847,20.10906],[110.29328,20.05961],[110.24319,20.07757],[110.1444,20.07442],[110.10653,20.02685]]]}},{"type":"Feature","id":"datav:460200","properties":{"boundaryId":"datav:460200","nodeId":"geo:cn-hi-syx","parentNodeId":"geo:cn-hi","bounds":[108.93237,18.14355,109.80996,18.62344]},"geometry":{"type":"Polygon","coordinates":[[[108.93237,18.33529],[108.95645,18.30743],[109.00663,18.32303],[109.1083,18.32383],[109.13867,18.26779],[109.28811,18.26493],[109.35589,18.21492],[109.44135,18.19915],[109.56172,18.14355],[109.63792,18.1716],[109.74986,18.19326],[109.78338,18.33752],[109.80542,18.34754],[109.78505,18.42662],[109.80996,18.45939],[109.78116,18.51107],[109.72523,18.4931],[109.71088,18.42646],[109.66588,18.39146],[109.53987,18.39671],[109.51561,18.42901],[109.53524,18.53142],[109.42339,18.57466],[109.40515,18.62344],[109.33283,18.57545],[109.3133,18.51743],[109.24654,18.55892],[109.20357,18.55352],[109.19515,18.46941],[109.07256,18.45223],[109.01524,18.42265],[108.93237,18.33529]]]}},{"type":"Feature","id":"datav:460300","properties":{"boundaryId":"datav:460300","nodeId":null,"bounds":[109.46403,5.06027,117.83587,19.23692]},"geometry":{"type":"MultiPolygon","coordinates":[[[[113.89694,7.60711],[113.91944,7.56689],[113.98721,7.5363],[114.05897,7.5378],[114.15758,7.5614],[114.29017,7.61725],[114.36841,7.63868],[114.40378,7.67591],[114.42008,7.7658],[114.46415,7.81497],[114.54045,7.86198],[114.54073,7.94551],[114.47258,7.96909],[114.41462,7.95282],[114.26823,7.87078],[114.21175,7.78706],[114.09508,7.72094],[114.02907,7.66993],[113.92147,7.63902],[113.89694,7.60711]]],[[[115.83747,9.70966],[115.90099,9.67099],[115.92561,9.78155],[115.8708,9.77874],[115.83747,9.70966]]],[[[114.61739,9.9654],[114.67221,9.92775],[114.68582,9.97911],[114.61739,9.9654]]],[[[109.46403,7.34461],[109.51329,7.32033],[109.57153,7.37354],[109.65412,7.47945],[109.7094,7.51087],[109.7919,7.5245],[109.93912,7.50455],[109.90477,7.5516],[109.81644,7.5727],[109.72236,7.57586],[109.65301,7.55957],[109.53589,7.44869],[109.46403,7.34461]]],[[[112.47659,16.00136],[112.56992,16.01119],[112.61223,16.03939],[112.58807,16.07081],[112.46224,16.04406],[112.47659,16.00136]]],[[[114.46934,10.83599],[114.51323,10.84867],[114.56517,10.83648],[114.59341,10.85657],[114.55471,10.90103],[114.46934,10.83599]]],[[[112.40937,16.29529],[112.53881,16.28901],[112.52909,16.3183],[112.40937,16.29529]]],[[[115.50006,9.89818],[115.54849,9.86894],[115.58127,9.91718],[115.51784,9.93369],[115.50006,9.89818]]],[[[116.48866,10.39597],[116.4619,10.34913],[116.467,10.30888],[116.56653,10.30442],[116.64477,10.33494],[116.63792,10.36496],[116.51496,10.34929],[116.48866,10.39597]]],[[[113.89472,8.00496],[113.90509,7.96361],[113.97064,7.94468],[113.93999,8.01824],[113.89472,8.00496]]],[[[114.50786,8.12017],[114.52082,8.10324],[114.59573,8.12067],[114.596,8.15818],[114.50786,8.12017]]],[[[109.93634,7.84836],[109.98829,7.81264],[110.05023,7.84653],[110.08282,7.89669],[110.07791,7.9495],[110.03301,7.94452],[109.95282,7.88855],[109.93634,7.84836]]],[[[114.69721,11.00441],[114.79332,11.07633],[114.76656,11.11022],[114.69721,11.00441]]],[[[114.6198,11.43203],[114.65258,11.43712],[114.66184,11.52257],[114.6198,11.51583],[114.6198,11.43203]]],[[[110.45976,8.11636],[110.47124,8.0722],[110.5543,8.09361],[110.59976,8.15686],[110.56819,8.17262],[110.45976,8.11636]]],[[[114.49304,10.71723],[114.56276,10.77818],[114.53924,10.7935],[114.49304,10.71723]]],[[[117.77087,10.77357],[117.79874,10.75331],[117.83587,10.80371],[117.80161,10.83945],[117.77087,10.77357]]],[[[111.5391,7.54428],[111.58354,7.54328],[111.61234,7.59232],[111.56345,7.60262],[111.5391,7.54428]]],[[[111.92548,8.07087],[111.9652,8.04746],[112.01317,8.09328],[111.95456,8.10623],[111.92548,8.07087]]],[[[114.21304,16.04068],[114.30777,16.03407],[114.30647,16.0576],[114.21304,16.04068]]],[[[111.67049,7.65131],[111.70743,7.64882],[111.74965,7.70399],[111.69123,7.7118],[111.67049,7.65131]]],[[[117.2668,10.69169],[117.40476,10.67077],[117.41856,10.70257],[117.3693,10.74243],[117.293,10.73535],[117.2668,10.69169]]],[[[112.58316,5.56162],[112.61436,5.46549],[112.63936,5.48001],[112.61621,5.5688],[112.58316,5.56162]]],[[[112.65103,5.10687],[112.65297,5.06027],[112.7189,5.0758],[112.67853,5.12123],[112.65103,5.10687]]],[[[111.63882,7.90715],[111.70743,7.88623],[111.71363,7.92741],[111.65178,7.93256],[111.63882,7.90715]]],[[[113.83212,19.15838],[113.91472,19.17216],[113.92036,19.22346],[113.87592,19.23692],[113.80675,19.22314],[113.83212,19.15838]]],[[[112.61186,5.36784],[112.6402,5.34798],[112.6851,5.37185],[112.64538,5.40958],[112.61186,5.36784]]]]}},{"type":"Feature","id":"datav:460400","properties":{"boundaryId":"datav:460400","nodeId":null,"bounds":[108.92867,19.17897,109.7694,19.9178]},"geometry":{"type":"Polygon","coordinates":[[[108.92867,19.52431],[108.98274,19.47721],[108.99737,19.43152],[109.04478,19.43042],[109.05145,19.4878],[109.11756,19.46757],[109.17839,19.39926],[109.26774,19.3768],[109.31894,19.39816],[109.38404,19.35545],[109.42441,19.35481],[109.48385,19.40606],[109.50635,19.35956],[109.46839,19.30118],[109.54163,19.31194],[109.58737,19.24325],[109.68699,19.17897],[109.70681,19.22156],[109.70023,19.34944],[109.64727,19.35751],[109.64644,19.40243],[109.73773,19.40749],[109.7282,19.49602],[109.76005,19.52889],[109.7694,19.57851],[109.70931,19.57756],[109.66422,19.62968],[109.58292,19.63758],[109.55737,19.69742],[109.5994,19.73073],[109.56922,19.79795],[109.56459,19.85489],[109.49866,19.87334],[109.30811,19.9178],[109.26459,19.90503],[109.15913,19.79069],[109.1695,19.73672],[109.14765,19.705],[109.09367,19.68984],[109.04858,19.62005],[108.99339,19.58672],[108.92867,19.52431]]]}},{"type":"Feature","id":"datav:469001","properties":{"boundaryId":"datav:469001","nodeId":null,"bounds":[109.32635,18.62773,109.71542,19.03225]},"geometry":{"type":"Polygon","coordinates":[[[109.71542,18.83369],[109.67653,18.92586],[109.60153,18.91032],[109.55357,18.94632],[109.52403,19.03099],[109.46839,19.03225],[109.36774,18.93617],[109.34848,18.94632],[109.32635,18.92634],[109.37459,18.854],[109.35339,18.8129],[109.35663,18.71065],[109.39811,18.6711],[109.40802,18.62773],[109.44829,18.65538],[109.53987,18.65951],[109.57672,18.71478],[109.61987,18.67825],[109.64181,18.72304],[109.70301,18.72177],[109.68153,18.78607],[109.71542,18.83369]]]}},{"type":"Feature","id":"datav:469002","properties":{"boundaryId":"datav:469002","nodeId":null,"bounds":[110.11523,18.97629,110.73004,19.46836]},"geometry":{"type":"Polygon","coordinates":[[[110.61059,19.08439],[110.6193,19.15204],[110.6767,19.2863],[110.73004,19.37886],[110.63356,19.39135],[110.58143,19.4195],[110.54624,19.46836],[110.45032,19.44749],[110.42393,19.4135],[110.36874,19.39183],[110.32736,19.31526],[110.3593,19.29865],[110.34439,19.22837],[110.30023,19.21586],[110.22486,19.22172],[110.1706,19.19132],[110.11523,19.13319],[110.12412,19.04747],[110.15856,18.99944],[110.22958,19.00245],[110.24995,18.97629],[110.5218,19.10293],[110.61059,19.08439]]]}},{"type":"Feature","id":"datav:469005","properties":{"boundaryId":"datav:469005","nodeId":null,"bounds":[110.5193,19.37886,111.07133,20.14873]},"geometry":{"type":"Polygon","coordinates":[[[110.73004,19.37886],[110.78105,19.39578],[110.84402,19.45018],[110.92077,19.5526],[111.07133,19.6289],[111.04401,19.76355],[110.96957,20.01015],[110.94096,20.02858],[110.87152,20.01157],[110.74467,20.07395],[110.71726,20.14873],[110.56226,20.10969],[110.52661,20.07521],[110.598,19.98305],[110.63467,19.9654],[110.69957,19.86151],[110.623,19.73546],[110.62346,19.66411],[110.67281,19.64721],[110.63615,19.59399],[110.64133,19.54912],[110.61152,19.52684],[110.54022,19.53553],[110.5193,19.56334],[110.52059,19.50993],[110.54624,19.46836],[110.58143,19.4195],[110.63356,19.39135],[110.73004,19.37886]]]}},{"type":"Feature","id":"datav:469006","properties":{"boundaryId":"datav:469006","nodeId":null,"bounds":[110.01495,18.57879,110.61059,19.10293]},"geometry":{"type":"Polygon","coordinates":[[[110.15856,18.99944],[110.09773,18.91175],[110.04532,18.88478],[110.09579,18.81147],[110.05727,18.75845],[110.01495,18.73289],[110.02079,18.65887],[110.11588,18.59277],[110.13754,18.60612],[110.21393,18.57879],[110.24625,18.60962],[110.32939,18.64251],[110.36754,18.63218],[110.49532,18.64998],[110.50078,18.75273],[110.57791,18.78464],[110.58587,18.89779],[110.61059,19.08439],[110.5218,19.10293],[110.24995,18.97629],[110.22958,19.00245],[110.15856,18.99944]]]}},{"type":"Feature","id":"datav:469007","properties":{"boundaryId":"datav:469007","nodeId":null,"bounds":[108.59108,18.71685,109.12524,19.34928]},"geometry":{"type":"Polygon","coordinates":[[[109.12524,18.87843],[109.08978,18.90984],[109.11367,18.96995],[109.09885,19.02829],[109.00876,19.05],[109.02293,19.10705],[108.99191,19.13034],[108.95487,19.21887],[108.91617,19.21855],[108.83321,19.25987],[108.78377,19.24467],[108.70414,19.26272],[108.64479,19.34928],[108.60571,19.26462],[108.59108,19.14159],[108.59831,19.05587],[108.63043,19.00309],[108.63784,18.92459],[108.59562,18.87209],[108.59321,18.8094],[108.65979,18.71685],[108.76154,18.73209],[108.81145,18.72002],[108.84441,18.75083],[108.92858,18.7902],[108.987,18.78655],[109.01515,18.80893],[109.07108,18.8075],[109.12524,18.87843]]]}},{"type":"Feature","id":"datav:469021","properties":{"boundaryId":"datav:469021","nodeId":null,"bounds":[110.13134,19.21586,110.54624,19.72062]},"geometry":{"type":"Polygon","coordinates":[[[110.22486,19.22172],[110.30023,19.21586],[110.34439,19.22837],[110.3593,19.29865],[110.32736,19.31526],[110.36874,19.39183],[110.42393,19.4135],[110.45032,19.44749],[110.54624,19.46836],[110.52059,19.50993],[110.5193,19.56334],[110.45569,19.57456],[110.40115,19.60663],[110.37263,19.654],[110.39337,19.69805],[110.34004,19.72062],[110.26245,19.68732],[110.22162,19.62984],[110.13134,19.648],[110.13727,19.56034],[110.19217,19.58925],[110.19634,19.53537],[110.24301,19.51768],[110.22773,19.45065],[110.16449,19.42615],[110.16569,19.36146],[110.18828,19.30624],[110.2281,19.30197],[110.22486,19.22172]]]}},{"type":"Feature","id":"datav:469022","properties":{"boundaryId":"datav:469022","nodeId":null,"bounds":[109.82273,19.13319,110.24301,19.58925]},"geometry":{"type":"Polygon","coordinates":[[[110.11523,19.13319],[110.1706,19.19132],[110.22486,19.22172],[110.2281,19.30197],[110.18828,19.30624],[110.16569,19.36146],[110.16449,19.42615],[110.22773,19.45065],[110.24301,19.51768],[110.19634,19.53537],[110.19217,19.58925],[110.13727,19.56034],[110.11949,19.50329],[109.94699,19.46804],[109.87644,19.38693],[109.82644,19.34311],[109.82273,19.28963],[109.92357,19.23961],[109.95764,19.18862],[110.02653,19.17564],[110.05727,19.13462],[110.11523,19.13319]]]}},{"type":"Feature","id":"datav:469023","properties":{"boundaryId":"datav:469023","nodeId":null,"bounds":[109.7282,19.37997,110.26245,20.02685]},"geometry":{"type":"Polygon","coordinates":[[[110.13727,19.56034],[110.13134,19.648],[110.22162,19.62984],[110.26245,19.68732],[110.20847,19.71668],[110.22828,19.75377],[110.18625,19.86419],[110.14393,19.88911],[110.1619,19.97769],[110.10653,20.02685],[109.99764,19.9799],[109.96523,19.99361],[109.85505,19.98415],[109.89708,19.77933],[109.85273,19.65258],[109.7694,19.57851],[109.76005,19.52889],[109.7282,19.49602],[109.73773,19.40749],[109.79347,19.37997],[109.85727,19.41239],[109.87644,19.38693],[109.94699,19.46804],[110.11949,19.50329],[110.13727,19.56034]]]}},{"type":"Feature","id":"datav:469024","properties":{"boundaryId":"datav:469024","nodeId":null,"bounds":[109.49866,19.57756,109.89708,20.0174]},"geometry":{"type":"Polygon","coordinates":[[[109.85505,19.98415],[109.76172,19.98132],[109.71227,20.0174],[109.58533,19.98825],[109.52663,19.94349],[109.49866,19.87334],[109.56459,19.85489],[109.56922,19.79795],[109.5994,19.73073],[109.55737,19.69742],[109.58292,19.63758],[109.66422,19.62968],[109.70931,19.57756],[109.7694,19.57851],[109.85273,19.65258],[109.89708,19.77933],[109.85505,19.98415]]]}},{"type":"Feature","id":"datav:469025","properties":{"boundaryId":"datav:469025","nodeId":null,"bounds":[109.04367,18.93617,109.68773,19.4878]},"geometry":{"type":"Polygon","coordinates":[[[109.2982,18.96091],[109.34848,18.94632],[109.36774,18.93617],[109.46839,19.03225],[109.52403,19.03099],[109.56135,19.07267],[109.68773,19.11878],[109.68699,19.17897],[109.58737,19.24325],[109.54163,19.31194],[109.46839,19.30118],[109.50635,19.35956],[109.48385,19.40606],[109.42441,19.35481],[109.38404,19.35545],[109.31894,19.39816],[109.26774,19.3768],[109.17839,19.39926],[109.11756,19.46757],[109.05145,19.4878],[109.04478,19.43042],[109.04367,19.34279],[109.08265,19.32887],[109.14283,19.26573],[109.12024,19.20399],[109.16367,19.14222],[109.17709,19.08344],[109.27117,19.06744],[109.2982,18.96091]]]}},{"type":"Feature","id":"datav:469026","properties":{"boundaryId":"datav:469026","nodeId":null,"bounds":[108.64479,18.87843,109.2982,19.52431]},"geometry":{"type":"Polygon","coordinates":[[[109.04478,19.43042],[108.99737,19.43152],[108.98274,19.47721],[108.92867,19.52431],[108.80636,19.45065],[108.74765,19.39167],[108.69414,19.38708],[108.64479,19.34928],[108.70414,19.26272],[108.78377,19.24467],[108.83321,19.25987],[108.91617,19.21855],[108.95487,19.21887],[108.99191,19.13034],[109.02293,19.10705],[109.00876,19.05],[109.09885,19.02829],[109.11367,18.96995],[109.08978,18.90984],[109.12524,18.87843],[109.14182,18.90445],[109.20672,18.89477],[109.26552,18.90588],[109.2982,18.96091],[109.27117,19.06744],[109.17709,19.08344],[109.16367,19.14222],[109.12024,19.20399],[109.14283,19.26573],[109.08265,19.32887],[109.04367,19.34279],[109.04478,19.43042]]]}},{"type":"Feature","id":"datav:469027","properties":{"boundaryId":"datav:469027","nodeId":null,"bounds":[108.64108,18.33529,109.40802,18.96091]},"geometry":{"type":"Polygon","coordinates":[[[109.40515,18.62344],[109.40802,18.62773],[109.39811,18.6711],[109.35663,18.71065],[109.35339,18.8129],[109.37459,18.854],[109.32635,18.92634],[109.34848,18.94632],[109.2982,18.96091],[109.26552,18.90588],[109.20672,18.89477],[109.14182,18.90445],[109.12524,18.87843],[109.07108,18.8075],[109.01515,18.80893],[108.987,18.78655],[108.92858,18.7902],[108.84441,18.75083],[108.81145,18.72002],[108.76154,18.73209],[108.65979,18.71685],[108.66414,18.67333],[108.64108,18.56528],[108.64497,18.48674],[108.70997,18.44412],[108.77673,18.44205],[108.88126,18.4166],[108.93237,18.33529],[109.01524,18.42265],[109.07256,18.45223],[109.19515,18.46941],[109.20357,18.55352],[109.24654,18.55892],[109.3133,18.51743],[109.33283,18.57545],[109.40515,18.62344]]]}},{"type":"Feature","id":"datav:469028","properties":{"boundaryId":"datav:469028","nodeId":null,"bounds":[109.75616,18.34754,110.21393,18.8094]},"geometry":{"type":"Polygon","coordinates":[[[110.01495,18.73289],[109.94412,18.77194],[109.8307,18.7286],[109.77347,18.8094],[109.75616,18.78893],[109.77199,18.72368],[109.80218,18.72526],[109.83968,18.67857],[109.80468,18.59436],[109.84662,18.57116],[109.82875,18.51123],[109.78116,18.51107],[109.80996,18.45939],[109.78505,18.42662],[109.80542,18.34754],[109.91968,18.37555],[109.99977,18.3598],[110.07079,18.37619],[110.09051,18.39926],[110.11662,18.50662],[110.21393,18.57879],[110.13754,18.60612],[110.11588,18.59277],[110.02079,18.65887],[110.01495,18.73289]]]}},{"type":"Feature","id":"datav:469029","properties":{"boundaryId":"datav:469029","nodeId":null,"bounds":[109.40515,18.39146,109.84662,18.83369]},"geometry":{"type":"Polygon","coordinates":[[[109.71542,18.83369],[109.68153,18.78607],[109.70301,18.72177],[109.64181,18.72304],[109.61987,18.67825],[109.57672,18.71478],[109.53987,18.65951],[109.44829,18.65538],[109.40802,18.62773],[109.40515,18.62344],[109.42339,18.57466],[109.53524,18.53142],[109.51561,18.42901],[109.53987,18.39671],[109.66588,18.39146],[109.71088,18.42646],[109.72523,18.4931],[109.78116,18.51107],[109.82875,18.51123],[109.84662,18.57116],[109.80468,18.59436],[109.83968,18.67857],[109.80218,18.72526],[109.77199,18.72368],[109.75616,18.78893],[109.77347,18.8094],[109.71542,18.83369]]]}},{"type":"Feature","id":"datav:469030","properties":{"boundaryId":"datav:469030","nodeId":null,"bounds":[109.52403,18.7286,110.15856,19.41239]},"geometry":{"type":"Polygon","coordinates":[[[109.87644,19.38693],[109.85727,19.41239],[109.79347,19.37997],[109.73773,19.40749],[109.64644,19.40243],[109.64727,19.35751],[109.70023,19.34944],[109.70681,19.22156],[109.68699,19.17897],[109.68773,19.11878],[109.56135,19.07267],[109.52403,19.03099],[109.55357,18.94632],[109.60153,18.91032],[109.67653,18.92586],[109.71542,18.83369],[109.77347,18.8094],[109.8307,18.7286],[109.94412,18.77194],[110.01495,18.73289],[110.05727,18.75845],[110.09579,18.81147],[110.04532,18.88478],[110.09773,18.91175],[110.15856,18.99944],[110.12412,19.04747],[110.11523,19.13319],[110.05727,19.13462],[110.02653,19.17564],[109.95764,19.18862],[109.92357,19.23961],[109.82273,19.28963],[109.82644,19.34311],[109.87644,19.38693]]]}}]}